{"type": "FeatureCollection", "features": [{"type": "Feature", "properties": {"area_id": 9875, "city": "Houston", "state": "TX", "city_survey": true, "cat": "Best", "grade": "A", "label": null, "res": true, "com": false, "ind": false, "holc_grade": "A"}, "geometry": {"type": "Polygon", "coordinates": [[[-95.38518, 29.75735], [-95.38571, 29.75735], [-95.38915, 29.75734], [-95.38929, 29.75883], [-95.38946, 29.75963], [-95.38951, 29.76113], [-95.38836, 29.76109], [-95.38756, 29.76113], [-95.38681, 29.76158], [-95.38672, 29.76163], [-95.38661, 29.7616], [-95.38574, 29.7614], [-95.3854, 29.76132], [-95.38518, 29.75735]]]}}, {"type": "Feature", "properties": {"area_id": 9876, "city": "Houston", "state": "TX", "city_survey": true, "cat": "Best", "grade": "A", "label": null, "res": true, "com": false, "ind": false, "holc_grade": "A"}, "geometry": {"type": "Polygon", "coordinates": [[[-95.43463, 29.74738], [-95.43492, 29.75783], [-95.43496, 29.75923], [-95.43369, 29.75932], [-95.43323, 29.7591], [-95.43281, 29.75891], [-95.43168, 29.75829], [-95.43063, 29.75812], [-95.4297, 29.75812], [-95.42961, 29.75828], [-95.4295, 29.75846], [-95.42989, 29.75915], [-95.43015, 29.75994], [-95.4297, 29.76023], [-95.42955, 29.76018], [-95.42873, 29.75991], [-95.42797, 29.75925], [-95.42732, 29.75822], [-95.4265, 29.7576], [-95.4261, 29.75694], [-95.42585, 29.75657], [-95.42541, 29.7567], [-95.4254, 29.7567], [-95.42517, 29.75724], [-95.42489, 29.75765], [-95.42449, 29.75765], [-95.42446, 29.75764], [-95.42367, 29.75748], [-95.42316, 29.75741], [-95.42275, 29.75756], [-95.42268, 29.75758], [-95.4224, 29.75787], [-95.42213, 29.7582], [-95.42176, 29.75848], [-95.42153, 29.75875], [-95.42118, 29.75906], [-95.42072, 29.75911], [-95.42058, 29.75907], [-95.42025, 29.75899], [-95.41993, 29.75876], [-95.41971, 29.7585], [-95.41926, 29.75787], [-95.41909, 29.75748], [-95.41882, 29.75726], [-95.41848, 29.7572], [-95.41824, 29.75733], [-95.41785, 29.75761], [-95.41748, 29.75791], [-95.41743, 29.75819], [-95.41731, 29.75838], [-95.41716, 29.75862], [-95.41685, 29.75913], [-95.41642, 29.75971], [-95.41642, 29.75971], [-95.41579, 29.75991], [-95.41544, 29.75976], [-95.41497, 29.75958], [-95.41415, 29.75955], [-95.41373, 29.75991], [-95.41366, 29.75998], [-95.4137, 29.76127], [-95.41372, 29.76188], [-95.41324, 29.76205], [-95.41291, 29.76217], [-95.41168, 29.76178], [-95.41073, 29.76123], [-95.41015, 29.76073], [-95.40928, 29.76011], [-95.40917, 29.75946], [-95.40874, 29.75698], [-95.40874, 29.75581], [-95.40874, 29.75527], [-95.40992, 29.75522], [-95.41005, 29.75522], [-95.41006, 29.75517], [-95.41011, 29.75468], [-95.41069, 29.75441], [-95.41072, 29.75406], [-95.41091, 29.75196], [-95.41089, 29.74881], [-95.41475, 29.74885], [-95.41882, 29.7482], [-95.42249, 29.74762], [-95.42231, 29.74217], [-95.42231, 29.74201], [-95.43003, 29.74172], [-95.43435, 29.74156], [-95.43447, 29.74155], [-95.43463, 29.74738]]]}}, {"type": "Feature", "properties": {"area_id": 9877, "city": "Houston", "state": "TX", "city_survey": true, "cat": "Best", "grade": "A", "label": null, "res": true, "com": false, "ind": false, "holc_grade": "A"}, "geometry": {"type": "Polygon", "coordinates": [[[-95.37466, 29.70763], [-95.37432, 29.70895], [-95.37098, 29.71319], [-95.37064, 29.71362], [-95.37025, 29.71303], [-95.37002, 29.71217], [-95.36999, 29.71104], [-95.36996, 29.71026], [-95.36956, 29.70934], [-95.36951, 29.70922], [-95.36914, 29.70903], [-95.36892, 29.70929], [-95.36877, 29.70945], [-95.36838, 29.70979], [-95.36787, 29.70979], [-95.36759, 29.71016], [-95.36725, 29.71055], [-95.36677, 29.71028], [-95.36628, 29.71018], [-95.36566, 29.71011], [-95.36573, 29.70994], [-95.36753, 29.70549], [-95.37466, 29.70763]]]}}, {"type": "Feature", "properties": {"area_id": 9878, "city": "Houston", "state": "TX", "city_survey": true, "cat": "Best", "grade": "A", "label": null, "res": true, "com": false, "ind": false, "holc_grade": "A"}, "geometry": {"type": "Polygon", "coordinates": [[[-95.39676, 29.69498], [-95.39616, 29.69687], [-95.39444, 29.70226], [-95.39247, 29.70842], [-95.38907, 29.70754], [-95.38945, 29.70629], [-95.39258, 29.69611], [-95.39318, 29.69417], [-95.39676, 29.69498]]]}}, {"type": "Feature", "properties": {"area_id": 9879, "city": "Houston", "state": "TX", "city_survey": true, "cat": "Best", "grade": "A", "label": null, "res": true, "com": false, "ind": false, "holc_grade": "A"}, "geometry": {"type": "Polygon", "coordinates": [[[-95.42081, 29.69421], [-95.42293, 29.69391], [-95.42364, 29.69445], [-95.42418, 29.69514], [-95.42314, 29.69675], [-95.42305, 29.69678], [-95.42234, 29.69703], [-95.42149, 29.69733], [-95.41928, 29.69839], [-95.41747, 29.70025], [-95.41738, 29.70071], [-95.41691, 29.7032], [-95.41705, 29.70482], [-95.41713, 29.70532], [-95.41592, 29.70611], [-95.41175, 29.70619], [-95.4115, 29.71483], [-95.41117, 29.71487], [-95.41012, 29.715], [-95.40703, 29.71505], [-95.40564, 29.71483], [-95.40528, 29.71436], [-95.40412, 29.71357], [-95.40321, 29.71286], [-95.40202, 29.71205], [-95.40131, 29.71164], [-95.40093, 29.71142], [-95.40083, 29.71136], [-95.40457, 29.70674], [-95.40488, 29.70624], [-95.40547, 29.70529], [-95.40627, 29.70438], [-95.407, 29.70337], [-95.41012, 29.69912], [-95.41122, 29.69794], [-95.41255, 29.69748], [-95.41263, 29.69744], [-95.41693, 29.69526], [-95.41889, 29.69485], [-95.42081, 29.69421]]]}}, {"type": "Feature", "properties": {"area_id": 9880, "city": "Houston", "state": "TX", "city_survey": true, "cat": "Best", "grade": "A", "label": null, "res": true, "com": false, "ind": false, "holc_grade": "A"}, "geometry": {"type": "Polygon", "coordinates": [[[-95.41193, 29.72556], [-95.41193, 29.72566], [-95.41053, 29.72573], [-95.40522, 29.72598], [-95.40525, 29.7277], [-95.40564, 29.72768], [-95.40574, 29.7304], [-95.40207, 29.73077], [-95.40208, 29.73124], [-95.40215, 29.73411], [-95.40622, 29.73391], [-95.40596, 29.73106], [-95.40591, 29.73046], [-95.40666, 29.73023], [-95.40949, 29.73015], [-95.4106, 29.73001], [-95.41135, 29.72992], [-95.41241, 29.72973], [-95.41243, 29.73094], [-95.41246, 29.73307], [-95.4133, 29.73372], [-95.41409, 29.73438], [-95.4144, 29.73537], [-95.41453, 29.73748], [-95.41842, 29.73745], [-95.41865, 29.74232], [-95.41824, 29.74235], [-95.41086, 29.74282], [-95.41073, 29.74282], [-95.40207, 29.74279], [-95.40169, 29.74279], [-95.39946, 29.74278], [-95.39947, 29.7428], [-95.40085, 29.74505], [-95.39495, 29.74768], [-95.39489, 29.74771], [-95.39287, 29.74465], [-95.39279, 29.74453], [-95.38173, 29.74451], [-95.3817, 29.7444], [-95.38142, 29.74333], [-95.38091, 29.7424], [-95.38046, 29.74191], [-95.38142, 29.7406], [-95.38157, 29.7388], [-95.38182, 29.73576], [-95.3831, 29.73398], [-95.38433, 29.73225], [-95.38555, 29.73055], [-95.3906, 29.72438], [-95.39121, 29.72364], [-95.39327, 29.72112], [-95.39345, 29.7209], [-95.39665, 29.72254], [-95.39684, 29.72254], [-95.39809, 29.72252], [-95.40966, 29.71787], [-95.4117, 29.71738], [-95.41171, 29.7176], [-95.41193, 29.72556]]]}}, {"type": "Feature", "properties": {"area_id": 9881, "city": "Houston", "state": "TX", "city_survey": true, "cat": "Best", "grade": "A", "label": null, "res": true, "com": false, "ind": false, "holc_grade": "A"}, "geometry": {"type": "Polygon", "coordinates": [[[-95.37616, 29.71264], [-95.37757, 29.71195], [-95.37799, 29.71195], [-95.37854, 29.71195], [-95.37857, 29.71198], [-95.37938, 29.71268], [-95.38022, 29.71318], [-95.38155, 29.71345], [-95.37974, 29.71817], [-95.38058, 29.71867], [-95.38425, 29.72017], [-95.38488, 29.72047], [-95.38602, 29.72101], [-95.38862, 29.72267], [-95.38859, 29.72271], [-95.38102, 29.73255], [-95.37664, 29.73825], [-95.37146, 29.73532], [-95.37056, 29.73611], [-95.36968, 29.73716], [-95.3691, 29.73681], [-95.36829, 29.73633], [-95.369, 29.73535], [-95.36543, 29.73336], [-95.36749, 29.73046], [-95.36531, 29.7291], [-95.36125, 29.72657], [-95.3609, 29.72635], [-95.36504, 29.7208], [-95.36354, 29.71991], [-95.36355, 29.71988], [-95.36425, 29.7179], [-95.35944, 29.71625], [-95.36105, 29.71257], [-95.36156, 29.71203], [-95.36258, 29.7118], [-95.36396, 29.712], [-95.36546, 29.71232], [-95.36643, 29.71274], [-95.36976, 29.71475], [-95.37087, 29.71365], [-95.37117, 29.71391], [-95.37138, 29.71409], [-95.372, 29.71407], [-95.37263, 29.71413], [-95.37307, 29.71431], [-95.37346, 29.71432], [-95.37374, 29.71416], [-95.37355, 29.71387], [-95.37348, 29.71377], [-95.37368, 29.71344], [-95.37397, 29.71338], [-95.37458, 29.71349], [-95.37496, 29.71356], [-95.37556, 29.7131], [-95.37616, 29.71264]]]}}, {"type": "Feature", "properties": {"area_id": 9882, "city": "Houston", "state": "TX", "city_survey": true, "cat": "Hazardous", "grade": "D", "label": null, "res": true, "com": false, "ind": false, "holc_grade": "D"}, "geometry": {"type": "Polygon", "coordinates": [[[-95.3366, 29.80743], [-95.33669, 29.80724], [-95.33635, 29.80365], [-95.33981, 29.80361], [-95.34099, 29.8036], [-95.3411, 29.80951], [-95.34116, 29.81311], [-95.33531, 29.81321], [-95.32946, 29.81331], [-95.32931, 29.80834], [-95.32929, 29.80755], [-95.33619, 29.80755], [-95.3366, 29.80743]]]}}, {"type": "Feature", "properties": {"area_id": 9883, "city": "Houston", "state": "TX", "city_survey": true, "cat": "Hazardous", "grade": "D", "label": null, "res": true, "com": false, "ind": false, "holc_grade": "D"}, "geometry": {"type": "Polygon", "coordinates": [[[-95.329, 29.79138], [-95.32904, 29.79354], [-95.32911, 29.7967], [-95.32712, 29.7967], [-95.32708, 29.79352], [-95.32705, 29.79139], [-95.329, 29.79138]]]}}, {"type": "Feature", "properties": {"area_id": 9884, "city": "Houston", "state": "TX", "city_survey": true, "cat": "Hazardous", "grade": "D", "label": null, "res": true, "com": false, "ind": false, "holc_grade": "D"}, "geometry": {"type": "Polygon", "coordinates": [[[-95.35038, 29.76663], [-95.35097, 29.76649], [-95.35194, 29.7662], [-95.35187, 29.77004], [-95.35183, 29.77219], [-95.3441, 29.77544], [-95.34418, 29.77856], [-95.34447, 29.79], [-95.34006, 29.79], [-95.33974, 29.79], [-95.33964, 29.78275], [-95.32944, 29.78281], [-95.32953, 29.78533], [-95.3273, 29.78646], [-95.32742, 29.79139], [-95.32398, 29.79145], [-95.32153, 29.7915], [-95.32138, 29.7876], [-95.32132, 29.78598], [-95.3233, 29.78511], [-95.32461, 29.784], [-95.32478, 29.78385], [-95.3248, 29.78366], [-95.32299, 29.78437], [-95.31821, 29.78441], [-95.31823, 29.78606], [-95.31591, 29.78708], [-95.31439, 29.78775], [-95.31439, 29.78735], [-95.31427, 29.77442], [-95.31425, 29.77234], [-95.31519, 29.77233], [-95.32469, 29.77222], [-95.32446, 29.76576], [-95.34217, 29.76551], [-95.34355, 29.76549], [-95.34451, 29.76561], [-95.34507, 29.7658], [-95.34575, 29.76607], [-95.34631, 29.76647], [-95.34697, 29.76669], [-95.3473, 29.76677], [-95.34765, 29.76686], [-95.34873, 29.76688], [-95.34946, 29.76682], [-95.35038, 29.76663]]]}}, {"type": "Feature", "properties": {"area_id": 9885, "city": "Houston", "state": "TX", "city_survey": true, "cat": "Hazardous", "grade": "D", "label": null, "res": true, "com": false, "ind": false, "holc_grade": "D"}, "geometry": {"type": "Polygon", "coordinates": [[[-95.37508, 29.76978], [-95.37721, 29.76986], [-95.37814, 29.76989], [-95.37812, 29.77277], [-95.37587, 29.77278], [-95.37515, 29.77278], [-95.37508, 29.76978]]]}}, {"type": "Feature", "properties": {"area_id": 9886, "city": "Houston", "state": "TX", "city_survey": true, "cat": "Hazardous", "grade": "D", "label": null, "res": true, "com": false, "ind": false, "holc_grade": "D"}, "geometry": {"type": "Polygon", "coordinates": [[[-95.25784, 29.73134], [-95.25787, 29.73326], [-95.25824, 29.75921], [-95.25523, 29.75917], [-95.25481, 29.73273], [-95.25479, 29.7313], [-95.25784, 29.73134]]]}}, {"type": "Feature", "properties": {"area_id": 9887, "city": "Houston", "state": "TX", "city_survey": true, "cat": "Hazardous", "grade": "D", "label": null, "res": true, "com": false, "ind": false, "holc_grade": "D"}, "geometry": {"type": "Polygon", "coordinates": [[[-95.26713, 29.75906], [-95.26691, 29.73768], [-95.27332, 29.74205], [-95.2738, 29.75913], [-95.26713, 29.75906]]]}}, {"type": "Feature", "properties": {"area_id": 9888, "city": "Houston", "state": "TX", "city_survey": true, "cat": "Hazardous", "grade": "D", "label": null, "res": true, "com": false, "ind": false, "holc_grade": "D"}, "geometry": {"type": "Polygon", "coordinates": [[[-95.37226, 29.76247], [-95.37555, 29.76264], [-95.37958, 29.76284], [-95.38006, 29.76333], [-95.38066, 29.76372], [-95.3812, 29.76414], [-95.38168, 29.76453], [-95.3825, 29.76473], [-95.38264, 29.76664], [-95.38298, 29.76716], [-95.38272, 29.76763], [-95.38188, 29.76768], [-95.38185, 29.76814], [-95.37559, 29.76729], [-95.37231, 29.76684], [-95.37226, 29.76247]]]}}, {"type": "Feature", "properties": {"area_id": 9889, "city": "Houston", "state": "TX", "city_survey": true, "cat": "Hazardous", "grade": "D", "label": null, "res": true, "com": false, "ind": false, "holc_grade": "D"}, "geometry": {"type": "Polygon", "coordinates": [[[-95.41824, 29.75733], [-95.41848, 29.7572], [-95.41882, 29.75726], [-95.41909, 29.75748], [-95.41926, 29.75787], [-95.41971, 29.7585], [-95.41993, 29.75876], [-95.42025, 29.75899], [-95.42058, 29.75907], [-95.42072, 29.75911], [-95.42118, 29.75906], [-95.42153, 29.75875], [-95.42176, 29.75848], [-95.42198, 29.75827], [-95.42213, 29.7582], [-95.42288, 29.77084], [-95.42364, 29.77111], [-95.42825, 29.77639], [-95.42825, 29.77689], [-95.42825, 29.77755], [-95.42825, 29.77868], [-95.43151, 29.78032], [-95.43318, 29.78128], [-95.43417, 29.78197], [-95.43541, 29.7828], [-95.41897, 29.78246], [-95.41903, 29.78352], [-95.41493, 29.78334], [-95.41493, 29.78182], [-95.41439, 29.78176], [-95.41431, 29.77994], [-95.41039, 29.78], [-95.41004, 29.77982], [-95.4098, 29.7798], [-95.40956, 29.77971], [-95.40943, 29.77966], [-95.40906, 29.77935], [-95.40898, 29.77764], [-95.40876, 29.77283], [-95.40671, 29.77248], [-95.40664, 29.77065], [-95.39857, 29.76979], [-95.39728, 29.76964], [-95.3937, 29.76922], [-95.39107, 29.76903], [-95.39134, 29.76817], [-95.39136, 29.76734], [-95.39143, 29.76495], [-95.39172, 29.76453], [-95.39253, 29.76436], [-95.39438, 29.76443], [-95.39451, 29.76447], [-95.39451, 29.76398], [-95.39486, 29.764], [-95.39489, 29.7643], [-95.39561, 29.76452], [-95.39589, 29.76453], [-95.39625, 29.76466], [-95.39641, 29.76531], [-95.39654, 29.76574], [-95.39679, 29.76609], [-95.39693, 29.7661], [-95.39718, 29.76582], [-95.39759, 29.76561], [-95.39799, 29.76535], [-95.39824, 29.76497], [-95.39864, 29.76408], [-95.39892, 29.76345], [-95.3989, 29.76319], [-95.39886, 29.76294], [-95.39877, 29.76277], [-95.39853, 29.76236], [-95.3983, 29.76194], [-95.39828, 29.7619], [-95.3982, 29.76175], [-95.39836, 29.76172], [-95.39848, 29.76169], [-95.39895, 29.76165], [-95.39925, 29.76173], [-95.40021, 29.76186], [-95.40069, 29.76182], [-95.40125, 29.76181], [-95.40186, 29.76172], [-95.402, 29.76165], [-95.40201, 29.76173], [-95.40214, 29.76351], [-95.40282, 29.7636], [-95.40368, 29.76357], [-95.40543, 29.76363], [-95.40648, 29.76373], [-95.4065, 29.76517], [-95.40921, 29.76514], [-95.40946, 29.76514], [-95.41042, 29.76512], [-95.41038, 29.76376], [-95.41178, 29.76376], [-95.41204, 29.76511], [-95.41382, 29.76509], [-95.41366, 29.75998], [-95.41368, 29.75993], [-95.41377, 29.7597], [-95.41415, 29.75955], [-95.41453, 29.75947], [-95.41497, 29.75958], [-95.41544, 29.75976], [-95.41579, 29.75991], [-95.41616, 29.7599], [-95.41642, 29.75971], [-95.41642, 29.75971], [-95.41685, 29.75913], [-95.41703, 29.75885], [-95.41716, 29.75862], [-95.41731, 29.75838], [-95.41743, 29.75819], [-95.41748, 29.75791], [-95.41785, 29.75761], [-95.41824, 29.75733]]]}}, {"type": "Feature", "properties": {"area_id": 9890, "city": "Houston", "state": "TX", "city_survey": true, "cat": "Hazardous", "grade": "D", "label": null, "res": true, "com": false, "ind": false, "holc_grade": "D"}, "geometry": {"type": "Polygon", "coordinates": [[[-95.35593, 29.72513], [-95.35615, 29.7252], [-95.36053, 29.7266], [-95.3609, 29.72635], [-95.36125, 29.72657], [-95.36531, 29.7291], [-95.36749, 29.73046], [-95.36476, 29.73431], [-95.36471, 29.73438], [-95.36621, 29.7353], [-95.35971, 29.74353], [-95.35807, 29.74562], [-95.35401, 29.74336], [-95.35595, 29.74119], [-95.3571, 29.7399], [-95.35732, 29.73599], [-95.35675, 29.73729], [-95.35414, 29.73649], [-95.35356, 29.73833], [-95.35222, 29.73784], [-95.35011, 29.73706], [-95.34992, 29.73734], [-95.34919, 29.73844], [-95.35053, 29.73947], [-95.34945, 29.74102], [-95.34715, 29.73971], [-95.34346, 29.73846], [-95.33999, 29.73729], [-95.34186, 29.73166], [-95.34337, 29.72709], [-95.34405, 29.72506], [-95.34941, 29.72661], [-95.35034, 29.72421], [-95.3507, 29.72432], [-95.35436, 29.72544], [-95.35459, 29.72484], [-95.35655, 29.71984], [-95.35785, 29.72028], [-95.35603, 29.72488], [-95.35593, 29.72513]]]}}, {"type": "Feature", "properties": {"area_id": 9891, "city": "Houston", "state": "TX", "city_survey": true, "cat": "Definitely Declining", "grade": "C", "label": null, "res": true, "com": false, "ind": false, "holc_grade": "C"}, "geometry": {"type": "Polygon", "coordinates": [[[-95.27252, 29.75912], [-95.2738, 29.75913], [-95.27385, 29.76044], [-95.27677, 29.76044], [-95.27681, 29.76374], [-95.27371, 29.7637], [-95.27398, 29.77065], [-95.26547, 29.7692], [-95.26271, 29.76873], [-95.2627, 29.7682], [-95.26262, 29.76528], [-95.26523, 29.76516], [-95.26536, 29.76259], [-95.26542, 29.76259], [-95.27248, 29.7624], [-95.27252, 29.75912]]]}}, {"type": "Feature", "properties": {"area_id": 9892, "city": "Houston", "state": "TX", "city_survey": true, "cat": "Definitely Declining", "grade": "C", "label": null, "res": true, "com": false, "ind": false, "holc_grade": "C"}, "geometry": {"type": "Polygon", "coordinates": [[[-95.28137, 29.74881], [-95.27851, 29.74861], [-95.27857, 29.74549], [-95.28765, 29.7521], [-95.28767, 29.75282], [-95.2881, 29.76598], [-95.28378, 29.76599], [-95.28193, 29.766], [-95.28137, 29.74881]]]}}, {"type": "Feature", "properties": {"area_id": 9893, "city": "Houston", "state": "TX", "city_survey": true, "cat": "Definitely Declining", "grade": "C", "label": null, "res": true, "com": false, "ind": false, "holc_grade": "C"}, "geometry": {"type": "Polygon", "coordinates": [[[-95.37266, 29.69694], [-95.37238, 29.69773], [-95.37445, 29.69857], [-95.37348, 29.70091], [-95.3741, 29.70107], [-95.37531, 29.70138], [-95.37652, 29.70169], [-95.37637, 29.70217], [-95.37513, 29.70613], [-95.37466, 29.70763], [-95.36753, 29.70549], [-95.36902, 29.70183], [-95.37017, 29.69899], [-95.36505, 29.69737], [-95.36709, 29.69124], [-95.36713, 29.69113], [-95.37397, 29.69323], [-95.37266, 29.69694]]]}}, {"type": "Feature", "properties": {"area_id": 9894, "city": "Houston", "state": "TX", "city_survey": true, "cat": "Definitely Declining", "grade": "C", "label": null, "res": true, "com": false, "ind": false, "holc_grade": "C"}, "geometry": {"type": "Polygon", "coordinates": [[[-95.35295, 29.68171], [-95.35383, 29.68192], [-95.35404, 29.68196], [-95.35379, 29.68248], [-95.35595, 29.68308], [-95.35947, 29.68407], [-95.35798, 29.68887], [-95.35425, 29.68774], [-95.35193, 29.68703], [-95.34989, 29.6931], [-95.35185, 29.69369], [-95.35582, 29.6949], [-95.35275, 29.70285], [-95.35255, 29.70337], [-95.34633, 29.70133], [-95.34642, 29.7011], [-95.34834, 29.69599], [-95.34219, 29.69407], [-95.34229, 29.69364], [-95.34322, 29.68969], [-95.34418, 29.68991], [-95.34636, 29.6841], [-95.34665, 29.68332], [-95.35168, 29.6814], [-95.35295, 29.68171]]]}}, {"type": "Feature", "properties": {"area_id": 9895, "city": "Houston", "state": "TX", "city_survey": true, "cat": "Definitely Declining", "grade": "C", "label": null, "res": true, "com": false, "ind": false, "holc_grade": "C"}, "geometry": {"type": "Polygon", "coordinates": [[[-95.31623, 29.68605], [-95.31654, 29.68664], [-95.31665, 29.68723], [-95.31671, 29.69173], [-95.31671, 29.69207], [-95.31473, 29.69632], [-95.30876, 29.69453], [-95.3078, 29.69682], [-95.30528, 29.70283], [-95.30429, 29.70251], [-95.30674, 29.69668], [-95.30769, 29.69444], [-95.29882, 29.6916], [-95.29846, 29.69149], [-95.29825, 29.69071], [-95.29618, 29.69071], [-95.29424, 29.69131], [-95.28714, 29.6949], [-95.28397, 29.69173], [-95.28165, 29.68941], [-95.28169, 29.68941], [-95.28822, 29.68937], [-95.28802, 29.68564], [-95.29663, 29.68567], [-95.29854, 29.68568], [-95.30746, 29.6857], [-95.30746, 29.6857], [-95.31411, 29.68536], [-95.31552, 29.68546], [-95.31623, 29.68605]]]}}, {"type": "Feature", "properties": {"area_id": 9896, "city": "Houston", "state": "TX", "city_survey": true, "cat": "Definitely Declining", "grade": "C", "label": null, "res": true, "com": false, "ind": false, "holc_grade": "C"}, "geometry": {"type": "Polygon", "coordinates": [[[-95.31993, 29.71781], [-95.32075, 29.71788], [-95.32191, 29.71502], [-95.32328, 29.71548], [-95.32194, 29.71915], [-95.32076, 29.7224], [-95.31901, 29.72179], [-95.31952, 29.72047], [-95.3181, 29.72002], [-95.31907, 29.71763], [-95.31908, 29.71761], [-95.31993, 29.71781]]]}}, {"type": "Feature", "properties": {"area_id": 9897, "city": "Houston", "state": "TX", "city_survey": true, "cat": "Definitely Declining", "grade": "C", "label": null, "res": true, "com": false, "ind": false, "holc_grade": "C"}, "geometry": {"type": "Polygon", "coordinates": [[[-95.36829, 29.73633], [-95.3691, 29.73681], [-95.36968, 29.73716], [-95.37146, 29.73532], [-95.37664, 29.73825], [-95.36868, 29.74799], [-95.36647, 29.75069], [-95.36074, 29.74723], [-95.35807, 29.74562], [-95.35971, 29.74353], [-95.36621, 29.7353], [-95.36471, 29.73438], [-95.36476, 29.73431], [-95.36543, 29.73336], [-95.369, 29.73535], [-95.36829, 29.73633]]]}}, {"type": "Feature", "properties": {"area_id": 9898, "city": "Houston", "state": "TX", "city_survey": true, "cat": "Definitely Declining", "grade": "C", "label": null, "res": true, "com": false, "ind": false, "holc_grade": "C"}, "geometry": {"type": "Polygon", "coordinates": [[[-95.29829, 29.71979], [-95.30217, 29.7205], [-95.30324, 29.7209], [-95.30392, 29.72183], [-95.30417, 29.72249], [-95.30457, 29.72301], [-95.30296, 29.72655], [-95.30242, 29.7267], [-95.3018, 29.72741], [-95.30112, 29.72765], [-95.30033, 29.72773], [-95.29976, 29.72756], [-95.29925, 29.72694], [-95.29888, 29.7264], [-95.29851, 29.72515], [-95.29789, 29.7252], [-95.29679, 29.72483], [-95.29829, 29.71979]]]}}, {"type": "Feature", "properties": {"area_id": 9899, "city": "Houston", "state": "TX", "city_survey": true, "cat": "Definitely Declining", "grade": "C", "label": null, "res": true, "com": false, "ind": false, "holc_grade": "C"}, "geometry": {"type": "Polygon", "coordinates": [[[-95.25745, 29.7225], [-95.25532, 29.72068], [-95.25523, 29.71589], [-95.2566, 29.71486], [-95.25711, 29.71487], [-95.25713, 29.71429], [-95.26035, 29.71432], [-95.26626, 29.71652], [-95.2675, 29.71698], [-95.26765, 29.7212], [-95.26617, 29.72163], [-95.2633, 29.72247], [-95.25745, 29.7225]]]}}, {"type": "Feature", "properties": {"area_id": 9900, "city": "Houston", "state": "TX", "city_survey": true, "cat": "Definitely Declining", "grade": "C", "label": null, "res": true, "com": false, "ind": false, "holc_grade": "C"}, "geometry": {"type": "Polygon", "coordinates": [[[-95.28476, 29.73967], [-95.28383, 29.73871], [-95.28205, 29.73567], [-95.28077, 29.73333], [-95.28032, 29.73191], [-95.28018, 29.73055], [-95.28074, 29.72945], [-95.2814, 29.72871], [-95.28253, 29.72765], [-95.28343, 29.72645], [-95.28462, 29.72304], [-95.28756, 29.72399], [-95.28799, 29.72507], [-95.28838, 29.72657], [-95.28906, 29.72864], [-95.28974, 29.73021], [-95.29031, 29.73119], [-95.29136, 29.7321], [-95.29221, 29.73239], [-95.29806, 29.73441], [-95.29764, 29.73544], [-95.29857, 29.73562], [-95.30137, 29.73625], [-95.30468, 29.73704], [-95.30856, 29.73829], [-95.31264, 29.73953], [-95.31303, 29.73965], [-95.31651, 29.74073], [-95.31991, 29.74176], [-95.3237, 29.74299], [-95.32814, 29.74441], [-95.32848, 29.7434], [-95.32864, 29.74343], [-95.33284, 29.74412], [-95.33821, 29.74638], [-95.33841, 29.74651], [-95.34192, 29.74878], [-95.33714, 29.755], [-95.33628, 29.75447], [-95.3358, 29.75496], [-95.33447, 29.7542], [-95.334, 29.75492], [-95.33375, 29.7547], [-95.33254, 29.75398], [-95.33073, 29.7529], [-95.33042, 29.7532], [-95.32877, 29.75275], [-95.32691, 29.75151], [-95.32433, 29.75062], [-95.31971, 29.74904], [-95.3197, 29.74738], [-95.31934, 29.74694], [-95.31994, 29.74564], [-95.31065, 29.74294], [-95.30392, 29.75272], [-95.30372, 29.75266], [-95.29873, 29.75104], [-95.29761, 29.74928], [-95.29805, 29.74773], [-95.29752, 29.74763], [-95.29789, 29.74633], [-95.29433, 29.74512], [-95.29348, 29.74449], [-95.29144, 29.74369], [-95.2883, 29.74291], [-95.28803, 29.7428], [-95.28606, 29.74198], [-95.28519, 29.74068], [-95.28476, 29.73967]]]}}, {"type": "Feature", "properties": {"area_id": 9901, "city": "Houston", "state": "TX", "city_survey": true, "cat": "Definitely Declining", "grade": "C", "label": null, "res": true, "com": false, "ind": false, "holc_grade": "C"}, "geometry": {"type": "Polygon", "coordinates": [[[-95.29718, 29.75328], [-95.29752, 29.75367], [-95.29798, 29.75409], [-95.29799, 29.7543], [-95.29807, 29.757], [-95.2984, 29.76701], [-95.30785, 29.76711], [-95.30774, 29.76519], [-95.31408, 29.76522], [-95.31425, 29.77234], [-95.31427, 29.77442], [-95.31438, 29.78713], [-95.30736, 29.78727], [-95.30208, 29.78737], [-95.30202, 29.78014], [-95.302, 29.77838], [-95.30143, 29.77838], [-95.29274, 29.77836], [-95.2922, 29.77856], [-95.28301, 29.77865], [-95.28299, 29.77812], [-95.28273, 29.77146], [-95.2839, 29.77161], [-95.28836, 29.77217], [-95.2885, 29.77637], [-95.29246, 29.77632], [-95.29187, 29.75638], [-95.29249, 29.75639], [-95.29458, 29.7564], [-95.29433, 29.75237], [-95.29572, 29.75237], [-95.29653, 29.75237], [-95.29687, 29.75274], [-95.29718, 29.75328]]]}}, {"type": "Feature", "properties": {"area_id": 9902, "city": "Houston", "state": "TX", "city_survey": true, "cat": "Definitely Declining", "grade": "C", "label": null, "res": true, "com": false, "ind": false, "holc_grade": "C"}, "geometry": {"type": "Polygon", "coordinates": [[[-95.32898, 29.7893], [-95.32899, 29.7856], [-95.32953, 29.78533], [-95.32944, 29.78281], [-95.33964, 29.78275], [-95.33974, 29.79], [-95.33997, 29.7939], [-95.34, 29.79448], [-95.34017, 29.79739], [-95.34053, 29.79764], [-95.34053, 29.80017], [-95.34007, 29.80018], [-95.33631, 29.80023], [-95.33611, 29.79393], [-95.33597, 29.78934], [-95.32898, 29.7893]]]}}, {"type": "Feature", "properties": {"area_id": 9903, "city": "Houston", "state": "TX", "city_survey": true, "cat": "Definitely Declining", "grade": "C", "label": null, "res": true, "com": false, "ind": false, "holc_grade": "C"}, "geometry": {"type": "Polygon", "coordinates": [[[-95.40876, 29.77283], [-95.40898, 29.77764], [-95.40906, 29.77935], [-95.40836, 29.7791], [-95.40729, 29.77907], [-95.40729, 29.77961], [-95.40757, 29.78018], [-95.4074, 29.78055], [-95.40623, 29.78093], [-95.40679, 29.79056], [-95.40699, 29.794], [-95.41157, 29.79404], [-95.41431, 29.79406], [-95.41484, 29.80882], [-95.41498, 29.81271], [-95.415, 29.8133], [-95.39942, 29.81341], [-95.39519, 29.81344], [-95.38728, 29.8135], [-95.38287, 29.81227], [-95.38219, 29.81186], [-95.38232, 29.80467], [-95.38453, 29.80461], [-95.38453, 29.8032], [-95.38453, 29.79906], [-95.38805, 29.80329], [-95.38847, 29.8038], [-95.38807, 29.79182], [-95.39198, 29.79179], [-95.39198, 29.79078], [-95.39191, 29.77681], [-95.3919, 29.7756], [-95.39282, 29.77537], [-95.39384, 29.77522], [-95.39442, 29.77445], [-95.39565, 29.7746], [-95.39676, 29.7751], [-95.3974, 29.7751], [-95.39795, 29.7751], [-95.39862, 29.77514], [-95.39897, 29.77571], [-95.39932, 29.77625], [-95.3999, 29.7766], [-95.40039, 29.7769], [-95.40038, 29.77661], [-95.40034, 29.77525], [-95.40242, 29.77529], [-95.40233, 29.77211], [-95.40876, 29.77283]], [[-95.40003, 29.80219], [-95.4037, 29.80215], [-95.40344, 29.79087], [-95.39898, 29.79098], [-95.3942, 29.7911], [-95.39466, 29.80403], [-95.39473, 29.80599], [-95.40008, 29.80595], [-95.40005, 29.80395], [-95.40003, 29.80219]]]}}, {"type": "Feature", "properties": {"area_id": 9904, "city": "Houston", "state": "TX", "city_survey": true, "cat": "Still Desirable", "grade": "B", "label": null, "res": true, "com": false, "ind": false, "holc_grade": "B"}, "geometry": {"type": "Polygon", "coordinates": [[[-95.32248, 29.72498], [-95.32325, 29.72517], [-95.32398, 29.72547], [-95.32472, 29.72557], [-95.32511, 29.72547], [-95.32557, 29.7252], [-95.32808, 29.72281], [-95.32824, 29.72291], [-95.33309, 29.72591], [-95.33171, 29.72947], [-95.33103, 29.73124], [-95.33887, 29.7336], [-95.33785, 29.73655], [-95.33963, 29.73704], [-95.33771, 29.74203], [-95.33264, 29.74073], [-95.33171, 29.74262], [-95.3256, 29.74073], [-95.32169, 29.73952], [-95.32472, 29.73557], [-95.31776, 29.73339], [-95.31535, 29.73264], [-95.31614, 29.73109], [-95.3179, 29.73161], [-95.31906, 29.73021], [-95.31962, 29.73033], [-95.32204, 29.72797], [-95.32226, 29.72775], [-95.32143, 29.72753], [-95.32248, 29.72498]]]}}, {"type": "Feature", "properties": {"area_id": 9905, "city": "Houston", "state": "TX", "city_survey": true, "cat": "Still Desirable", "grade": "B", "label": null, "res": true, "com": false, "ind": false, "holc_grade": "B"}, "geometry": {"type": "Polygon", "coordinates": [[[-95.28458, 29.71434], [-95.28489, 29.71366], [-95.28494, 29.71243], [-95.28476, 29.71044], [-95.28632, 29.71025], [-95.29014, 29.71041], [-95.29101, 29.71044], [-95.29119, 29.71199], [-95.28934, 29.71335], [-95.28925, 29.71634], [-95.28595, 29.71631], [-95.28456, 29.7163], [-95.28458, 29.71434]]]}}, {"type": "Feature", "properties": {"area_id": 9906, "city": "Houston", "state": "TX", "city_survey": true, "cat": "Still Desirable", "grade": "B", "label": null, "res": true, "com": false, "ind": false, "holc_grade": "B"}, "geometry": {"type": "Polygon", "coordinates": [[[-95.40253, 29.75914], [-95.4021, 29.75922], [-95.40168, 29.75948], [-95.40151, 29.76012], [-95.40133, 29.76074], [-95.4009, 29.76099], [-95.40059, 29.76101], [-95.40057, 29.75672], [-95.40181, 29.75664], [-95.40238, 29.75665], [-95.40238, 29.75694], [-95.40253, 29.75914]]]}}, {"type": "Feature", "properties": {"area_id": 9907, "city": "Houston", "state": "TX", "city_survey": true, "cat": "Still Desirable", "grade": "B", "label": null, "res": true, "com": false, "ind": false, "holc_grade": "B"}, "geometry": {"type": "Polygon", "coordinates": [[[-95.32018, 29.71068], [-95.32071, 29.70976], [-95.31828, 29.70934], [-95.31921, 29.70715], [-95.32567, 29.70907], [-95.32438, 29.71237], [-95.31999, 29.71101], [-95.31963, 29.7109], [-95.31964, 29.71066], [-95.31964, 29.71054], [-95.32018, 29.71068]]]}}, {"type": "Feature", "properties": {"area_id": 9908, "city": "Houston", "state": "TX", "city_survey": true, "cat": "Still Desirable", "grade": "B", "label": null, "res": true, "com": false, "ind": false, "holc_grade": "B"}, "geometry": {"type": "Polygon", "coordinates": [[[-95.35193, 29.68703], [-95.35425, 29.68774], [-95.35798, 29.68887], [-95.35582, 29.6949], [-95.35185, 29.69369], [-95.34989, 29.6931], [-95.35193, 29.68703]]]}}, {"type": "Feature", "properties": {"area_id": 9909, "city": "Houston", "state": "TX", "city_survey": true, "cat": "Still Desirable", "grade": "B", "label": null, "res": true, "com": false, "ind": false, "holc_grade": "B"}, "geometry": {"type": "Polygon", "coordinates": [[[-95.40169, 29.74279], [-95.40207, 29.74279], [-95.41073, 29.74282], [-95.41086, 29.74282], [-95.41091, 29.75196], [-95.4107, 29.75207], [-95.41011, 29.75238], [-95.4083, 29.75269], [-95.40657, 29.7528], [-95.40494, 29.75276], [-95.40344, 29.75292], [-95.40228, 29.753], [-95.39955, 29.75319], [-95.39955, 29.75321], [-95.3995, 29.75679], [-95.39811, 29.75713], [-95.39809, 29.75714], [-95.39663, 29.75733], [-95.38571, 29.75735], [-95.38475, 29.75735], [-95.38448, 29.75202], [-95.38447, 29.75176], [-95.38383, 29.75178], [-95.38176, 29.75182], [-95.38032, 29.75185], [-95.37846, 29.75189], [-95.37846, 29.75191], [-95.37845, 29.75235], [-95.37776, 29.75195], [-95.37407, 29.74979], [-95.38046, 29.74191], [-95.38091, 29.7424], [-95.38142, 29.74333], [-95.3817, 29.7444], [-95.38173, 29.74451], [-95.39279, 29.74453], [-95.39287, 29.74465], [-95.39489, 29.74771], [-95.39495, 29.74768], [-95.40085, 29.74505], [-95.40078, 29.74474], [-95.39947, 29.7428], [-95.39946, 29.74278], [-95.40169, 29.74279]]]}}, {"type": "Feature", "properties": {"area_id": 9911, "city": "Houston", "state": "TX", "city_survey": true, "cat": "Still Desirable", "grade": "B", "label": null, "res": true, "com": false, "ind": false, "holc_grade": "B"}, "geometry": {"type": "Polygon", "coordinates": [[[-95.42745, 29.70592], [-95.43318, 29.70583], [-95.43366, 29.70582], [-95.43382, 29.7149], [-95.43399, 29.72493], [-95.43399, 29.72506], [-95.43371, 29.72507], [-95.4301, 29.72519], [-95.42438, 29.72538], [-95.41278, 29.72576], [-95.41193, 29.72566], [-95.41193, 29.72556], [-95.41161, 29.71762], [-95.41151, 29.71496], [-95.4115, 29.71483], [-95.41175, 29.70619], [-95.41592, 29.70611], [-95.41829, 29.70607], [-95.42301, 29.70599], [-95.42745, 29.70592]]]}}, {"type": "Feature", "properties": {"area_id": 9912, "city": "Houston", "state": "TX", "city_survey": true, "cat": "Still Desirable", "grade": "B", "label": null, "res": true, "com": false, "ind": false, "holc_grade": "B"}, "geometry": {"type": "Polygon", "coordinates": [[[-95.3196, 29.71558], [-95.32059, 29.71293], [-95.32088, 29.71302], [-95.32137, 29.7129], [-95.32195, 29.71279], [-95.32232, 29.7129], [-95.32282, 29.7129], [-95.32277, 29.71319], [-95.32234, 29.71367], [-95.32191, 29.71502], [-95.32075, 29.71788], [-95.3196, 29.71558]]]}}, {"type": "Feature", "properties": {"area_id": 9913, "city": "Houston", "state": "TX", "city_survey": true, "cat": "Still Desirable", "grade": "B", "label": null, "res": true, "com": false, "ind": false, "holc_grade": "B"}, "geometry": {"type": "Polygon", "coordinates": [[[-95.42384, 29.77091], [-95.42756, 29.76993], [-95.43128, 29.77231], [-95.42918, 29.7749], [-95.42821, 29.77567], [-95.42786, 29.77595], [-95.42364, 29.77111], [-95.42384, 29.77091]]]}}, {"type": "Feature", "properties": {"area_id": 9914, "city": "Houston", "state": "TX", "city_survey": true, "cat": "Still Desirable", "grade": "B", "label": null, "res": true, "com": false, "ind": false, "holc_grade": "B"}, "geometry": {"type": "Polygon", "coordinates": [[[-95.29031, 29.73119], [-95.28974, 29.73021], [-95.28906, 29.72864], [-95.28838, 29.72657], [-95.28799, 29.72507], [-95.28766, 29.72424], [-95.28896, 29.7238], [-95.29111, 29.72759], [-95.29269, 29.72976], [-95.2917, 29.73222], [-95.29136, 29.7321], [-95.29031, 29.73119]]]}}, {"type": "Feature", "properties": {"area_id": 9915, "city": "Houston", "state": "TX", "city_survey": true, "cat": "Hazardous", "grade": "D", "label": null, "res": true, "com": false, "ind": false, "holc_grade": "D"}, "geometry": {"type": "Polygon", "coordinates": [[[-95.37407, 29.74979], [-95.37776, 29.75195], [-95.37845, 29.75235], [-95.37846, 29.75191], [-95.37846, 29.75189], [-95.38447, 29.75176], [-95.38448, 29.75202], [-95.38475, 29.75735], [-95.38216, 29.7574], [-95.38212, 29.7577], [-95.38218, 29.7584], [-95.3817, 29.7594], [-95.38021, 29.76187], [-95.37953, 29.76227], [-95.37938, 29.76236], [-95.37903, 29.76243], [-95.37875, 29.76237], [-95.37856, 29.76226], [-95.37827, 29.7621], [-95.37792, 29.76166], [-95.37767, 29.76107], [-95.37754, 29.76055], [-95.37727, 29.76023], [-95.37698, 29.76005], [-95.37676, 29.75999], [-95.37653, 29.76001], [-95.37634, 29.76], [-95.37374, 29.75999], [-95.3734, 29.75999], [-95.37266, 29.75831], [-95.37214, 29.75843], [-95.36895, 29.75648], [-95.37328, 29.75082], [-95.37407, 29.74979]]]}}, {"type": "Feature", "properties": {"area_id": 9916, "city": "Houston", "state": "TX", "city_survey": true, "cat": "Definitely Declining", "grade": "C", "label": null, "res": true, "com": false, "ind": false, "holc_grade": "C"}, "geometry": {"type": "Polygon", "coordinates": [[[-95.37587, 29.77278], [-95.37812, 29.77277], [-95.37812, 29.77223], [-95.38449, 29.77226], [-95.38459, 29.77528], [-95.38431, 29.77522], [-95.38408, 29.77517], [-95.38374, 29.77517], [-95.38299, 29.77518], [-95.38297, 29.77675], [-95.38191, 29.77677], [-95.38191, 29.77765], [-95.38191, 29.77795], [-95.38196, 29.7781], [-95.38206, 29.77831], [-95.38223, 29.77845], [-95.38241, 29.77864], [-95.38252, 29.77894], [-95.38265, 29.77926], [-95.38209, 29.77938], [-95.38187, 29.77935], [-95.38162, 29.7793], [-95.38119, 29.77933], [-95.38067, 29.77941], [-95.38015, 29.77966], [-95.37991, 29.77997], [-95.37951, 29.78026], [-95.37903, 29.78048], [-95.37752, 29.78111], [-95.37605, 29.7817], [-95.37548, 29.78167], [-95.37469, 29.7816], [-95.37375, 29.78143], [-95.37327, 29.78099], [-95.37257, 29.78116], [-95.3722, 29.78214], [-95.37228, 29.78327], [-95.37242, 29.78374], [-95.37263, 29.79029], [-95.37234, 29.79034], [-95.37223, 29.79036], [-95.37189, 29.79008], [-95.36902, 29.78764], [-95.36691, 29.78585], [-95.3665, 29.7856], [-95.3653, 29.78335], [-95.36205, 29.7844], [-95.36118, 29.78465], [-95.3603, 29.78792], [-95.35993, 29.78791], [-95.36, 29.78976], [-95.36001, 29.79], [-95.3607, 29.79], [-95.36069, 29.79039], [-95.36203, 29.79223], [-95.36397, 29.79354], [-95.36473, 29.79189], [-95.36507, 29.79185], [-95.36534, 29.79198], [-95.36596, 29.79232], [-95.36645, 29.79268], [-95.36668, 29.79258], [-95.36675, 29.79282], [-95.36785, 29.79282], [-95.36896, 29.79357], [-95.36904, 29.79446], [-95.36936, 29.79463], [-95.36944, 29.79557], [-95.36942, 29.79609], [-95.3684, 29.79679], [-95.36843, 29.79857], [-95.37046, 29.79858], [-95.37039, 29.79762], [-95.37028, 29.79754], [-95.37026, 29.79742], [-95.37031, 29.79722], [-95.37102, 29.79612], [-95.37105, 29.79585], [-95.37097, 29.79568], [-95.37059, 29.79522], [-95.37058, 29.79471], [-95.37071, 29.79442], [-95.37078, 29.79422], [-95.37068, 29.79408], [-95.37048, 29.79398], [-95.37023, 29.79392], [-95.37003, 29.79397], [-95.36982, 29.79391], [-95.36972, 29.79378], [-95.36973, 29.79363], [-95.36975, 29.7934], [-95.36967, 29.79329], [-95.36945, 29.79328], [-95.36926, 29.79321], [-95.36917, 29.79307], [-95.36891, 29.793], [-95.36886, 29.79224], [-95.36885, 29.79211], [-95.37021, 29.79206], [-95.37008, 29.79102], [-95.37191, 29.79102], [-95.37268, 29.79102], [-95.37266, 29.79071], [-95.37285, 29.79071], [-95.3792, 29.79078], [-95.37936, 29.79534], [-95.37911, 29.79534], [-95.37841, 29.79532], [-95.37868, 29.80159], [-95.37977, 29.80162], [-95.37981, 29.80336], [-95.38018, 29.80334], [-95.38021, 29.80508], [-95.37888, 29.80509], [-95.37887, 29.80549], [-95.37864, 29.80555], [-95.3788, 29.80867], [-95.37978, 29.80889], [-95.37993, 29.81169], [-95.37746, 29.81171], [-95.37738, 29.80981], [-95.3777, 29.80981], [-95.3776, 29.80869], [-95.37591, 29.80843], [-95.3758, 29.80811], [-95.37722, 29.80829], [-95.37711, 29.80598], [-95.37432, 29.80599], [-95.37439, 29.80577], [-95.37439, 29.80544], [-95.37427, 29.80504], [-95.37409, 29.80464], [-95.37409, 29.80398], [-95.37414, 29.80306], [-95.37397, 29.80264], [-95.37372, 29.80181], [-95.37332, 29.80123], [-95.37256, 29.80035], [-95.37197, 29.80036], [-95.36849, 29.80041], [-95.3685, 29.80083], [-95.36813, 29.80058], [-95.36811, 29.80005], [-95.36798, 29.79697], [-95.3637, 29.79391], [-95.36371, 29.7947], [-95.3635, 29.7947], [-95.36606, 29.79828], [-95.36113, 29.79845], [-95.35816, 29.80001], [-95.35726, 29.80049], [-95.35717, 29.80054], [-95.35758, 29.81373], [-95.35759, 29.81385], [-95.3576, 29.8143], [-95.35203, 29.81437], [-95.35166, 29.81438], [-95.35127, 29.81353], [-95.35098, 29.81265], [-95.3507, 29.8118], [-95.35043, 29.80429], [-95.35046, 29.80331], [-95.35047, 29.80281], [-95.35054, 29.80013], [-95.35054, 29.80006], [-95.35039, 29.79], [-95.35039, 29.78984], [-95.35056, 29.78229], [-95.34872, 29.7823], [-95.34868, 29.78244], [-95.34812, 29.78329], [-95.34794, 29.78329], [-95.34746, 29.78376], [-95.34705, 29.78394], [-95.34647, 29.78455], [-95.34617, 29.78508], [-95.34612, 29.78588], [-95.34566, 29.78527], [-95.34507, 29.78355], [-95.3443, 29.78354], [-95.34418, 29.77856], [-95.3441, 29.77544], [-95.35183, 29.77219], [-95.35189, 29.77416], [-95.35434, 29.77415], [-95.35929, 29.7722], [-95.36002, 29.77221], [-95.36071, 29.77351], [-95.36081, 29.77357], [-95.36116, 29.77408], [-95.36107, 29.77418], [-95.36136, 29.77481], [-95.3623, 29.77449], [-95.36459, 29.77257], [-95.36474, 29.77283], [-95.36519, 29.77358], [-95.3655, 29.77397], [-95.36595, 29.77415], [-95.36655, 29.77363], [-95.3666, 29.77359], [-95.36658, 29.76973], [-95.37508, 29.76978], [-95.37515, 29.77278], [-95.37587, 29.77278]]]}}, {"type": "Feature", "properties": {"area_id": 9917, "city": "Houston", "state": "TX", "city_survey": true, "cat": "Hazardous", "grade": "D", "label": null, "res": true, "com": false, "ind": false, "holc_grade": "D"}, "geometry": {"type": "Polygon", "coordinates": [[[-95.3603, 29.78792], [-95.36118, 29.78465], [-95.36205, 29.7844], [-95.3653, 29.78335], [-95.3665, 29.7856], [-95.36691, 29.78585], [-95.36902, 29.78764], [-95.36699, 29.78996], [-95.36631, 29.7899], [-95.36503, 29.78905], [-95.36478, 29.78861], [-95.36469, 29.78852], [-95.36443, 29.78835], [-95.36413, 29.78815], [-95.36401, 29.78802], [-95.36376, 29.78806], [-95.3637, 29.7882], [-95.36377, 29.7883], [-95.36379, 29.78839], [-95.36368, 29.78858], [-95.36354, 29.78871], [-95.36348, 29.78883], [-95.36337, 29.78881], [-95.36314, 29.78884], [-95.36291, 29.78887], [-95.36263, 29.78902], [-95.36247, 29.78921], [-95.36237, 29.78943], [-95.36216, 29.78955], [-95.36214, 29.78973], [-95.36214, 29.78997], [-95.3619, 29.78997], [-95.3607, 29.79], [-95.36001, 29.79], [-95.36, 29.78976], [-95.35993, 29.78791], [-95.3603, 29.78792]]]}}, {"type": "Feature", "properties": {"area_id": 9918, "city": "Houston", "state": "TX", "city_survey": true, "cat": "Still Desirable", "grade": "B", "label": null, "res": true, "com": false, "ind": false, "holc_grade": "B"}, "geometry": {"type": "Polygon", "coordinates": [[[-95.36606, 29.79828], [-95.36751, 29.79989], [-95.36813, 29.80058], [-95.3685, 29.80078], [-95.36971, 29.80224], [-95.36968, 29.80339], [-95.36885, 29.80347], [-95.36859, 29.80367], [-95.36863, 29.80437], [-95.35743, 29.8044], [-95.35729, 29.8044], [-95.35717, 29.80054], [-95.35726, 29.80049], [-95.35816, 29.80001], [-95.36113, 29.79845], [-95.36606, 29.79828]]]}}, {"type": "Feature", "properties": {"area_id": 9919, "city": "Houston", "state": "TX", "city_survey": true, "cat": "Still Desirable", "grade": "B", "label": null, "res": true, "com": false, "ind": false, "holc_grade": "B"}, "geometry": {"type": "Polygon", "coordinates": [[[-95.39192, 29.77997], [-95.39198, 29.79078], [-95.39198, 29.79179], [-95.38807, 29.79182], [-95.38847, 29.8038], [-95.38805, 29.80329], [-95.38453, 29.79906], [-95.38427, 29.79092], [-95.38427, 29.79086], [-95.38427, 29.79084], [-95.3792, 29.79078], [-95.37285, 29.79071], [-95.37266, 29.79071], [-95.37223, 29.79036], [-95.37234, 29.79034], [-95.37263, 29.79029], [-95.37242, 29.78374], [-95.37228, 29.78327], [-95.3722, 29.78214], [-95.37257, 29.78116], [-95.37327, 29.78099], [-95.37375, 29.78143], [-95.37469, 29.7816], [-95.37548, 29.78167], [-95.37605, 29.7817], [-95.37765, 29.78105], [-95.37967, 29.78157], [-95.38158, 29.78047], [-95.38528, 29.78063], [-95.38527, 29.77986], [-95.38688, 29.77993], [-95.38707, 29.77989], [-95.38809, 29.77965], [-95.3883, 29.78009], [-95.39192, 29.77997]]]}}, {"type": "Feature", "properties": {"area_id": 9920, "city": "Houston", "state": "TX", "city_survey": true, "cat": "Still Desirable", "grade": "B", "label": null, "res": true, "com": false, "ind": false, "holc_grade": "B"}, "geometry": {"type": "Polygon", "coordinates": [[[-95.27863, 29.67854], [-95.27894, 29.67828], [-95.27927, 29.67819], [-95.27954, 29.67822], [-95.27996, 29.67841], [-95.28039, 29.6788], [-95.28078, 29.67911], [-95.28089, 29.6792], [-95.28137, 29.67938], [-95.28197, 29.67946], [-95.28267, 29.67946], [-95.28315, 29.67934], [-95.28335, 29.68543], [-95.28336, 29.68568], [-95.28802, 29.68564], [-95.28822, 29.68937], [-95.28169, 29.68941], [-95.28165, 29.68941], [-95.28397, 29.69173], [-95.28714, 29.6949], [-95.28679, 29.69511], [-95.28672, 29.69515], [-95.28649, 29.69529], [-95.28605, 29.69544], [-95.28555, 29.69556], [-95.28503, 29.69565], [-95.28464, 29.69571], [-95.28418, 29.6958], [-95.28381, 29.69591], [-95.28351, 29.696], [-95.28308, 29.6959], [-95.28273, 29.69578], [-95.28209, 29.69574], [-95.28169, 29.69581], [-95.28169, 29.70007], [-95.28169, 29.701], [-95.28059, 29.70101], [-95.28015, 29.70101], [-95.27788, 29.70104], [-95.27185, 29.70109], [-95.26497, 29.69295], [-95.26652, 29.69187], [-95.26645, 29.69185], [-95.26635, 29.69168], [-95.26639, 29.69153], [-95.26649, 29.69137], [-95.26669, 29.69126], [-95.26661, 29.69013], [-95.26755, 29.68934], [-95.26791, 29.68907], [-95.26837, 29.68903], [-95.26885, 29.68919], [-95.26905, 29.68951], [-95.26943, 29.68977], [-95.26973, 29.69006], [-95.27013, 29.69014], [-95.27045, 29.69009], [-95.27064, 29.68982], [-95.27079, 29.68955], [-95.27123, 29.68931], [-95.27292, 29.68849], [-95.27311, 29.68804], [-95.27305, 29.68783], [-95.27281, 29.68747], [-95.27233, 29.68697], [-95.27137, 29.68645], [-95.2703, 29.686], [-95.26933, 29.68565], [-95.26868, 29.68518], [-95.26859, 29.68478], [-95.26833, 29.68436], [-95.26802, 29.68397], [-95.26792, 29.68348], [-95.26827, 29.68323], [-95.26868, 29.68308], [-95.2686, 29.68282], [-95.26864, 29.68237], [-95.26887, 29.68198], [-95.269, 29.68176], [-95.26936, 29.68153], [-95.26945, 29.68147], [-95.2698, 29.68124], [-95.26985, 29.68116], [-95.27015, 29.68068], [-95.27064, 29.68004], [-95.2718, 29.67986], [-95.27217, 29.67984], [-95.27246, 29.67982], [-95.27275, 29.67963], [-95.2732, 29.67925], [-95.27345, 29.67891], [-95.27355, 29.67878], [-95.27409, 29.6788], [-95.27462, 29.67916], [-95.27538, 29.67964], [-95.27604, 29.67977], [-95.27677, 29.6796], [-95.27749, 29.67929], [-95.27767, 29.67921], [-95.27784, 29.67888], [-95.27834, 29.67868], [-95.27863, 29.67854]]]}}, {"type": "Feature", "properties": {"area_id": 9921, "city": "Houston", "state": "TX", "city_survey": true, "cat": "Definitely Declining", "grade": "C", "label": null, "res": true, "com": false, "ind": false, "holc_grade": "C"}, "geometry": {"type": "Polygon", "coordinates": [[[-95.28016, 29.70101], [-95.28059, 29.70101], [-95.28169, 29.701], [-95.28236, 29.70105], [-95.28234, 29.70127], [-95.2826, 29.70152], [-95.28266, 29.70183], [-95.28305, 29.7025], [-95.28433, 29.70261], [-95.28442, 29.7043], [-95.28476, 29.71044], [-95.28494, 29.71243], [-95.28489, 29.71366], [-95.28458, 29.71434], [-95.28456, 29.7163], [-95.28595, 29.71631], [-95.28925, 29.71634], [-95.28927, 29.71729], [-95.28939, 29.72306], [-95.28904, 29.72326], [-95.28866, 29.72329], [-95.28831, 29.72333], [-95.2881, 29.72316], [-95.2877, 29.72285], [-95.28751, 29.72256], [-95.28721, 29.72239], [-95.28673, 29.72256], [-95.28652, 29.72273], [-95.28645, 29.72278], [-95.28608, 29.7228], [-95.28575, 29.72273], [-95.28568, 29.72268], [-95.28543, 29.72248], [-95.28514, 29.7224], [-95.28493, 29.72247], [-95.28483, 29.72252], [-95.28456, 29.72264], [-95.28434, 29.72277], [-95.2842, 29.72303], [-95.28419, 29.72357], [-95.284, 29.72384], [-95.28363, 29.72405], [-95.28329, 29.72434], [-95.28331, 29.72462], [-95.28347, 29.72518], [-95.2835, 29.72565], [-95.28338, 29.72608], [-95.28321, 29.72629], [-95.28311, 29.72688], [-95.28275, 29.72736], [-95.28229, 29.72746], [-95.28187, 29.72752], [-95.28164, 29.72739], [-95.28144, 29.72727], [-95.28082, 29.72711], [-95.28039, 29.72705], [-95.27979, 29.72727], [-95.27907, 29.72721], [-95.27866, 29.72712], [-95.27796, 29.7265], [-95.27742, 29.72541], [-95.27749, 29.72469], [-95.27747, 29.72373], [-95.27728, 29.72251], [-95.27687, 29.72181], [-95.27631, 29.72115], [-95.27567, 29.72092], [-95.27501, 29.7211], [-95.27428, 29.72152], [-95.27358, 29.72217], [-95.27297, 29.72229], [-95.27284, 29.71441], [-95.26991, 29.71438], [-95.2697, 29.71431], [-95.26972, 29.71213], [-95.2704, 29.71131], [-95.27227, 29.71128], [-95.27406, 29.71125], [-95.27394, 29.70715], [-95.27427, 29.70717], [-95.2764, 29.70716], [-95.27707, 29.70669], [-95.27846, 29.70831], [-95.2782, 29.70245], [-95.27814, 29.70103], [-95.28016, 29.70101]]]}}, {"type": "Feature", "properties": {"area_id": 9922, "city": "Houston", "state": "TX", "city_survey": true, "cat": "Still Desirable", "grade": "B", "label": null, "res": true, "com": false, "ind": false, "holc_grade": "B"}, "geometry": {"type": "Polygon", "coordinates": [[[-95.4037, 29.80215], [-95.40003, 29.80219], [-95.40005, 29.80395], [-95.40008, 29.80595], [-95.39473, 29.80599], [-95.39466, 29.80403], [-95.3942, 29.7911], [-95.39898, 29.79098], [-95.40344, 29.79087], [-95.4037, 29.80215]]]}}]}