{
  "type": "FeatureCollection",
  "name": "Houston_HOLC_Redlining_1940s",
  "crs": {
    "type": "name",
    "properties": {
      "name": "urn:ogc:def:crs:OGC:1.3:CRS84"
    }
  },
  "features": [
    {
      "type": "Feature",
      "properties": {
        "holc_grade": "A",
        "holc_id": "A1",
        "neighborhood_name": "River Oaks",
        "area_description": "Exclusive residential area developed in the 1920s. Large lots, deed-restricted, wealthy white families. Considered the finest residential section of Houston with well-maintained estates and winding streets."
      },
      "geometry": {
        "type": "Polygon",
        "coordinates": [
          [
            [
              -95.44,
              29.74
            ],
            [
              -95.414,
              29.74
            ],
            [
              -95.413,
              29.754
            ],
            [
              -95.439,
              29.755
            ],
            [
              -95.44,
              29.74
            ]
          ]
        ]
      }
    },
    {
      "type": "Feature",
      "properties": {
        "holc_grade": "A",
        "holc_id": "A2",
        "neighborhood_name": "West University Place",
        "area_description": "Well-established residential community incorporated as a separate city. Predominantly single-family homes occupied by white professional and business class families. Near Rice Institute. Deed-restricted with consistent upkeep."
      },
      "geometry": {
        "type": "Polygon",
        "coordinates": [
          [
            [
              -95.443,
              29.707
            ],
            [
              -95.418,
              29.706
            ],
            [
              -95.417,
              29.722
            ],
            [
              -95.442,
              29.723
            ],
            [
              -95.443,
              29.707
            ]
          ]
        ]
      }
    },
    {
      "type": "Feature",
      "properties": {
        "holc_grade": "A",
        "holc_id": "A3",
        "neighborhood_name": "Bellaire",
        "area_description": "Newer suburban development southwest of the city center. Deed-restricted, all-white residential area with modern homes built in the 1930s-40s. Good access to downtown with favorable growth prospects."
      },
      "geometry": {
        "type": "Polygon",
        "coordinates": [
          [
            [
              -95.472,
              29.696
            ],
            [
              -95.448,
              29.695
            ],
            [
              -95.447,
              29.711
            ],
            [
              -95.471,
              29.712
            ],
            [
              -95.472,
              29.696
            ]
          ]
        ]
      }
    },
    {
      "type": "Feature",
      "properties": {
        "holc_grade": "A",
        "holc_id": "A4",
        "neighborhood_name": "Memorial",
        "area_description": "Spacious, park-like residential area west of the city. Large lots with abundant trees along Buffalo Bayou. Wealthy white families, new construction, excellent drainage and infrastructure. Strong deed restrictions enforced."
      },
      "geometry": {
        "type": "Polygon",
        "coordinates": [
          [
            [
              -95.514,
              29.764
            ],
            [
              -95.487,
              29.763
            ],
            [
              -95.486,
              29.779
            ],
            [
              -95.512,
              29.78
            ],
            [
              -95.514,
              29.764
            ]
          ]
        ]
      }
    },
    {
      "type": "Feature",
      "properties": {
        "holc_grade": "B",
        "holc_id": "B1",
        "neighborhood_name": "Houston Heights",
        "area_description": "Established white residential neighborhood north of downtown, developed in the 1890s-1910s. Well-maintained Victorian and Craftsman homes. Deed-restricted against non-white occupancy. Stable property values, streetcar access."
      },
      "geometry": {
        "type": "Polygon",
        "coordinates": [
          [
            [
              -95.41,
              29.783
            ],
            [
              -95.386,
              29.782
            ],
            [
              -95.385,
              29.798
            ],
            [
              -95.409,
              29.799
            ],
            [
              -95.41,
              29.783
            ]
          ]
        ]
      }
    },
    {
      "type": "Feature",
      "properties": {
        "holc_grade": "B",
        "holc_id": "B2",
        "neighborhood_name": "Montrose North",
        "area_description": "Good housing stock with mix of single-family and multi-family dwellings. White, middle-to-upper-middle class residents. Near Menil and cultural institutions. Some commercial encroachment along main thoroughfares."
      },
      "geometry": {
        "type": "Polygon",
        "coordinates": [
          [
            [
              -95.405,
              29.746
            ],
            [
              -95.385,
              29.745
            ],
            [
              -95.384,
              29.759
            ],
            [
              -95.404,
              29.76
            ],
            [
              -95.405,
              29.746
            ]
          ]
        ]
      }
    },
    {
      "type": "Feature",
      "properties": {
        "holc_grade": "B",
        "holc_id": "B3",
        "neighborhood_name": "Southampton",
        "area_description": "Desirable residential area adjacent to Rice Institute. White professional families. Well-built homes from 1920s with consistent architectural character. Deed-restricted, tree-lined streets. Proximity to university supports property values."
      },
      "geometry": {
        "type": "Polygon",
        "coordinates": [
          [
            [
              -95.432,
              29.719
            ],
            [
              -95.41,
              29.718
            ],
            [
              -95.409,
              29.733
            ],
            [
              -95.431,
              29.734
            ],
            [
              -95.432,
              29.719
            ]
          ]
        ]
      }
    },
    {
      "type": "Feature",
      "properties": {
        "holc_grade": "B",
        "holc_id": "B4",
        "neighborhood_name": "Garden Oaks",
        "area_description": "Newer residential development north of the Heights. White families, newer homes with good construction quality. Area is still developing with favorable growth trajectory. Adequate infrastructure and deed restrictions in place."
      },
      "geometry": {
        "type": "Polygon",
        "coordinates": [
          [
            [
              -95.422,
              29.817
            ],
            [
              -95.398,
              29.816
            ],
            [
              -95.397,
              29.832
            ],
            [
              -95.421,
              29.833
            ],
            [
              -95.422,
              29.817
            ]
          ]
        ]
      }
    },
    {
      "type": "Feature",
      "properties": {
        "holc_grade": "B",
        "holc_id": "B5",
        "neighborhood_name": "Meyerland Area",
        "area_description": "Developing residential area southwest of the city. New construction with modern amenities. White families, predominantly middle class. Area shows promise for continued growth and stable property values."
      },
      "geometry": {
        "type": "Polygon",
        "coordinates": [
          [
            [
              -95.452,
              29.673
            ],
            [
              -95.428,
              29.672
            ],
            [
              -95.427,
              29.688
            ],
            [
              -95.451,
              29.689
            ],
            [
              -95.452,
              29.673
            ]
          ]
        ]
      }
    },
    {
      "type": "Feature",
      "properties": {
        "holc_grade": "B",
        "holc_id": "B6",
        "neighborhood_name": "Tanglewood",
        "area_description": "Newer residential subdivision west of River Oaks. White middle-to-upper class families. Well-planned development with deed restrictions. Modern homes on good-sized lots. Favorable long-term outlook."
      },
      "geometry": {
        "type": "Polygon",
        "coordinates": [
          [
            [
              -95.473,
              29.747
            ],
            [
              -95.449,
              29.746
            ],
            [
              -95.448,
              29.762
            ],
            [
              -95.472,
              29.763
            ],
            [
              -95.473,
              29.747
            ]
          ]
        ]
      }
    },
    {
      "type": "Feature",
      "properties": {
        "holc_grade": "C",
        "holc_id": "C1",
        "neighborhood_name": "Near Northside",
        "area_description": "Older housing stock north of downtown. Mixed population including some Mexican-American families. Frame construction predominates. Some deterioration evident but area remains residential. Proximity to industrial uses a concern."
      },
      "geometry": {
        "type": "Polygon",
        "coordinates": [
          [
            [
              -95.368,
              29.779
            ],
            [
              -95.348,
              29.778
            ],
            [
              -95.347,
              29.793
            ],
            [
              -95.367,
              29.794
            ],
            [
              -95.368,
              29.779
            ]
          ]
        ]
      }
    },
    {
      "type": "Feature",
      "properties": {
        "holc_grade": "C",
        "holc_id": "C2",
        "neighborhood_name": "East End North",
        "area_description": "Aging housing stock east of downtown. Working class white and some Mexican-American residents. Frame houses showing wear but maintained. Near industrial corridor along Navigation Boulevard. Declining property values."
      },
      "geometry": {
        "type": "Polygon",
        "coordinates": [
          [
            [
              -95.35,
              29.744
            ],
            [
              -95.33,
              29.743
            ],
            [
              -95.329,
              29.758
            ],
            [
              -95.349,
              29.759
            ],
            [
              -95.35,
              29.744
            ]
          ]
        ]
      }
    },
    {
      "type": "Feature",
      "properties": {
        "holc_grade": "C",
        "holc_id": "C3",
        "neighborhood_name": "Lindale Park",
        "area_description": "Older working class neighborhood north of the city. Predominantly white families in frame houses. Homes date from 1910s-1920s showing age. Limited deed restrictions. Area is stable but not expected to appreciate."
      },
      "geometry": {
        "type": "Polygon",
        "coordinates": [
          [
            [
              -95.375,
              29.795
            ],
            [
              -95.355,
              29.794
            ],
            [
              -95.354,
              29.81
            ],
            [
              -95.374,
              29.811
            ],
            [
              -95.375,
              29.795
            ]
          ]
        ]
      }
    },
    {
      "type": "Feature",
      "properties": {
        "holc_grade": "C",
        "holc_id": "C4",
        "neighborhood_name": "Magnolia Park West",
        "area_description": "Near industrial area along the Ship Channel. Mixed residential with predominantly Mexican-American population. Older frame construction. Proximity to refineries and heavy industry depresses values. Some commercial infiltration."
      },
      "geometry": {
        "type": "Polygon",
        "coordinates": [
          [
            [
              -95.315,
              29.726
            ],
            [
              -95.295,
              29.725
            ],
            [
              -95.294,
              29.74
            ],
            [
              -95.314,
              29.741
            ],
            [
              -95.315,
              29.726
            ]
          ]
        ]
      }
    },
    {
      "type": "Feature",
      "properties": {
        "holc_grade": "C",
        "holc_id": "C5",
        "neighborhood_name": "Denver Harbor West",
        "area_description": "Declining residential area northeast of downtown. Older homes, working class white and some Mexican-American residents. Infrastructure deteriorating. Near rail lines and light industrial uses. Property values trending downward."
      },
      "geometry": {
        "type": "Polygon",
        "coordinates": [
          [
            [
              -95.335,
              29.771
            ],
            [
              -95.315,
              29.77
            ],
            [
              -95.314,
              29.785
            ],
            [
              -95.334,
              29.786
            ],
            [
              -95.335,
              29.771
            ]
          ]
        ]
      }
    },
    {
      "type": "Feature",
      "properties": {
        "holc_grade": "C",
        "holc_id": "C6",
        "neighborhood_name": "Second Ward East",
        "area_description": "Older residential area east of downtown, historically Mexican-American. Frame houses in fair to poor condition. Limited infrastructure investment. Near rail yards and light industry. Considered a declining section of the city."
      },
      "geometry": {
        "type": "Polygon",
        "coordinates": [
          [
            [
              -95.355,
              29.745
            ],
            [
              -95.337,
              29.744
            ],
            [
              -95.336,
              29.759
            ],
            [
              -95.354,
              29.76
            ],
            [
              -95.355,
              29.745
            ]
          ]
        ]
      }
    },
    {
      "type": "Feature",
      "properties": {
        "holc_grade": "C",
        "holc_id": "C7",
        "neighborhood_name": "Harrisburg",
        "area_description": "Older area along Harrisburg Boulevard near rail and industry. Mixed uses with residential, commercial, and light industrial. Mexican-American and white working class residents. Aging frame housing. Unfavorable environmental conditions from nearby industry."
      },
      "geometry": {
        "type": "Polygon",
        "coordinates": [
          [
            [
              -95.32,
              29.733
            ],
            [
              -95.3,
              29.732
            ],
            [
              -95.299,
              29.747
            ],
            [
              -95.319,
              29.748
            ],
            [
              -95.32,
              29.733
            ]
          ]
        ]
      }
    },
    {
      "type": "Feature",
      "properties": {
        "holc_grade": "C",
        "holc_id": "C8",
        "neighborhood_name": "Independence Heights",
        "area_description": "Older area north of Garden Oaks. Once an independent municipality. Mixed population, older frame houses. Some sections show deterioration while others remain stable. Limited deed restrictions and inconsistent maintenance."
      },
      "geometry": {
        "type": "Polygon",
        "coordinates": [
          [
            [
              -95.395,
              29.818
            ],
            [
              -95.375,
              29.817
            ],
            [
              -95.374,
              29.833
            ],
            [
              -95.394,
              29.834
            ],
            [
              -95.395,
              29.818
            ]
          ]
        ]
      }
    },
    {
      "type": "Feature",
      "properties": {
        "holc_grade": "D",
        "holc_id": "D1",
        "neighborhood_name": "Third Ward",
        "area_description": "Predominantly Negro neighborhood south of downtown Houston. Substandard housing, poor sanitation, unpaved streets. Overcrowded frame shotgun houses in disrepair. Home to Emancipation Park and several Negro churches and businesses. Considered a hazardous lending area."
      },
      "geometry": {
        "type": "Polygon",
        "coordinates": [
          [
            [
              -95.365,
              29.718
            ],
            [
              -95.345,
              29.717
            ],
            [
              -95.344,
              29.733
            ],
            [
              -95.364,
              29.734
            ],
            [
              -95.365,
              29.718
            ]
          ]
        ]
      }
    },
    {
      "type": "Feature",
      "properties": {
        "holc_grade": "D",
        "holc_id": "D2",
        "neighborhood_name": "Fifth Ward",
        "area_description": "Negro neighborhood northeast of downtown near rail yards and industrial areas. Substandard frame housing, many without plumbing. Unpaved streets, poor drainage. High density occupation. Adjacent to heavy rail traffic. No deed restrictions. Area considered hazardous for mortgage lending."
      },
      "geometry": {
        "type": "Polygon",
        "coordinates": [
          [
            [
              -95.349,
              29.771
            ],
            [
              -95.328,
              29.77
            ],
            [
              -95.327,
              29.786
            ],
            [
              -95.348,
              29.787
            ],
            [
              -95.349,
              29.771
            ]
          ]
        ]
      }
    },
    {
      "type": "Feature",
      "properties": {
        "holc_grade": "D",
        "holc_id": "D3",
        "neighborhood_name": "Fourth Ward / Freedmen's Town",
        "area_description": "Historic Negro settlement immediately west of downtown, established by freed slaves after the Civil War. Oldest Black community in Houston. Severely deteriorated shotgun houses, many lacking basic utilities. Overcrowded conditions. Considered the worst slum area in the city."
      },
      "geometry": {
        "type": "Polygon",
        "coordinates": [
          [
            [
              -95.387,
              29.751
            ],
            [
              -95.37,
              29.75
            ],
            [
              -95.369,
              29.766
            ],
            [
              -95.386,
              29.767
            ],
            [
              -95.387,
              29.751
            ]
          ]
        ]
      }
    },
    {
      "type": "Feature",
      "properties": {
        "holc_grade": "D",
        "holc_id": "D4",
        "neighborhood_name": "Second Ward",
        "area_description": "Mexican-American community east of downtown Houston. Substandard frame housing, poor infrastructure. Overcrowded living conditions with large families. Unpaved streets, limited municipal services. Near industrial and rail corridor. Considered hazardous for lending."
      },
      "geometry": {
        "type": "Polygon",
        "coordinates": [
          [
            [
              -95.36,
              29.75
            ],
            [
              -95.341,
              29.749
            ],
            [
              -95.34,
              29.764
            ],
            [
              -95.359,
              29.765
            ],
            [
              -95.36,
              29.75
            ]
          ]
        ]
      }
    },
    {
      "type": "Feature",
      "properties": {
        "holc_grade": "D",
        "holc_id": "D5",
        "neighborhood_name": "Kashmere Gardens",
        "area_description": "Negro neighborhood northeast of the city near industrial facilities. Poor quality frame housing, many structures substandard. Unpaved roads, inadequate drainage and sewerage. Adjacent to rail lines and industrial operations. No lending institutions willing to make loans in the area."
      },
      "geometry": {
        "type": "Polygon",
        "coordinates": [
          [
            [
              -95.337,
              29.785
            ],
            [
              -95.317,
              29.784
            ],
            [
              -95.316,
              29.8
            ],
            [
              -95.336,
              29.801
            ],
            [
              -95.337,
              29.785
            ]
          ]
        ]
      }
    },
    {
      "type": "Feature",
      "properties": {
        "holc_grade": "D",
        "holc_id": "D6",
        "neighborhood_name": "Sunnyside",
        "area_description": "Negro community in south Houston, largely rural character. Substandard frame dwellings, many without indoor plumbing or electricity. Unpaved roads, open drainage ditches. Far from city services and employment centers. Area is isolated and considered highly hazardous for lending."
      },
      "geometry": {
        "type": "Polygon",
        "coordinates": [
          [
            [
              -95.347,
              29.663
            ],
            [
              -95.325,
              29.662
            ],
            [
              -95.324,
              29.678
            ],
            [
              -95.346,
              29.679
            ],
            [
              -95.347,
              29.663
            ]
          ]
        ]
      }
    },
    {
      "type": "Feature",
      "properties": {
        "holc_grade": "D",
        "holc_id": "D7",
        "neighborhood_name": "Clinton Park",
        "area_description": "Area near the Houston Ship Channel with severe industrial exposure. Negro and some Mexican-American residents. Substandard housing adjacent to refineries and chemical plants. Air pollution, noise, and industrial hazards. No municipal services. Extremely hazardous for investment."
      },
      "geometry": {
        "type": "Polygon",
        "coordinates": [
          [
            [
              -95.3,
              29.758
            ],
            [
              -95.28,
              29.757
            ],
            [
              -95.279,
              29.773
            ],
            [
              -95.299,
              29.774
            ],
            [
              -95.3,
              29.758
            ]
          ]
        ]
      }
    },
    {
      "type": "Feature",
      "properties": {
        "holc_grade": "D",
        "holc_id": "D8",
        "neighborhood_name": "Settegast",
        "area_description": "Negro neighborhood in northeast Houston near rail lines. Poorly constructed frame houses, many dilapidated. No paved streets, no sewerage system, limited water service. Adjacent to rail switching yards. Isolated from city services and commercial areas. Not considered viable for mortgage lending."
      },
      "geometry": {
        "type": "Polygon",
        "coordinates": [
          [
            [
              -95.32,
              29.805
            ],
            [
              -95.3,
              29.804
            ],
            [
              -95.299,
              29.82
            ],
            [
              -95.319,
              29.821
            ],
            [
              -95.32,
              29.805
            ]
          ]
        ]
      }
    }
  ]
}