{"type": "FeatureCollection", "name": "houston_income_by_tract_1970_2020", "crs": {"type": "name", "properties": {"name": "urn:ogc:def:crs:OGC:1.3:CRS84"}}, "features": [{"type": "Feature", "properties": {"tract_id": "48201310100", "name": "River Oaks", "income_1970": 48500, "income_1980": 98000, "income_1990": 155000, "income_2000": 200000, "income_2010": 230000, "income_2020": 250000, "poverty_rate_2020": 2.8, "population_2020": 4200, "is_sample_data": true}, "geometry": {"type": "Polygon", "coordinates": [[[-95.437, 29.737], [-95.417, 29.737], [-95.417, 29.757], [-95.437, 29.757], [-95.437, 29.737]]]}}, {"type": "Feature", "properties": {"tract_id": "48201310200", "name": "West University", "income_1970": 42000, "income_1980": 85000, "income_1990": 130000, "income_2000": 165000, "income_2010": 185000, "income_2020": 200000, "poverty_rate_2020": 3.1, "population_2020": 15100, "is_sample_data": true}, "geometry": {"type": "Polygon", "coordinates": [[[-95.44, 29.704], [-95.42, 29.704], [-95.42, 29.724], [-95.44, 29.724], [-95.44, 29.704]]]}}, {"type": "Feature", "properties": {"tract_id": "48201310300", "name": "Memorial", "income_1970": 38000, "income_1980": 78000, "income_1990": 120000, "income_2000": 148000, "income_2010": 162000, "income_2020": 175000, "poverty_rate_2020": 3.5, "population_2020": 11200, "is_sample_data": true}, "geometry": {"type": "Polygon", "coordinates": [[[-95.512, 29.761], [-95.488, 29.761], [-95.488, 29.781], [-95.512, 29.781], [-95.512, 29.761]]]}}, {"type": "Feature", "properties": {"tract_id": "48201310400", "name": "Bellaire", "income_1970": 30000, "income_1980": 62000, "income_1990": 88000, "income_2000": 105000, "income_2010": 118000, "income_2020": 130000, "poverty_rate_2020": 4.2, "population_2020": 18700, "is_sample_data": true}, "geometry": {"type": "Polygon", "coordinates": [[[-95.47, 29.693], [-95.45, 29.693], [-95.45, 29.713], [-95.47, 29.713], [-95.47, 29.693]]]}}, {"type": "Feature", "properties": {"tract_id": "48201310500", "name": "Tanglewood", "income_1970": 40000, "income_1980": 82000, "income_1990": 125000, "income_2000": 152000, "income_2010": 170000, "income_2020": 180000, "poverty_rate_2020": 2.5, "population_2020": 5800, "is_sample_data": true}, "geometry": {"type": "Polygon", "coordinates": [[[-95.471, 29.744], [-95.451, 29.744], [-95.451, 29.764], [-95.471, 29.764], [-95.471, 29.744]]]}}, {"type": "Feature", "properties": {"tract_id": "48201320100", "name": "Heights", "income_1970": 25000, "income_1980": 32000, "income_1990": 38000, "income_2000": 52000, "income_2010": 78000, "income_2020": 110000, "poverty_rate_2020": 10.5, "population_2020": 22400, "is_sample_data": true}, "geometry": {"type": "Polygon", "coordinates": [[[-95.408, 29.78], [-95.388, 29.78], [-95.388, 29.8], [-95.408, 29.8], [-95.408, 29.78]]]}}, {"type": "Feature", "properties": {"tract_id": "48201320200", "name": "Montrose", "income_1970": 20000, "income_1980": 26000, "income_1990": 35000, "income_2000": 48000, "income_2010": 68000, "income_2020": 95000, "poverty_rate_2020": 13.2, "population_2020": 19800, "is_sample_data": true}, "geometry": {"type": "Polygon", "coordinates": [[[-95.405, 29.736], [-95.385, 29.736], [-95.385, 29.756], [-95.405, 29.756], [-95.405, 29.736]]]}}, {"type": "Feature", "properties": {"tract_id": "48201320300", "name": "EaDo / East Downtown", "income_1970": 15000, "income_1980": 18000, "income_1990": 22000, "income_2000": 28000, "income_2010": 45000, "income_2020": 75000, "poverty_rate_2020": 16.8, "population_2020": 8500, "is_sample_data": true}, "geometry": {"type": "Polygon", "coordinates": [[[-95.365, 29.738], [-95.345, 29.738], [-95.345, 29.758], [-95.365, 29.758], [-95.365, 29.738]]]}}, {"type": "Feature", "properties": {"tract_id": "48201320400", "name": "Midtown", "income_1970": 18000, "income_1980": 22000, "income_1990": 28000, "income_2000": 40000, "income_2010": 62000, "income_2020": 85000, "poverty_rate_2020": 14.5, "population_2020": 12300, "is_sample_data": true}, "geometry": {"type": "Polygon", "coordinates": [[[-95.388, 29.732], [-95.368, 29.732], [-95.368, 29.752], [-95.388, 29.752], [-95.388, 29.732]]]}}, {"type": "Feature", "properties": {"tract_id": "48201320500", "name": "First Ward", "income_1970": 15000, "income_1980": 19000, "income_1990": 24000, "income_2000": 32000, "income_2010": 52000, "income_2020": 80000, "poverty_rate_2020": 18.0, "population_2020": 6900, "is_sample_data": true}, "geometry": {"type": "Polygon", "coordinates": [[[-95.39, 29.76], [-95.37, 29.76], [-95.37, 29.78], [-95.39, 29.78], [-95.39, 29.76]]]}}, {"type": "Feature", "properties": {"tract_id": "48201330100", "name": "Third Ward", "income_1970": 6200, "income_1980": 10500, "income_1990": 14000, "income_2000": 18500, "income_2010": 25000, "income_2020": 32000, "poverty_rate_2020": 38.5, "population_2020": 16200, "is_sample_data": true}, "geometry": {"type": "Polygon", "coordinates": [[[-95.365, 29.715], [-95.345, 29.715], [-95.345, 29.735], [-95.365, 29.735], [-95.365, 29.715]]]}}, {"type": "Feature", "properties": {"tract_id": "48201330200", "name": "Fifth Ward", "income_1970": 5800, "income_1980": 9800, "income_1990": 12500, "income_2000": 16000, "income_2010": 21000, "income_2020": 28000, "poverty_rate_2020": 42.1, "population_2020": 9800, "is_sample_data": true}, "geometry": {"type": "Polygon", "coordinates": [[[-95.349, 29.768], [-95.329, 29.768], [-95.329, 29.788], [-95.349, 29.788], [-95.349, 29.768]]]}}, {"type": "Feature", "properties": {"tract_id": "48201330300", "name": "Kashmere Gardens", "income_1970": 5500, "income_1980": 9200, "income_1990": 11800, "income_2000": 14500, "income_2010": 19000, "income_2020": 25000, "poverty_rate_2020": 44.3, "population_2020": 7600, "is_sample_data": true}, "geometry": {"type": "Polygon", "coordinates": [[[-95.337, 29.782], [-95.317, 29.782], [-95.317, 29.802], [-95.337, 29.802], [-95.337, 29.782]]]}}, {"type": "Feature", "properties": {"tract_id": "48201330400", "name": "Sunnyside", "income_1970": 5900, "income_1980": 10000, "income_1990": 13200, "income_2000": 16800, "income_2010": 21500, "income_2020": 27000, "poverty_rate_2020": 40.8, "population_2020": 11500, "is_sample_data": true}, "geometry": {"type": "Polygon", "coordinates": [[[-95.347, 29.66], [-95.327, 29.66], [-95.327, 29.68], [-95.347, 29.68], [-95.347, 29.66]]]}}, {"type": "Feature", "properties": {"tract_id": "48201330500", "name": "Acres Homes", "income_1970": 6500, "income_1980": 11200, "income_1990": 15500, "income_2000": 20000, "income_2010": 27000, "income_2020": 35000, "poverty_rate_2020": 32.4, "population_2020": 24100, "is_sample_data": true}, "geometry": {"type": "Polygon", "coordinates": [[[-95.44, 29.828], [-95.416, 29.828], [-95.416, 29.848], [-95.44, 29.848], [-95.44, 29.828]]]}}, {"type": "Feature", "properties": {"tract_id": "48201330600", "name": "South Park", "income_1970": 6000, "income_1980": 10400, "income_1990": 14200, "income_2000": 18000, "income_2010": 23500, "income_2020": 30000, "poverty_rate_2020": 36.7, "population_2020": 10200, "is_sample_data": true}, "geometry": {"type": "Polygon", "coordinates": [[[-95.36, 29.66], [-95.34, 29.66], [-95.34, 29.68], [-95.36, 29.68], [-95.36, 29.66]]]}}, {"type": "Feature", "properties": {"tract_id": "48201330700", "name": "Trinity Gardens", "income_1970": 5600, "income_1980": 9500, "income_1990": 12200, "income_2000": 15200, "income_2010": 19800, "income_2020": 26000, "poverty_rate_2020": 41.2, "population_2020": 8400, "is_sample_data": true}, "geometry": {"type": "Polygon", "coordinates": [[[-95.33, 29.815], [-95.31, 29.815], [-95.31, 29.835], [-95.33, 29.835], [-95.33, 29.815]]]}}, {"type": "Feature", "properties": {"tract_id": "48201330800", "name": "Settegast", "income_1970": 5200, "income_1980": 8800, "income_1990": 11000, "income_2000": 13800, "income_2010": 18200, "income_2020": 24000, "poverty_rate_2020": 43.8, "population_2020": 6200, "is_sample_data": true}, "geometry": {"type": "Polygon", "coordinates": [[[-95.32, 29.802], [-95.3, 29.802], [-95.3, 29.822], [-95.32, 29.822], [-95.32, 29.802]]]}}, {"type": "Feature", "properties": {"tract_id": "48201340100", "name": "Near Northside", "income_1970": 8500, "income_1980": 14800, "income_1990": 20000, "income_2000": 26000, "income_2010": 34000, "income_2020": 42000, "poverty_rate_2020": 24.5, "population_2020": 13600, "is_sample_data": true}, "geometry": {"type": "Polygon", "coordinates": [[[-95.368, 29.776], [-95.348, 29.776], [-95.348, 29.796], [-95.368, 29.796], [-95.368, 29.776]]]}}, {"type": "Feature", "properties": {"tract_id": "48201340200", "name": "Second Ward", "income_1970": 7800, "income_1980": 13500, "income_1990": 18000, "income_2000": 23500, "income_2010": 30000, "income_2020": 38000, "poverty_rate_2020": 25.8, "population_2020": 11400, "is_sample_data": true}, "geometry": {"type": "Polygon", "coordinates": [[[-95.36, 29.747], [-95.34, 29.747], [-95.34, 29.767], [-95.36, 29.767], [-95.36, 29.747]]]}}, {"type": "Feature", "properties": {"tract_id": "48201340300", "name": "Denver Harbor", "income_1970": 7500, "income_1980": 12800, "income_1990": 16500, "income_2000": 21000, "income_2010": 27500, "income_2020": 35000, "poverty_rate_2020": 23.2, "population_2020": 14800, "is_sample_data": true}, "geometry": {"type": "Polygon", "coordinates": [[[-95.335, 29.768], [-95.315, 29.768], [-95.315, 29.788], [-95.335, 29.788], [-95.335, 29.768]]]}}, {"type": "Feature", "properties": {"tract_id": "48201340400", "name": "Magnolia Park", "income_1970": 7200, "income_1980": 12200, "income_1990": 15800, "income_2000": 20000, "income_2010": 26000, "income_2020": 33000, "poverty_rate_2020": 22.5, "population_2020": 12100, "is_sample_data": true}, "geometry": {"type": "Polygon", "coordinates": [[[-95.315, 29.723], [-95.295, 29.723], [-95.295, 29.743], [-95.315, 29.743], [-95.315, 29.723]]]}}, {"type": "Feature", "properties": {"tract_id": "48201340500", "name": "Eastwood", "income_1970": 10000, "income_1980": 17500, "income_1990": 25000, "income_2000": 33000, "income_2010": 42000, "income_2020": 55000, "poverty_rate_2020": 17.3, "population_2020": 9500, "is_sample_data": true}, "geometry": {"type": "Polygon", "coordinates": [[[-95.35, 29.725], [-95.33, 29.725], [-95.33, 29.745], [-95.35, 29.745], [-95.35, 29.725]]]}}, {"type": "Feature", "properties": {"tract_id": "48201340600", "name": "Garden Oaks", "income_1970": 15000, "income_1980": 30000, "income_1990": 48000, "income_2000": 62000, "income_2010": 78000, "income_2020": 95000, "poverty_rate_2020": 6.8, "population_2020": 8900, "is_sample_data": true}, "geometry": {"type": "Polygon", "coordinates": [[[-95.42, 29.814], [-95.4, 29.814], [-95.4, 29.834], [-95.42, 29.834], [-95.42, 29.814]]]}}, {"type": "Feature", "properties": {"tract_id": "48201340700", "name": "Lindale Park", "income_1970": 9500, "income_1980": 16000, "income_1990": 22000, "income_2000": 29000, "income_2010": 37000, "income_2020": 48000, "poverty_rate_2020": 18.6, "population_2020": 7800, "is_sample_data": true}, "geometry": {"type": "Polygon", "coordinates": [[[-95.375, 29.792], [-95.355, 29.792], [-95.355, 29.812], [-95.375, 29.812], [-95.375, 29.792]]]}}, {"type": "Feature", "properties": {"tract_id": "48201340800", "name": "Independence Heights", "income_1970": 6800, "income_1980": 12000, "income_1990": 17000, "income_2000": 23000, "income_2010": 31000, "income_2020": 40000, "poverty_rate_2020": 21.4, "population_2020": 10500, "is_sample_data": true}, "geometry": {"type": "Polygon", "coordinates": [[[-95.395, 29.815], [-95.375, 29.815], [-95.375, 29.835], [-95.395, 29.835], [-95.395, 29.815]]]}}, {"type": "Feature", "properties": {"tract_id": "48201340900", "name": "Pasadena", "income_1970": 9800, "income_1980": 18000, "income_1990": 25000, "income_2000": 32000, "income_2010": 38000, "income_2020": 45000, "poverty_rate_2020": 19.8, "population_2020": 35200, "is_sample_data": true}, "geometry": {"type": "Polygon", "coordinates": [[[-95.222, 29.681], [-95.196, 29.681], [-95.196, 29.701], [-95.222, 29.701], [-95.222, 29.681]]]}}, {"type": "Feature", "properties": {"tract_id": "48201350100", "name": "Energy Corridor", "income_1970": 14000, "income_1980": 35000, "income_1990": 58000, "income_2000": 78000, "income_2010": 92000, "income_2020": 105000, "poverty_rate_2020": 5.2, "population_2020": 18600, "is_sample_data": true}, "geometry": {"type": "Polygon", "coordinates": [[[-95.572, 29.762], [-95.548, 29.762], [-95.548, 29.782], [-95.572, 29.782], [-95.572, 29.762]]]}}, {"type": "Feature", "properties": {"tract_id": "48201350200", "name": "Katy area", "income_1970": 11000, "income_1980": 28000, "income_1990": 48000, "income_2000": 68000, "income_2010": 82000, "income_2020": 95000, "poverty_rate_2020": 6.5, "population_2020": 42500, "is_sample_data": true}, "geometry": {"type": "Polygon", "coordinates": [[[-95.662, 29.78], [-95.638, 29.78], [-95.638, 29.8], [-95.662, 29.8], [-95.662, 29.78]]]}}, {"type": "Feature", "properties": {"tract_id": "48201350300", "name": "Sugar Land edge", "income_1970": 12000, "income_1980": 32000, "income_1990": 55000, "income_2000": 78000, "income_2010": 95000, "income_2020": 110000, "poverty_rate_2020": 5.8, "population_2020": 28400, "is_sample_data": true}, "geometry": {"type": "Polygon", "coordinates": [[[-95.512, 29.61], [-95.488, 29.61], [-95.488, 29.63], [-95.512, 29.63], [-95.512, 29.61]]]}}, {"type": "Feature", "properties": {"tract_id": "48201350400", "name": "Pearland edge", "income_1970": 10500, "income_1980": 25000, "income_1990": 42000, "income_2000": 58000, "income_2010": 72000, "income_2020": 85000, "poverty_rate_2020": 8.2, "population_2020": 31200, "is_sample_data": true}, "geometry": {"type": "Polygon", "coordinates": [[[-95.342, 29.57], [-95.318, 29.57], [-95.318, 29.59], [-95.342, 29.59], [-95.342, 29.57]]]}}, {"type": "Feature", "properties": {"tract_id": "48201350500", "name": "Spring area", "income_1970": 10000, "income_1980": 24000, "income_1990": 40000, "income_2000": 55000, "income_2010": 68000, "income_2020": 78000, "poverty_rate_2020": 9.5, "population_2020": 38700, "is_sample_data": true}, "geometry": {"type": "Polygon", "coordinates": [[[-95.392, 29.89], [-95.368, 29.89], [-95.368, 29.91], [-95.392, 29.91], [-95.392, 29.89]]]}}, {"type": "Feature", "properties": {"tract_id": "48201350600", "name": "Cypress area", "income_1970": 11500, "income_1980": 27000, "income_1990": 45000, "income_2000": 62000, "income_2010": 78000, "income_2020": 90000, "poverty_rate_2020": 7.1, "population_2020": 45800, "is_sample_data": true}, "geometry": {"type": "Polygon", "coordinates": [[[-95.532, 29.87], [-95.508, 29.87], [-95.508, 29.89], [-95.532, 29.89], [-95.532, 29.87]]]}}, {"type": "Feature", "properties": {"tract_id": "48201350700", "name": "Clear Lake", "income_1970": 13000, "income_1980": 32000, "income_1990": 52000, "income_2000": 70000, "income_2010": 84000, "income_2020": 95000, "poverty_rate_2020": 6.0, "population_2020": 26300, "is_sample_data": true}, "geometry": {"type": "Polygon", "coordinates": [[[-95.142, 29.56], [-95.118, 29.56], [-95.118, 29.58], [-95.142, 29.58], [-95.142, 29.56]]]}}, {"type": "Feature", "properties": {"tract_id": "48201350800", "name": "Kingwood area", "income_1970": 12500, "income_1980": 30000, "income_1990": 50000, "income_2000": 65000, "income_2010": 78000, "income_2020": 88000, "poverty_rate_2020": 7.8, "population_2020": 33400, "is_sample_data": true}, "geometry": {"type": "Polygon", "coordinates": [[[-95.212, 29.94], [-95.188, 29.94], [-95.188, 29.96], [-95.212, 29.96], [-95.212, 29.94]]]}}]}