{"type": "FeatureCollection", "name": "houston_race_ethnicity_by_tract", "description": "Sample race/ethnicity data for Houston census tracts across decades (1970-2020). NOT real census data.", "crs": {"type": "name", "properties": {"name": "urn:ogc:def:crs:OGC:1.3:CRS84"}}, "features": [{"type": "Feature", "properties": {"tract_id": "48201310100", "name": "River Oaks", "pct_white_1970": 98, "pct_black_1970": 1, "pct_hispanic_1970": 1, "pct_asian_1970": 0, "pct_white_1990": 90, "pct_black_1990": 2, "pct_hispanic_1990": 5, "pct_asian_1990": 3, "pct_white_2020": 78, "pct_black_2020": 3, "pct_hispanic_2020": 10, "pct_asian_2020": 9, "dominant_group_2020": "white", "diversity_index_2020": 0.373, "population_2020": 4250, "is_sample_data": true}, "geometry": {"type": "Polygon", "coordinates": [[[-95.437, 29.737], [-95.417, 29.737], [-95.417, 29.757], [-95.437, 29.757], [-95.437, 29.737]]]}}, {"type": "Feature", "properties": {"tract_id": "48201310200", "name": "West University", "pct_white_1970": 97, "pct_black_1970": 1, "pct_hispanic_1970": 1, "pct_asian_1970": 1, "pct_white_1990": 88, "pct_black_1990": 2, "pct_hispanic_1990": 6, "pct_asian_1990": 4, "pct_white_2020": 75, "pct_black_2020": 3, "pct_hispanic_2020": 12, "pct_asian_2020": 10, "dominant_group_2020": "white", "diversity_index_2020": 0.407, "population_2020": 5100, "is_sample_data": true}, "geometry": {"type": "Polygon", "coordinates": [[[-95.44, 29.704], [-95.42, 29.704], [-95.42, 29.724], [-95.44, 29.724], [-95.44, 29.704]]]}}, {"type": "Feature", "properties": {"tract_id": "48201310300", "name": "Memorial", "pct_white_1970": 96, "pct_black_1970": 1, "pct_hispanic_1970": 2, "pct_asian_1970": 1, "pct_white_1990": 85, "pct_black_1990": 3, "pct_hispanic_1990": 8, "pct_asian_1990": 4, "pct_white_2020": 70, "pct_black_2020": 4, "pct_hispanic_2020": 15, "pct_asian_2020": 11, "dominant_group_2020": "white", "diversity_index_2020": 0.474, "population_2020": 7800, "is_sample_data": true}, "geometry": {"type": "Polygon", "coordinates": [[[-95.512, 29.761], [-95.488, 29.761], [-95.488, 29.781], [-95.512, 29.781], [-95.512, 29.761]]]}}, {"type": "Feature", "properties": {"tract_id": "48201310400", "name": "Bellaire", "pct_white_1970": 95, "pct_black_1970": 1, "pct_hispanic_1970": 3, "pct_asian_1970": 1, "pct_white_1990": 70, "pct_black_1990": 3, "pct_hispanic_1990": 12, "pct_asian_1990": 15, "pct_white_2020": 35, "pct_black_2020": 5, "pct_hispanic_2020": 20, "pct_asian_2020": 40, "dominant_group_2020": "asian", "diversity_index_2020": 0.69, "population_2020": 8200, "is_sample_data": true}, "geometry": {"type": "Polygon", "coordinates": [[[-95.47, 29.693], [-95.45, 29.693], [-95.45, 29.713], [-95.47, 29.713], [-95.47, 29.693]]]}}, {"type": "Feature", "properties": {"tract_id": "48201310500", "name": "Tanglewood", "pct_white_1970": 97, "pct_black_1970": 1, "pct_hispanic_1970": 1, "pct_asian_1970": 1, "pct_white_1990": 88, "pct_black_1990": 2, "pct_hispanic_1990": 6, "pct_asian_1990": 4, "pct_white_2020": 72, "pct_black_2020": 3, "pct_hispanic_2020": 12, "pct_asian_2020": 13, "dominant_group_2020": "white", "diversity_index_2020": 0.443, "population_2020": 3800, "is_sample_data": true}, "geometry": {"type": "Polygon", "coordinates": [[[-95.471, 29.744], [-95.451, 29.744], [-95.451, 29.764], [-95.471, 29.764], [-95.471, 29.744]]]}}, {"type": "Feature", "properties": {"tract_id": "48201320100", "name": "Heights", "pct_white_1970": 60, "pct_black_1970": 15, "pct_hispanic_1970": 25, "pct_asian_1970": 0, "pct_white_1990": 55, "pct_black_1990": 12, "pct_hispanic_1990": 30, "pct_asian_1990": 3, "pct_white_2020": 65, "pct_black_2020": 8, "pct_hispanic_2020": 22, "pct_asian_2020": 5, "dominant_group_2020": "white", "diversity_index_2020": 0.517, "population_2020": 9500, "is_sample_data": true}, "geometry": {"type": "Polygon", "coordinates": [[[-95.408, 29.78], [-95.388, 29.78], [-95.388, 29.8], [-95.408, 29.8], [-95.408, 29.78]]]}}, {"type": "Feature", "properties": {"tract_id": "48201320200", "name": "Montrose", "pct_white_1970": 70, "pct_black_1970": 10, "pct_hispanic_1970": 20, "pct_asian_1970": 0, "pct_white_1990": 60, "pct_black_1990": 10, "pct_hispanic_1990": 25, "pct_asian_1990": 5, "pct_white_2020": 55, "pct_black_2020": 10, "pct_hispanic_2020": 28, "pct_asian_2020": 7, "dominant_group_2020": "white", "diversity_index_2020": 0.598, "population_2020": 11200, "is_sample_data": true}, "geometry": {"type": "Polygon", "coordinates": [[[-95.405, 29.736], [-95.385, 29.736], [-95.385, 29.756], [-95.405, 29.756], [-95.405, 29.736]]]}}, {"type": "Feature", "properties": {"tract_id": "48201320300", "name": "EaDo", "pct_white_1970": 10, "pct_black_1970": 20, "pct_hispanic_1970": 70, "pct_asian_1970": 0, "pct_white_1990": 12, "pct_black_1990": 18, "pct_hispanic_1990": 67, "pct_asian_1990": 3, "pct_white_2020": 35, "pct_black_2020": 15, "pct_hispanic_2020": 42, "pct_asian_2020": 8, "dominant_group_2020": "hispanic", "diversity_index_2020": 0.68, "population_2020": 6300, "is_sample_data": true}, "geometry": {"type": "Polygon", "coordinates": [[[-95.365, 29.738], [-95.345, 29.738], [-95.345, 29.758], [-95.365, 29.758], [-95.365, 29.738]]]}}, {"type": "Feature", "properties": {"tract_id": "48201320400", "name": "Midtown", "pct_white_1970": 5, "pct_black_1970": 85, "pct_hispanic_1970": 10, "pct_asian_1970": 0, "pct_white_1990": 15, "pct_black_1990": 60, "pct_hispanic_1990": 20, "pct_asian_1990": 5, "pct_white_2020": 40, "pct_black_2020": 25, "pct_hispanic_2020": 25, "pct_asian_2020": 10, "dominant_group_2020": "white", "diversity_index_2020": 0.715, "population_2020": 8900, "is_sample_data": true}, "geometry": {"type": "Polygon", "coordinates": [[[-95.388, 29.732], [-95.368, 29.732], [-95.368, 29.752], [-95.388, 29.752], [-95.388, 29.732]]]}}, {"type": "Feature", "properties": {"tract_id": "48201320500", "name": "First Ward", "pct_white_1970": 15, "pct_black_1970": 30, "pct_hispanic_1970": 55, "pct_asian_1970": 0, "pct_white_1990": 18, "pct_black_1990": 25, "pct_hispanic_1990": 52, "pct_asian_1990": 5, "pct_white_2020": 45, "pct_black_2020": 12, "pct_hispanic_2020": 35, "pct_asian_2020": 8, "dominant_group_2020": "white", "diversity_index_2020": 0.671, "population_2020": 5400, "is_sample_data": true}, "geometry": {"type": "Polygon", "coordinates": [[[-95.39, 29.76], [-95.37, 29.76], [-95.37, 29.78], [-95.39, 29.78], [-95.39, 29.76]]]}}, {"type": "Feature", "properties": {"tract_id": "48201330100", "name": "Third Ward", "pct_white_1970": 2, "pct_black_1970": 95, "pct_hispanic_1970": 3, "pct_asian_1970": 0, "pct_white_1990": 3, "pct_black_1990": 85, "pct_hispanic_1990": 10, "pct_asian_1990": 2, "pct_white_2020": 8, "pct_black_2020": 60, "pct_hispanic_2020": 28, "pct_asian_2020": 4, "dominant_group_2020": "black", "diversity_index_2020": 0.556, "population_2020": 12500, "is_sample_data": true}, "geometry": {"type": "Polygon", "coordinates": [[[-95.365, 29.715], [-95.345, 29.715], [-95.345, 29.735], [-95.365, 29.735], [-95.365, 29.715]]]}}, {"type": "Feature", "properties": {"tract_id": "48201330200", "name": "Fifth Ward", "pct_white_1970": 1, "pct_black_1970": 97, "pct_hispanic_1970": 2, "pct_asian_1970": 0, "pct_white_1990": 2, "pct_black_1990": 88, "pct_hispanic_1990": 9, "pct_asian_1990": 1, "pct_white_2020": 5, "pct_black_2020": 65, "pct_hispanic_2020": 27, "pct_asian_2020": 3, "dominant_group_2020": "black", "diversity_index_2020": 0.497, "population_2020": 7200, "is_sample_data": true}, "geometry": {"type": "Polygon", "coordinates": [[[-95.349, 29.768], [-95.329, 29.768], [-95.329, 29.788], [-95.349, 29.788], [-95.349, 29.768]]]}}, {"type": "Feature", "properties": {"tract_id": "48201330300", "name": "Kashmere Gardens", "pct_white_1970": 1, "pct_black_1970": 98, "pct_hispanic_1970": 1, "pct_asian_1970": 0, "pct_white_1990": 1, "pct_black_1990": 90, "pct_hispanic_1990": 8, "pct_asian_1990": 1, "pct_white_2020": 3, "pct_black_2020": 70, "pct_hispanic_2020": 25, "pct_asian_2020": 2, "dominant_group_2020": "black", "diversity_index_2020": 0.448, "population_2020": 5800, "is_sample_data": true}, "geometry": {"type": "Polygon", "coordinates": [[[-95.337, 29.782], [-95.317, 29.782], [-95.317, 29.802], [-95.337, 29.802], [-95.337, 29.782]]]}}, {"type": "Feature", "properties": {"tract_id": "48201330400", "name": "Sunnyside", "pct_white_1970": 1, "pct_black_1970": 97, "pct_hispanic_1970": 2, "pct_asian_1970": 0, "pct_white_1990": 1, "pct_black_1990": 90, "pct_hispanic_1990": 8, "pct_asian_1990": 1, "pct_white_2020": 2, "pct_black_2020": 72, "pct_hispanic_2020": 24, "pct_asian_2020": 2, "dominant_group_2020": "black", "diversity_index_2020": 0.424, "population_2020": 9100, "is_sample_data": true}, "geometry": {"type": "Polygon", "coordinates": [[[-95.347, 29.66], [-95.327, 29.66], [-95.327, 29.68], [-95.347, 29.68], [-95.347, 29.66]]]}}, {"type": "Feature", "properties": {"tract_id": "48201330500", "name": "Acres Homes", "pct_white_1970": 2, "pct_black_1970": 96, "pct_hispanic_1970": 2, "pct_asian_1970": 0, "pct_white_1990": 3, "pct_black_1990": 82, "pct_hispanic_1990": 13, "pct_asian_1990": 2, "pct_white_2020": 5, "pct_black_2020": 55, "pct_hispanic_2020": 35, "pct_asian_2020": 5, "dominant_group_2020": "black", "diversity_index_2020": 0.58, "population_2020": 14200, "is_sample_data": true}, "geometry": {"type": "Polygon", "coordinates": [[[-95.44, 29.828], [-95.416, 29.828], [-95.416, 29.848], [-95.44, 29.848], [-95.44, 29.828]]]}}, {"type": "Feature", "properties": {"tract_id": "48201330600", "name": "South Park", "pct_white_1970": 2, "pct_black_1970": 95, "pct_hispanic_1970": 3, "pct_asian_1970": 0, "pct_white_1990": 2, "pct_black_1990": 82, "pct_hispanic_1990": 15, "pct_asian_1990": 1, "pct_white_2020": 3, "pct_black_2020": 58, "pct_hispanic_2020": 37, "pct_asian_2020": 2, "dominant_group_2020": "black", "diversity_index_2020": 0.538, "population_2020": 8500, "is_sample_data": true}, "geometry": {"type": "Polygon", "coordinates": [[[-95.36, 29.66], [-95.34, 29.66], [-95.34, 29.68], [-95.36, 29.68], [-95.36, 29.66]]]}}, {"type": "Feature", "properties": {"tract_id": "48201330700", "name": "Trinity Gardens", "pct_white_1970": 1, "pct_black_1970": 97, "pct_hispanic_1970": 2, "pct_asian_1970": 0, "pct_white_1990": 2, "pct_black_1990": 85, "pct_hispanic_1990": 12, "pct_asian_1990": 1, "pct_white_2020": 3, "pct_black_2020": 62, "pct_hispanic_2020": 33, "pct_asian_2020": 2, "dominant_group_2020": "black", "diversity_index_2020": 0.504, "population_2020": 6100, "is_sample_data": true}, "geometry": {"type": "Polygon", "coordinates": [[[-95.33, 29.815], [-95.31, 29.815], [-95.31, 29.835], [-95.33, 29.835], [-95.33, 29.815]]]}}, {"type": "Feature", "properties": {"tract_id": "48201330800", "name": "Settegast", "pct_white_1970": 1, "pct_black_1970": 98, "pct_hispanic_1970": 1, "pct_asian_1970": 0, "pct_white_1990": 1, "pct_black_1990": 88, "pct_hispanic_1990": 10, "pct_asian_1990": 1, "pct_white_2020": 2, "pct_black_2020": 68, "pct_hispanic_2020": 28, "pct_asian_2020": 2, "dominant_group_2020": "black", "diversity_index_2020": 0.46, "population_2020": 4900, "is_sample_data": true}, "geometry": {"type": "Polygon", "coordinates": [[[-95.32, 29.802], [-95.3, 29.802], [-95.3, 29.822], [-95.32, 29.822], [-95.32, 29.802]]]}}, {"type": "Feature", "properties": {"tract_id": "48201340100", "name": "Near Northside", "pct_white_1970": 20, "pct_black_1970": 5, "pct_hispanic_1970": 75, "pct_asian_1970": 0, "pct_white_1990": 10, "pct_black_1990": 4, "pct_hispanic_1990": 85, "pct_asian_1990": 1, "pct_white_2020": 5, "pct_black_2020": 3, "pct_hispanic_2020": 90, "pct_asian_2020": 2, "dominant_group_2020": "hispanic", "diversity_index_2020": 0.186, "population_2020": 10800, "is_sample_data": true}, "geometry": {"type": "Polygon", "coordinates": [[[-95.368, 29.776], [-95.348, 29.776], [-95.348, 29.796], [-95.368, 29.796], [-95.368, 29.776]]]}}, {"type": "Feature", "properties": {"tract_id": "48201340200", "name": "Second Ward", "pct_white_1970": 10, "pct_black_1970": 5, "pct_hispanic_1970": 85, "pct_asian_1970": 0, "pct_white_1990": 8, "pct_black_1990": 5, "pct_hispanic_1990": 85, "pct_asian_1990": 2, "pct_white_2020": 8, "pct_black_2020": 5, "pct_hispanic_2020": 84, "pct_asian_2020": 3, "dominant_group_2020": "hispanic", "diversity_index_2020": 0.285, "population_2020": 7600, "is_sample_data": true}, "geometry": {"type": "Polygon", "coordinates": [[[-95.36, 29.747], [-95.34, 29.747], [-95.34, 29.767], [-95.36, 29.767], [-95.36, 29.747]]]}}, {"type": "Feature", "properties": {"tract_id": "48201340300", "name": "Denver Harbor", "pct_white_1970": 25, "pct_black_1970": 10, "pct_hispanic_1970": 65, "pct_asian_1970": 0, "pct_white_1990": 10, "pct_black_1990": 10, "pct_hispanic_1990": 78, "pct_asian_1990": 2, "pct_white_2020": 3, "pct_black_2020": 8, "pct_hispanic_2020": 87, "pct_asian_2020": 2, "dominant_group_2020": "hispanic", "diversity_index_2020": 0.234, "population_2020": 8900, "is_sample_data": true}, "geometry": {"type": "Polygon", "coordinates": [[[-95.335, 29.768], [-95.315, 29.768], [-95.315, 29.788], [-95.335, 29.788], [-95.335, 29.768]]]}}, {"type": "Feature", "properties": {"tract_id": "48201340400", "name": "Magnolia Park", "pct_white_1970": 15, "pct_black_1970": 5, "pct_hispanic_1970": 80, "pct_asian_1970": 0, "pct_white_1990": 5, "pct_black_1990": 4, "pct_hispanic_1990": 90, "pct_asian_1990": 1, "pct_white_2020": 2, "pct_black_2020": 3, "pct_hispanic_2020": 93, "pct_asian_2020": 2, "dominant_group_2020": "hispanic", "diversity_index_2020": 0.133, "population_2020": 6700, "is_sample_data": true}, "geometry": {"type": "Polygon", "coordinates": [[[-95.315, 29.723], [-95.295, 29.723], [-95.295, 29.743], [-95.315, 29.743], [-95.315, 29.723]]]}}, {"type": "Feature", "properties": {"tract_id": "48201340500", "name": "Eastwood", "pct_white_1970": 50, "pct_black_1970": 5, "pct_hispanic_1970": 45, "pct_asian_1970": 0, "pct_white_1990": 30, "pct_black_1990": 7, "pct_hispanic_1990": 58, "pct_asian_1990": 5, "pct_white_2020": 25, "pct_black_2020": 8, "pct_hispanic_2020": 60, "pct_asian_2020": 7, "dominant_group_2020": "hispanic", "diversity_index_2020": 0.568, "population_2020": 7300, "is_sample_data": true}, "geometry": {"type": "Polygon", "coordinates": [[[-95.35, 29.725], [-95.33, 29.725], [-95.33, 29.745], [-95.35, 29.745], [-95.35, 29.725]]]}}, {"type": "Feature", "properties": {"tract_id": "48201340600", "name": "Pasadena", "pct_white_1970": 85, "pct_black_1970": 2, "pct_hispanic_1970": 13, "pct_asian_1970": 0, "pct_white_1990": 55, "pct_black_1990": 3, "pct_hispanic_1990": 40, "pct_asian_1990": 2, "pct_white_2020": 15, "pct_black_2020": 3, "pct_hispanic_2020": 78, "pct_asian_2020": 4, "dominant_group_2020": "hispanic", "diversity_index_2020": 0.369, "population_2020": 15600, "is_sample_data": true}, "geometry": {"type": "Polygon", "coordinates": [[[-95.222, 29.681], [-95.196, 29.681], [-95.196, 29.701], [-95.222, 29.701], [-95.222, 29.681]]]}}, {"type": "Feature", "properties": {"tract_id": "48201350100", "name": "Garden Oaks", "pct_white_1970": 90, "pct_black_1970": 5, "pct_hispanic_1970": 5, "pct_asian_1970": 0, "pct_white_1990": 75, "pct_black_1990": 8, "pct_hispanic_1990": 13, "pct_asian_1990": 4, "pct_white_2020": 60, "pct_black_2020": 10, "pct_hispanic_2020": 22, "pct_asian_2020": 8, "dominant_group_2020": "white", "diversity_index_2020": 0.572, "population_2020": 6800, "is_sample_data": true}, "geometry": {"type": "Polygon", "coordinates": [[[-95.42, 29.814], [-95.4, 29.814], [-95.4, 29.834], [-95.42, 29.834], [-95.42, 29.814]]]}}, {"type": "Feature", "properties": {"tract_id": "48201350200", "name": "Lindale Park", "pct_white_1970": 55, "pct_black_1970": 15, "pct_hispanic_1970": 30, "pct_asian_1970": 0, "pct_white_1990": 25, "pct_black_1990": 15, "pct_hispanic_1990": 57, "pct_asian_1990": 3, "pct_white_2020": 15, "pct_black_2020": 12, "pct_hispanic_2020": 68, "pct_asian_2020": 5, "dominant_group_2020": "hispanic", "diversity_index_2020": 0.496, "population_2020": 5600, "is_sample_data": true}, "geometry": {"type": "Polygon", "coordinates": [[[-95.375, 29.792], [-95.355, 29.792], [-95.355, 29.812], [-95.375, 29.812], [-95.375, 29.792]]]}}, {"type": "Feature", "properties": {"tract_id": "48201350300", "name": "Independence Heights", "pct_white_1970": 5, "pct_black_1970": 90, "pct_hispanic_1970": 5, "pct_asian_1970": 0, "pct_white_1990": 6, "pct_black_1990": 65, "pct_hispanic_1990": 26, "pct_asian_1990": 3, "pct_white_2020": 10, "pct_black_2020": 40, "pct_hispanic_2020": 45, "pct_asian_2020": 5, "dominant_group_2020": "hispanic", "diversity_index_2020": 0.645, "population_2020": 7800, "is_sample_data": true}, "geometry": {"type": "Polygon", "coordinates": [[[-95.395, 29.815], [-95.375, 29.815], [-95.375, 29.835], [-95.395, 29.835], [-95.395, 29.815]]]}}, {"type": "Feature", "properties": {"tract_id": "48201350400", "name": "Energy Corridor", "pct_white_1970": 92, "pct_black_1970": 3, "pct_hispanic_1970": 4, "pct_asian_1970": 1, "pct_white_1990": 72, "pct_black_1990": 8, "pct_hispanic_1990": 12, "pct_asian_1990": 8, "pct_white_2020": 45, "pct_black_2020": 12, "pct_hispanic_2020": 25, "pct_asian_2020": 18, "dominant_group_2020": "white", "diversity_index_2020": 0.7, "population_2020": 11500, "is_sample_data": true}, "geometry": {"type": "Polygon", "coordinates": [[[-95.572, 29.762], [-95.548, 29.762], [-95.548, 29.782], [-95.572, 29.782], [-95.572, 29.762]]]}}, {"type": "Feature", "properties": {"tract_id": "48201350500", "name": "Katy area", "pct_white_1970": 88, "pct_black_1970": 5, "pct_hispanic_1970": 6, "pct_asian_1970": 1, "pct_white_1990": 75, "pct_black_1990": 7, "pct_hispanic_1990": 12, "pct_asian_1990": 6, "pct_white_2020": 55, "pct_black_2020": 10, "pct_hispanic_2020": 22, "pct_asian_2020": 13, "dominant_group_2020": "white", "diversity_index_2020": 0.619, "population_2020": 18500, "is_sample_data": true}, "geometry": {"type": "Polygon", "coordinates": [[[-95.662, 29.78], [-95.638, 29.78], [-95.638, 29.8], [-95.662, 29.8], [-95.662, 29.78]]]}}, {"type": "Feature", "properties": {"tract_id": "48201350600", "name": "Sugar Land edge", "pct_white_1970": 80, "pct_black_1970": 10, "pct_hispanic_1970": 8, "pct_asian_1970": 2, "pct_white_1990": 60, "pct_black_1990": 12, "pct_hispanic_1990": 14, "pct_asian_1990": 14, "pct_white_2020": 35, "pct_black_2020": 15, "pct_hispanic_2020": 20, "pct_asian_2020": 30, "dominant_group_2020": "white", "diversity_index_2020": 0.738, "population_2020": 16200, "is_sample_data": true}, "geometry": {"type": "Polygon", "coordinates": [[[-95.512, 29.61], [-95.488, 29.61], [-95.488, 29.63], [-95.512, 29.63], [-95.512, 29.61]]]}}, {"type": "Feature", "properties": {"tract_id": "48201350700", "name": "Pearland edge", "pct_white_1970": 82, "pct_black_1970": 10, "pct_hispanic_1970": 6, "pct_asian_1970": 2, "pct_white_1990": 60, "pct_black_1990": 18, "pct_hispanic_1990": 14, "pct_asian_1990": 8, "pct_white_2020": 30, "pct_black_2020": 25, "pct_hispanic_2020": 25, "pct_asian_2020": 20, "dominant_group_2020": "white", "diversity_index_2020": 0.75, "population_2020": 14300, "is_sample_data": true}, "geometry": {"type": "Polygon", "coordinates": [[[-95.342, 29.57], [-95.318, 29.57], [-95.318, 29.59], [-95.342, 29.59], [-95.342, 29.57]]]}}, {"type": "Feature", "properties": {"tract_id": "48201350800", "name": "Spring area", "pct_white_1970": 85, "pct_black_1970": 8, "pct_hispanic_1970": 5, "pct_asian_1970": 2, "pct_white_1990": 65, "pct_black_1990": 15, "pct_hispanic_1990": 14, "pct_asian_1990": 6, "pct_white_2020": 40, "pct_black_2020": 20, "pct_hispanic_2020": 28, "pct_asian_2020": 12, "dominant_group_2020": "white", "diversity_index_2020": 0.714, "population_2020": 19800, "is_sample_data": true}, "geometry": {"type": "Polygon", "coordinates": [[[-95.392, 29.89], [-95.368, 29.89], [-95.368, 29.91], [-95.392, 29.91], [-95.392, 29.89]]]}}, {"type": "Feature", "properties": {"tract_id": "48201350900", "name": "Cypress area", "pct_white_1970": 90, "pct_black_1970": 4, "pct_hispanic_1970": 5, "pct_asian_1970": 1, "pct_white_1990": 78, "pct_black_1990": 8, "pct_hispanic_1990": 9, "pct_asian_1990": 5, "pct_white_2020": 50, "pct_black_2020": 15, "pct_hispanic_2020": 20, "pct_asian_2020": 15, "dominant_group_2020": "white", "diversity_index_2020": 0.67, "population_2020": 21000, "is_sample_data": true}, "geometry": {"type": "Polygon", "coordinates": [[[-95.532, 29.87], [-95.508, 29.87], [-95.508, 29.89], [-95.532, 29.89], [-95.532, 29.87]]]}}, {"type": "Feature", "properties": {"tract_id": "48201351000", "name": "Clear Lake", "pct_white_1970": 90, "pct_black_1970": 3, "pct_hispanic_1970": 4, "pct_asian_1970": 3, "pct_white_1990": 75, "pct_black_1990": 6, "pct_hispanic_1990": 10, "pct_asian_1990": 9, "pct_white_2020": 50, "pct_black_2020": 10, "pct_hispanic_2020": 20, "pct_asian_2020": 20, "dominant_group_2020": "white", "diversity_index_2020": 0.67, "population_2020": 17500, "is_sample_data": true}, "geometry": {"type": "Polygon", "coordinates": [[[-95.143, 29.56], [-95.117, 29.56], [-95.117, 29.58], [-95.143, 29.58], [-95.143, 29.56]]]}}, {"type": "Feature", "properties": {"tract_id": "48201351100", "name": "Kingwood area", "pct_white_1970": 93, "pct_black_1970": 3, "pct_hispanic_1970": 3, "pct_asian_1970": 1, "pct_white_1990": 85, "pct_black_1990": 5, "pct_hispanic_1990": 6, "pct_asian_1990": 4, "pct_white_2020": 65, "pct_black_2020": 10, "pct_hispanic_2020": 15, "pct_asian_2020": 10, "dominant_group_2020": "white", "diversity_index_2020": 0.527, "population_2020": 20100, "is_sample_data": true}, "geometry": {"type": "Polygon", "coordinates": [[[-95.212, 29.94], [-95.188, 29.94], [-95.188, 29.96], [-95.212, 29.96], [-95.212, 29.94]]]}}]}