{"type": "FeatureCollection", "features": [{"type": "Feature", "properties": {"name": "I-45 (Gulf Freeway)", "designation": "I-45 South", "construction_year": 1948, "completion_year": 1952, "decade": "1950s", "neighborhoods_displaced": ["South Houston", "South Park", "Gulfgate"], "description": "The Gulf Freeway was the first freeway built in Texas and one of the earliest in the American South. Originally conceived as a high-speed corridor linking downtown Houston to the petrochemical refineries along Galveston Bay, its construction displaced families in several working-class neighborhoods south of downtown."}, "geometry": {"type": "MultiLineString", "coordinates": [[[-95.374621, 29.755971], [-95.374511, 29.75288], [-95.373647, 29.751169], [-95.372615, 29.750305], [-95.365916, 29.746283], [-95.373225, 29.750546], [-95.374222, 29.751681], [-95.374661, 29.752811], [-95.374759, 29.755594], [-95.374381, 29.75852], [-95.372968, 29.76152], [-95.372031, 29.762349], [-95.37075, 29.762961], [-95.370333, 29.763473], [-95.373039, 29.762065], [-95.3743, 29.760756], [-95.374772, 29.758015], [-95.374759, 29.755594]], [[-95.335411, 29.72714], [-95.341213, 29.731055], [-95.341245, 29.730836], [-95.345178, 29.734222], [-95.350402, 29.737624], [-95.346491, 29.734893], [-95.348282, 29.736281], [-95.350406, 29.737378], [-95.358811, 29.742753], [-95.362877, 29.744352], [-95.366326, 29.74637], [-95.360282, 29.743825], [-95.358112, 29.742545], [-95.358197, 29.742891], [-95.356858, 29.742054], [-95.358112, 29.742545]], [[-95.326581, 29.721608], [-95.33918, 29.72956], [-95.326492, 29.721312], [-95.321626, 29.718962], [-95.322262, 29.71904], [-95.326492, 29.721312]], [[-95.356858, 29.742054], [-95.354957, 29.740392], [-95.353065, 29.739183], [-95.356652, 29.741626]], [[-95.251771, 29.652799], [-95.254146, 29.656384], [-95.253534, 29.656031], [-95.251406, 29.652882], [-95.251363, 29.652164], [-95.250398, 29.651287], [-95.24431, 29.642215], [-95.245639, 29.643488], [-95.248609, 29.647927], [-95.251363, 29.652164], [-95.251406, 29.652882], [-95.26086, 29.666855], [-95.261101, 29.666926], [-95.260785, 29.667091], [-95.260113, 29.665994], [-95.25987, 29.665097], [-95.254688, 29.657195], [-95.254146, 29.656384], [-95.254021, 29.656778], [-95.256114, 29.660052], [-95.260113, 29.665994], [-95.260925, 29.666659], [-95.262156, 29.668833], [-95.260981, 29.667391], [-95.262308, 29.668744], [-95.262457, 29.669585], [-95.264153, 29.672017], [-95.272901, 29.68093], [-95.278444, 29.686109], [-95.273679, 29.681542], [-95.27244, 29.680036], [-95.26935, 29.677369], [-95.27244, 29.680036]], [[-95.2882, 29.696232], [-95.278444, 29.686109], [-95.28452, 29.692489], [-95.286382, 29.695094], [-95.288435, 29.696472], [-95.291666, 29.699155], [-95.288706, 29.697433], [-95.286612, 29.695616], [-95.284105, 29.692205], [-95.273152, 29.680797]], [[-95.289276, 29.697268], [-95.289642, 29.69759], [-95.289258, 29.697728], [-95.290119, 29.698605], [-95.295118, 29.701891], [-95.295653, 29.701989], [-95.303772, 29.707523], [-95.301751, 29.705904], [-95.295998, 29.702209], [-95.295118, 29.701891], [-95.291941, 29.69954], [-95.295947, 29.702292], [-95.294899, 29.701511]], [[-95.292033, 29.699439], [-95.291666, 29.699155], [-95.291941, 29.69954]], [[-95.262754, 29.669427], [-95.264805, 29.672271], [-95.267737, 29.675258], [-95.264634, 29.672346], [-95.262597, 29.669504], [-95.262308, 29.668744], [-95.262597, 29.669504]], [[-95.268304, 29.675834], [-95.267737, 29.675258], [-95.26935, 29.677369], [-95.269259, 29.676841], [-95.268304, 29.675834]], [[-95.307989, 29.710109], [-95.306684, 29.709235], [-95.307488, 29.710039], [-95.311119, 29.712509], [-95.307989, 29.710109]], [[-95.320127, 29.717918], [-95.316334, 29.715614], [-95.319003, 29.717566], [-95.321117, 29.718435], [-95.321626, 29.718962], [-95.320164, 29.718195]], [[-95.313627, 29.713885], [-95.311353, 29.712389], [-95.311684, 29.712883], [-95.315579, 29.715124], [-95.313379, 29.713974]], [[-95.31625, 29.715559], [-95.315579, 29.715124], [-95.316257, 29.715821]], [[-95.350402, 29.737624], [-95.352996, 29.739265], [-95.350406, 29.737378]], [[-95.341254, 29.730977], [-95.33918, 29.72956], [-95.341245, 29.730836], [-95.342782, 29.732322], [-95.346463, 29.734996], [-95.343062, 29.732273], [-95.342782, 29.732322]], [[-95.295947, 29.702292], [-95.306546, 29.709397], [-95.303911, 29.707359]], [[-95.230095, 29.628708], [-95.244208, 29.641682], [-95.243476, 29.641329], [-95.243121, 29.640552], [-95.229247, 29.628116]], [[-95.230874, 29.629786], [-95.243476, 29.641329]], [[-95.244734, 29.642289], [-95.244208, 29.641682], [-95.24431, 29.642215]]]}}, {"type": "Feature", "properties": {"name": "I-45 (North Freeway)", "designation": "I-45 North", "construction_year": 1957, "completion_year": 1963, "decade": "1960s", "neighborhoods_displaced": ["Fifth Ward", "Kashmere Gardens", "Near Northside"], "description": "The North Freeway carved a wide path through the historically Black Fifth Ward and Kashmere Gardens neighborhoods, demolishing hundreds of homes and severing the tight-knit community fabric. Near Northside, a predominantly Hispanic neighborhood, was similarly bisected, cutting residents off from schools, churches, and commercial districts."}, "geometry": {"type": "MultiLineString", "coordinates": [[[-95.371579, 29.797861], [-95.37159, 29.797356], [-95.371884, 29.798388], [-95.371579, 29.797861], [-95.371847, 29.797054], [-95.371505, 29.788787], [-95.369134, 29.785016], [-95.369642, 29.785349], [-95.368958, 29.784224], [-95.368575, 29.782604], [-95.36858, 29.780957], [-95.36935, 29.778307], [-95.369344, 29.776936], [-95.368758, 29.775584], [-95.366225, 29.771444], [-95.365773, 29.769759], [-95.366097, 29.76822], [-95.36752, 29.765276], [-95.368734, 29.764213], [-95.368532, 29.764012], [-95.370262, 29.763181], [-95.36935, 29.763913], [-95.368244, 29.764191], [-95.36725, 29.765153], [-95.365058, 29.770229], [-95.365356, 29.771559], [-95.367466, 29.775028], [-95.367961, 29.776233], [-95.368348, 29.782931], [-95.369134, 29.785016]], [[-95.378662, 29.820632], [-95.379855, 29.823191], [-95.380514, 29.825923], [-95.380123, 29.825479], [-95.379335, 29.822757], [-95.375132, 29.812787], [-95.376522, 29.816818], [-95.378486, 29.820927]], [[-95.372709, 29.804301], [-95.372569, 29.803565], [-95.372454, 29.80426], [-95.373268, 29.808498], [-95.374921, 29.81281], [-95.373576, 29.808689], [-95.372709, 29.804301]], [[-95.392758, 29.845293], [-95.402452, 29.85912], [-95.392645, 29.84528], [-95.386682, 29.836018], [-95.382129, 29.830244], [-95.381069, 29.828257], [-95.381081, 29.828934], [-95.38224, 29.830724], [-95.387028, 29.836921], [-95.392496, 29.845285], [-95.40273, 29.85969], [-95.402237, 29.859215], [-95.410542, 29.875048], [-95.411688, 29.878829], [-95.411867, 29.883478]], [[-95.380182, 29.825789], [-95.380801, 29.828251], [-95.380903, 29.827665], [-95.380514, 29.825923]], [[-95.371697, 29.800181], [-95.371804, 29.800879], [-95.371884, 29.798388], [-95.371596, 29.798539], [-95.371697, 29.800181]], [[-95.37075, 29.762961], [-95.370262, 29.763181], [-95.370212, 29.763527]], [[-95.412113, 29.881554], [-95.412086, 29.877981], [-95.411807, 29.876532], [-95.410851, 29.874584], [-95.40808, 29.870175], [-95.411322, 29.875779]], [[-95.402515, 29.859767], [-95.407527, 29.869598], [-95.407129, 29.868325], [-95.40273, 29.85969]], [[-95.371804, 29.800879], [-95.372277, 29.803549], [-95.372017, 29.800635]], [[-95.369866, 29.78568], [-95.371295, 29.787763], [-95.371825, 29.789122], [-95.371847, 29.797054], [-95.37159, 29.797356]]]}}, {"type": "Feature", "properties": {"name": "I-10 (Katy Freeway)", "designation": "I-10 West", "construction_year": 1960, "completion_year": 1968, "decade": "1960s", "neighborhoods_displaced": ["Fourth Ward"], "description": "The Katy Freeway's construction devastated the historic Fourth Ward (Freedmenstown), one of Houston's oldest African American neighborhoods established by formerly enslaved people after the Civil War. The freeway's wide right-of-way demolished blocks of Victorian-era shotgun houses and displaced a community with deep cultural roots stretching back to Reconstruction."}, "geometry": {"type": "MultiLineString", "coordinates": [[[-95.532281, 29.784762], [-95.543319, 29.784727], [-95.54403, 29.784251], [-95.544744, 29.784246], [-95.545566, 29.784708], [-95.544744, 29.784246], [-95.543321, 29.784546], [-95.53975, 29.784235], [-95.532317, 29.78418], [-95.533695, 29.784399], [-95.54332, 29.78445], [-95.544271, 29.784722], [-95.550965, 29.78447], [-95.562268, 29.784621], [-95.552158, 29.78437], [-95.532279, 29.784506], [-95.514458, 29.784122], [-95.520806, 29.784316], [-95.521727, 29.784595], [-95.531333, 29.784762], [-95.532279, 29.784506], [-95.531333, 29.784762], [-95.529409, 29.784521], [-95.523652, 29.78443], [-95.513442, 29.784612], [-95.512255, 29.784192], [-95.499341, 29.784129], [-95.498205, 29.78436], [-95.498745, 29.784098], [-95.500098, 29.784457], [-95.502152, 29.784527], [-95.513439, 29.78443], [-95.49819, 29.784262], [-95.497632, 29.784516], [-95.498164, 29.784072], [-95.497717, 29.784334], [-95.486856, 29.784134], [-95.494847, 29.784113], [-95.49819, 29.784262], [-95.499406, 29.784604], [-95.506376, 29.784767], [-95.513442, 29.784612], [-95.51383, 29.784134], [-95.514458, 29.784122], [-95.513429, 29.784333], [-95.532317, 29.78418]], [[-95.410492, 29.777407], [-95.422199, 29.777263], [-95.410253, 29.777653], [-95.410218, 29.777408], [-95.410253, 29.777653], [-95.402751, 29.77657], [-95.40057, 29.776409], [-95.399678, 29.776603], [-95.40057, 29.776409], [-95.406556, 29.777406], [-95.41001, 29.77765]], [[-95.399745, 29.776383], [-95.397074, 29.776451], [-95.399678, 29.776603]], [[-95.42254, 29.77748], [-95.427754, 29.777275], [-95.436786, 29.778206], [-95.437306, 29.778556], [-95.442389, 29.779098], [-95.450866, 29.779312], [-95.452885, 29.780073], [-95.457953, 29.783278], [-95.461431, 29.784238], [-95.468598, 29.784482], [-95.468784, 29.784256], [-95.476162, 29.783778], [-95.4755, 29.784019], [-95.468598, 29.784482], [-95.467444, 29.784308], [-95.46681, 29.783964], [-95.461109, 29.783868], [-95.458078, 29.783104], [-95.45295, 29.77976], [-95.450386, 29.778872], [-95.442861, 29.778793], [-95.436786, 29.778206], [-95.435505, 29.778376], [-95.427352, 29.777487], [-95.422199, 29.777263]], [[-95.474775, 29.783542], [-95.46744, 29.78396]], [[-95.481837, 29.783746], [-95.484284, 29.783919], [-95.476162, 29.783778], [-95.475381, 29.783512]], [[-95.497542, 29.784041], [-95.484274, 29.783724], [-95.484787, 29.783951], [-95.486859, 29.784041], [-95.484276, 29.784014], [-95.484903, 29.784234], [-95.497632, 29.784516]], [[-95.476173, 29.783992], [-95.484271, 29.784198], [-95.481069, 29.783516], [-95.476176, 29.783487]], [[-95.449422, 29.779211], [-95.450971, 29.779431], [-95.452263, 29.779898], [-95.456992, 29.782915], [-95.459454, 29.784014], [-95.462027, 29.784465], [-95.467677, 29.7845]], [[-95.389483, 29.776596], [-95.385051, 29.776746], [-95.38592, 29.776962], [-95.39708, 29.776671], [-95.389483, 29.776596]], [[-95.550758, 29.784208], [-95.545507, 29.784231], [-95.547752, 29.784678], [-95.550208, 29.784641]], [[-95.385019, 29.77675], [-95.381932, 29.777348], [-95.377629, 29.778799], [-95.37798, 29.779009], [-95.382295, 29.777563], [-95.385086, 29.77706]], [[-95.451847, 29.77925], [-95.451433, 29.779108]]]}}, {"type": "Feature", "properties": {"name": "I-10 (East Freeway)", "designation": "I-10 East", "construction_year": 1953, "completion_year": 1958, "decade": "1950s", "neighborhoods_displaced": ["Second Ward", "Magnolia Park"], "description": "The East Freeway sliced through the Second Ward, the cultural heart of Houston's Mexican American community, and impacted Magnolia Park near the Ship Channel. The route destroyed homes and commercial corridors along Navigation Boulevard, permanently altering the character and connectivity of these predominantly Latino neighborhoods."}, "geometry": {"type": "MultiLineString", "coordinates": [[[-95.263704, 29.77549], [-95.252113, 29.77364], [-95.246997, 29.773621], [-95.252851, 29.773922], [-95.263676, 29.775657], [-95.264377, 29.775596], [-95.263676, 29.775657]], [[-95.268839, 29.776299], [-95.264377, 29.775596], [-95.271809, 29.776993], [-95.272467, 29.776866], [-95.271809, 29.776993], [-95.271504, 29.776718], [-95.268839, 29.776299]], [[-95.372276, 29.77773], [-95.372713, 29.777918], [-95.370446, 29.776858], [-95.369522, 29.776124], [-95.365235, 29.769361], [-95.36342, 29.768137], [-95.361839, 29.767507], [-95.361379, 29.767717], [-95.361081, 29.767569], [-95.361839, 29.767507], [-95.361948, 29.768081], [-95.364907, 29.770397], [-95.368483, 29.776163], [-95.369552, 29.777184], [-95.37446, 29.778952], [-95.377569, 29.779106], [-95.37729, 29.778845], [-95.374833, 29.77871], [-95.37306, 29.778068]], [[-95.338121, 29.7689], [-95.337427, 29.768949], [-95.337725, 29.769104], [-95.341712, 29.768431], [-95.347413, 29.769958], [-95.350585, 29.770001], [-95.352475, 29.769675], [-95.355677, 29.768242], [-95.358763, 29.767344], [-95.359863, 29.767244], [-95.361081, 29.767569], [-95.360523, 29.767051], [-95.358875, 29.767103], [-95.355677, 29.768242], [-95.35311, 29.769628], [-95.350955, 29.770165], [-95.341934, 29.769804], [-95.339383, 29.769138], [-95.336045, 29.769077], [-95.332848, 29.770474], [-95.324503, 29.773473], [-95.322276, 29.774068], [-95.320351, 29.774207], [-95.321186, 29.774379], [-95.323539, 29.773975], [-95.334998, 29.769402], [-95.337365, 29.769123]], [[-95.246997, 29.773621], [-95.237168, 29.773671], [-95.247013, 29.773791]], [[-95.231565, 29.772913], [-95.233273, 29.7733], [-95.237168, 29.773671], [-95.236701, 29.773885], [-95.235243, 29.77372], [-95.231449, 29.77268], [-95.227587, 29.77203], [-95.228186, 29.771951], [-95.231449, 29.77268]], [[-95.215332, 29.77057], [-95.220472, 29.770505], [-95.227587, 29.77203], [-95.22111, 29.770397], [-95.217073, 29.770262]], [[-95.287682, 29.778078], [-95.287901, 29.778066], [-95.279324, 29.777892], [-95.272467, 29.776866], [-95.276115, 29.777697], [-95.279549, 29.778153], [-95.291053, 29.777921], [-95.28804, 29.777861]], [[-95.291052, 29.777748], [-95.292702, 29.777551], [-95.298842, 29.775058], [-95.301421, 29.774251], [-95.299178, 29.774764], [-95.291919, 29.777763], [-95.291053, 29.777921]], [[-95.307164, 29.77417], [-95.301421, 29.774251], [-95.307168, 29.774356], [-95.307697, 29.774171], [-95.307168, 29.774356]], [[-95.311041, 29.774173], [-95.307697, 29.774171], [-95.31011, 29.774395], [-95.320295, 29.77441], [-95.311041, 29.774173]]]}}, {"type": "Feature", "properties": {"name": "I-69/US-59 (Southwest Freeway)", "designation": "I-69/US-59 South", "construction_year": 1959, "completion_year": 1962, "decade": "1960s", "neighborhoods_displaced": ["Third Ward", "Midtown"], "description": "The Southwest Freeway tore through Midtown and the northern edge of the Third Ward, one of Houston's most historically significant African American neighborhoods and home to Texas Southern University. The freeway created a physical barrier that accelerated the decline of Black-owned businesses and severed the connection between the Third Ward and downtown Houston."}, "geometry": {"type": "MultiLineString", "coordinates": [[[-95.375007, 29.732832], [-95.371904, 29.733287], [-95.370115, 29.734284], [-95.364424, 29.741641], [-95.362556, 29.744439], [-95.362093, 29.745622], [-95.359074, 29.749089], [-95.359577, 29.748164], [-95.362556, 29.744439], [-95.363346, 29.744072], [-95.369692, 29.735995], [-95.371504, 29.734025], [-95.372253, 29.733586], [-95.373448, 29.733165], [-95.377377, 29.732677], [-95.397108, 29.731209], [-95.394501, 29.731696], [-95.388661, 29.732184], [-95.384389, 29.732245], [-95.374969, 29.73298]], [[-95.456322, 29.729974], [-95.459292, 29.729024], [-95.458513, 29.729633], [-95.456685, 29.730031], [-95.451119, 29.730286], [-95.451261, 29.729998], [-95.455711, 29.729903], [-95.45797, 29.72959], [-95.461197, 29.728326], [-95.459294, 29.729215], [-95.465689, 29.726931], [-95.467878, 29.726417], [-95.468484, 29.726032], [-95.468184, 29.726365], [-95.467551, 29.726175], [-95.465612, 29.726701], [-95.461567, 29.728325], [-95.46131, 29.728612], [-95.461567, 29.728325]], [[-95.474789, 29.726007], [-95.468484, 29.726032], [-95.468906, 29.726275], [-95.470844, 29.726166], [-95.471084, 29.725866], [-95.474536, 29.725749], [-95.47599, 29.726006], [-95.474536, 29.725749]], [[-95.487145, 29.725604], [-95.488726, 29.725235], [-95.49017, 29.724471], [-95.490425, 29.724639], [-95.489191, 29.725362], [-95.487914, 29.725772], [-95.484654, 29.725949], [-95.487145, 29.725604]], [[-95.411158, 29.730711], [-95.407043, 29.730735], [-95.410304, 29.730999], [-95.410727, 29.730716], [-95.413151, 29.730664], [-95.412543, 29.730964], [-95.410304, 29.730999]], [[-95.510254, 29.707126], [-95.51107, 29.706393], [-95.511336, 29.705804], [-95.512894, 29.704789], [-95.511336, 29.705804], [-95.51107, 29.706393], [-95.499377, 29.716383], [-95.498972, 29.717121], [-95.492495, 29.722469], [-95.493862, 29.721631], [-95.498972, 29.717121], [-95.499377, 29.716383], [-95.500252, 29.715988], [-95.510254, 29.707126]], [[-95.446499, 29.729755], [-95.445952, 29.729632], [-95.445856, 29.729269], [-95.441926, 29.728757], [-95.442819, 29.729107], [-95.445952, 29.729632], [-95.448471, 29.729808], [-95.448205, 29.730073], [-95.446499, 29.729755]], [[-95.402352, 29.730923], [-95.397108, 29.731209], [-95.397774, 29.731485], [-95.407289, 29.731049], [-95.402352, 29.730923]], [[-95.418206, 29.730758], [-95.413151, 29.730664], [-95.413717, 29.730899], [-95.417362, 29.730766], [-95.418019, 29.73045], [-95.423998, 29.730643], [-95.42754, 29.730162], [-95.428083, 29.729754], [-95.432988, 29.729088], [-95.440329, 29.728743], [-95.441899, 29.729053], [-95.440965, 29.728741], [-95.440351, 29.729047], [-95.43288, 29.729382], [-95.427742, 29.730128], [-95.427472, 29.729864], [-95.427742, 29.730128], [-95.419132, 29.730445], [-95.418206, 29.730758], [-95.418019, 29.73045], [-95.418247, 29.730449]], [[-95.448489, 29.730114], [-95.451119, 29.730286], [-95.450882, 29.729994], [-95.448471, 29.729808]], [[-95.459294, 29.729215], [-95.4593, 29.729388]], [[-95.481326, 29.725986], [-95.483757, 29.725958], [-95.484632, 29.725668], [-95.483757, 29.725958], [-95.480269, 29.725702], [-95.47601, 29.725738], [-95.476838, 29.726005], [-95.481326, 29.725986]], [[-95.492495, 29.722469], [-95.49017, 29.724471], [-95.491138, 29.724139], [-95.492753, 29.722633]], [[-95.551526, 29.666821], [-95.541268, 29.676362], [-95.540209, 29.677715], [-95.537009, 29.680661], [-95.540651, 29.676933], [-95.54273, 29.675366], [-95.550942, 29.667757]], [[-95.536761, 29.680555], [-95.536323, 29.680963], [-95.537009, 29.680661]], [[-95.52559, 29.693532], [-95.518567, 29.699753], [-95.525548, 29.693219], [-95.526229, 29.692987], [-95.526511, 29.692368], [-95.527015, 29.692321], [-95.527649, 29.691753], [-95.527432, 29.69155], [-95.530201, 29.68839], [-95.530753, 29.688059], [-95.535227, 29.682416], [-95.536481, 29.681148], [-95.535756, 29.681499], [-95.534496, 29.682874], [-95.530201, 29.68839], [-95.530049, 29.689051], [-95.528669, 29.69071], [-95.527649, 29.691753], [-95.526511, 29.692368], [-95.526229, 29.692987], [-95.525548, 29.693219]], [[-95.517496, 29.700722], [-95.513722, 29.704058], [-95.512596, 29.70469], [-95.513722, 29.704058], [-95.517368, 29.700464], [-95.518293, 29.700016], [-95.517368, 29.700464]], [[-95.518293, 29.700016], [-95.518567, 29.699753], [-95.517989, 29.699915]]]}}, {"type": "Feature", "properties": {"name": "I-69/US-59 (Eastex Freeway)", "designation": "I-69/US-59 North", "construction_year": 1955, "completion_year": 1960, "decade": "1960s", "neighborhoods_displaced": ["Fifth Ward", "Denver Harbor"], "description": "The Eastex Freeway further fragmented the Fifth Ward, already damaged by I-45 North, and cut through Denver Harbor, a neighborhood with significant Latino and working-class white populations. Combined with the North Freeway, the two expressways left the Fifth Ward hemmed in by concrete on multiple sides, contributing to decades of disinvestment."}, "geometry": {"type": "MultiLineString", "coordinates": [[[-95.32432, 29.880129], [-95.329958, 29.870805], [-95.329336, 29.871149], [-95.325438, 29.877753], [-95.324664, 29.879166], [-95.324538, 29.880122], [-95.324664, 29.879166], [-95.329793, 29.870734], [-95.332672, 29.864897], [-95.333233, 29.864275], [-95.333717, 29.858867], [-95.332742, 29.865272], [-95.330292, 29.869866], [-95.329631, 29.870651], [-95.330459, 29.869935], [-95.332072, 29.867192], [-95.333031, 29.864987], [-95.333517, 29.858871], [-95.333461, 29.841231], [-95.333778, 29.848249], [-95.333576, 29.849217], [-95.333626, 29.856019]], [[-95.335583, 29.822935], [-95.335073, 29.822292], [-95.334983, 29.817109], [-95.335422, 29.816546], [-95.335398, 29.810026], [-95.336262, 29.808237], [-95.339291, 29.804313], [-95.340029, 29.802091], [-95.339639, 29.802331], [-95.338632, 29.804938], [-95.335756, 29.808664], [-95.335094, 29.81049], [-95.334983, 29.817109], [-95.335514, 29.820442], [-95.335593, 29.827187], [-95.335282, 29.82972], [-95.335085, 29.8287], [-95.33537, 29.826826], [-95.335325, 29.822844], [-95.335096, 29.829725], [-95.333388, 29.836799], [-95.333233, 29.838396], [-95.333231, 29.840295], [-95.333602, 29.839405], [-95.333832, 29.8367], [-95.335282, 29.82972], [-95.334667, 29.83145], [-95.333448, 29.837607], [-95.333258, 29.841242], [-95.333628, 29.840281], [-95.33328, 29.842707], [-95.333379, 29.849213], [-95.333778, 29.848249]], [[-95.351022, 29.762698], [-95.349625, 29.764572], [-95.347624, 29.766296], [-95.342977, 29.768265], [-95.344017, 29.768072], [-95.347005, 29.766879], [-95.348682, 29.765553], [-95.34952, 29.764181], [-95.350345, 29.760592], [-95.350989, 29.759246], [-95.359074, 29.749089], [-95.358588, 29.749299], [-95.357562, 29.750508], [-95.350826, 29.759097], [-95.350156, 29.760579], [-95.34941, 29.763843], [-95.348476, 29.765307], [-95.346943, 29.766545], [-95.341738, 29.768675], [-95.340911, 29.769492], [-95.340346, 29.770667], [-95.341695, 29.769131], [-95.34308, 29.768408]], [[-95.339614, 29.783412], [-95.339758, 29.779009], [-95.340105, 29.780214], [-95.340038, 29.783291], [-95.33961, 29.784419], [-95.340033, 29.784026], [-95.340038, 29.783291]], [[-95.340096, 29.801684], [-95.339803, 29.792554], [-95.339852, 29.784751], [-95.339654, 29.785271], [-95.339589, 29.789494], [-95.33994, 29.790449], [-95.339965, 29.793419], [-95.339566, 29.794029], [-95.339795, 29.796262], [-95.339745, 29.794365], [-95.339965, 29.793419], [-95.3397, 29.791073], [-95.339852, 29.784751], [-95.34007, 29.78587], [-95.339959, 29.789715], [-95.339578, 29.790009], [-95.339512, 29.791971], [-95.339745, 29.794365], [-95.339566, 29.798026], [-95.339893, 29.801543], [-95.339632, 29.803916], [-95.339935, 29.807661], [-95.338091, 29.812491], [-95.336387, 29.814531]], [[-95.339835, 29.777244], [-95.339865, 29.776786], [-95.340259, 29.777035], [-95.340182, 29.77898], [-95.339835, 29.777244], [-95.339941, 29.77526], [-95.34033, 29.77468], [-95.340671, 29.77076], [-95.340297, 29.770829], [-95.340079, 29.773035], [-95.340002, 29.774309], [-95.34033, 29.77468], [-95.339941, 29.77526], [-95.340261, 29.776587]], [[-95.339709, 29.801035], [-95.339676, 29.802018]], [[-95.333311, 29.858652], [-95.333307, 29.858891], [-95.333757, 29.857465], [-95.333972, 29.853527], [-95.333843, 29.849214]]]}}, {"type": "Feature", "properties": {"name": "I-610 (Inner Loop)", "designation": "I-610", "construction_year": 1955, "completion_year": 1970, "decade": "1960s", "neighborhoods_displaced": ["Independence Heights", "Eastwood"], "description": "The I-610 Loop took fifteen years to complete and formed a roughly 38-mile ring around central Houston. Its northern segment demolished portions of Independence Heights, one of the first self-governing African American municipalities in Texas, incorporated in 1915. On the east side, the freeway bisected the Eastwood neighborhood, a diverse working-class community."}, "geometry": {"type": "MultiLineString", "coordinates": [[[-95.425499, 29.812838], [-95.412072, 29.812929], [-95.410065, 29.812752], [-95.412072, 29.812929], [-95.429746, 29.812618], [-95.432369, 29.81234], [-95.443524, 29.807889], [-95.445788, 29.80625], [-95.447178, 29.804826], [-95.443758, 29.807558], [-95.44096, 29.809048], [-95.433771, 29.812106], [-95.431371, 29.812733], [-95.425499, 29.812838]], [[-95.266302, 29.719292], [-95.266284, 29.713667], [-95.266068, 29.722057], [-95.266661, 29.727603], [-95.26631, 29.730961], [-95.266652, 29.729953], [-95.266892, 29.727614], [-95.266368, 29.722894], [-95.266302, 29.719292]], [[-95.268706, 29.793208], [-95.267655, 29.79151], [-95.267635, 29.791014], [-95.265582, 29.786007], [-95.264596, 29.784259], [-95.264697, 29.783931], [-95.263531, 29.78047], [-95.263538, 29.778429], [-95.265382, 29.769737], [-95.265052, 29.770362], [-95.263406, 29.778218], [-95.263404, 29.780785], [-95.264596, 29.784259], [-95.265057, 29.784775], [-95.265109, 29.7855], [-95.26586, 29.787361], [-95.267655, 29.79151], [-95.268595, 29.792978], [-95.268497, 29.793245], [-95.269112, 29.794548], [-95.270081, 29.795873], [-95.271869, 29.797243], [-95.270034, 29.795574], [-95.268706, 29.793208], [-95.268608, 29.793461]], [[-95.452029, 29.78464], [-95.452039, 29.785383], [-95.451798, 29.785328], [-95.451793, 29.784638], [-95.452467, 29.782961], [-95.455123, 29.779358], [-95.45588, 29.777179], [-95.455109, 29.77886], [-95.452494, 29.782236], [-95.451793, 29.784638]], [[-95.458917, 29.682252], [-95.458133, 29.680711], [-95.457982, 29.680983], [-95.458491, 29.682072], [-95.458763, 29.684272], [-95.458874, 29.689522], [-95.459113, 29.688938], [-95.458917, 29.682252]], [[-95.37251, 29.813492], [-95.373075, 29.813403], [-95.370271, 29.813655], [-95.372554, 29.814006], [-95.375431, 29.814812], [-95.37974, 29.814197], [-95.379295, 29.813956], [-95.378614, 29.814305]], [[-95.26557, 29.768223], [-95.265455, 29.769385], [-95.265277, 29.768722], [-95.26558, 29.768082], [-95.265612, 29.767006], [-95.264999, 29.746454], [-95.264877, 29.750437], [-95.26531, 29.768359]], [[-95.37974, 29.814197], [-95.38225, 29.814143], [-95.378776, 29.81391], [-95.375488, 29.813219], [-95.373259, 29.813366]], [[-95.265121, 29.738494], [-95.264692, 29.741653], [-95.264668, 29.743063], [-95.264927, 29.743812], [-95.264668, 29.743063], [-95.264937, 29.742842], [-95.266492, 29.730982], [-95.266218, 29.731341], [-95.265121, 29.738494]], [[-95.355415, 29.680817], [-95.35857, 29.680372], [-95.362065, 29.680478], [-95.357472, 29.680664], [-95.354499, 29.681222], [-95.349407, 29.683162], [-95.341161, 29.685437], [-95.340609, 29.685818], [-95.336478, 29.686835], [-95.332217, 29.688677], [-95.326285, 29.691695], [-95.325991, 29.691636], [-95.325754, 29.691944], [-95.322851, 29.693315], [-95.330069, 29.68967], [-95.335861, 29.687265], [-95.340609, 29.685818], [-95.341161, 29.685437], [-95.349006, 29.683288], [-95.352576, 29.681636], [-95.355415, 29.680817]], [[-95.352596, 29.813363], [-95.352307, 29.813025], [-95.342018, 29.809768], [-95.341954, 29.810002], [-95.338374, 29.808686], [-95.336974, 29.808374], [-95.332343, 29.808229], [-95.333657, 29.80803], [-95.336974, 29.808374], [-95.341954, 29.810002], [-95.341848, 29.809713], [-95.342665, 29.810231], [-95.355033, 29.814019], [-95.369379, 29.813951], [-95.366933, 29.81372], [-95.356076, 29.813915], [-95.352729, 29.813195]], [[-95.402421, 29.678931], [-95.399632, 29.6795], [-95.400925, 29.679532], [-95.406951, 29.678331], [-95.411413, 29.678105], [-95.407302, 29.678049], [-95.402421, 29.678931]], [[-95.316758, 29.809498], [-95.317495, 29.809489], [-95.316754, 29.809255], [-95.312707, 29.809548], [-95.307087, 29.809621], [-95.305909, 29.80945], [-95.304063, 29.808781], [-95.299096, 29.805904], [-95.302321, 29.807854], [-95.305954, 29.809274], [-95.316754, 29.809255]], [[-95.290206, 29.804417], [-95.292386, 29.804385], [-95.29048, 29.804225], [-95.289504, 29.804447], [-95.287902, 29.804239], [-95.289504, 29.804447], [-95.29048, 29.804225]], [[-95.287902, 29.804239], [-95.284872, 29.804274], [-95.284305, 29.804473], [-95.284596, 29.804275], [-95.287912, 29.804452]], [[-95.272004, 29.79708], [-95.281931, 29.803862], [-95.284305, 29.804473], [-95.282396, 29.803849], [-95.281083, 29.803091], [-95.281269, 29.803481], [-95.279393, 29.801957], [-95.277812, 29.801193], [-95.271869, 29.797243]], [[-95.277645, 29.702819], [-95.280347, 29.700866], [-95.284903, 29.6985], [-95.292265, 29.696455], [-95.294252, 29.695563], [-95.297684, 29.695599], [-95.296411, 29.695312], [-95.294611, 29.695482], [-95.293141, 29.696148], [-95.292094, 29.69615], [-95.28479, 29.698239], [-95.279774, 29.700955], [-95.27238, 29.706451], [-95.273304, 29.706065], [-95.277645, 29.702819]], [[-95.423118, 29.677395], [-95.424371, 29.67734], [-95.422935, 29.677698], [-95.422159, 29.677437], [-95.412823, 29.677817], [-95.422935, 29.677698]], [[-95.428004, 29.67782], [-95.427076, 29.677716], [-95.428208, 29.67757], [-95.428711, 29.677922], [-95.435687, 29.679366], [-95.440355, 29.679528], [-95.439476, 29.679287], [-95.435721, 29.679128], [-95.428208, 29.67757]], [[-95.457616, 29.680203], [-95.458133, 29.680711], [-95.457596, 29.680513], [-95.457177, 29.680155], [-95.457414, 29.680054], [-95.456937, 29.679754], [-95.455682, 29.679268], [-95.453571, 29.679147], [-95.452843, 29.679359], [-95.453571, 29.679147], [-95.453172, 29.679358], [-95.455527, 29.679442], [-95.457177, 29.680155]], [[-95.460051, 29.732338], [-95.459484, 29.735111], [-95.458591, 29.737912], [-95.45793, 29.741637], [-95.458307, 29.741088], [-95.45982, 29.732393], [-95.460464, 29.73042], [-95.460432, 29.724646], [-95.45982, 29.732393]], [[-95.36402, 29.680774], [-95.36675, 29.680957], [-95.382611, 29.680793], [-95.383642, 29.680948], [-95.378591, 29.680637], [-95.366785, 29.680808], [-95.361886, 29.680608], [-95.363627, 29.680594]], [[-95.314355, 29.696673], [-95.311087, 29.696973], [-95.297743, 29.695422], [-95.29841, 29.695674], [-95.310303, 29.697136], [-95.312821, 29.697194], [-95.315771, 29.696508], [-95.322851, 29.693315], [-95.315495, 29.696387], [-95.314355, 29.696673]], [[-95.267364, 29.709392], [-95.266402, 29.710749], [-95.266093, 29.711925], [-95.266076, 29.713218], [-95.266289, 29.713075], [-95.266462, 29.711173], [-95.267323, 29.709738], [-95.268438, 29.708868], [-95.272549, 29.706597], [-95.2716, 29.706926], [-95.267364, 29.709392]], [[-95.311087, 29.696973], [-95.310639, 29.696947], [-95.311007, 29.697192]], [[-95.332217, 29.688677], [-95.331831, 29.688863], [-95.332326, 29.688859]], [[-95.349337, 29.682988], [-95.348935, 29.683115], [-95.349407, 29.683162]], [[-95.264676, 29.743803], [-95.264729, 29.745848], [-95.264999, 29.746454], [-95.264729, 29.745848], [-95.264927, 29.743812]], [[-95.383642, 29.680948], [-95.393574, 29.680674], [-95.392085, 29.68034], [-95.383535, 29.680567]], [[-95.411428, 29.677861], [-95.412966, 29.678037], [-95.412134, 29.677831], [-95.411413, 29.678105]], [[-95.391353, 29.814056], [-95.39203, 29.814052], [-95.391284, 29.813857], [-95.382893, 29.813924], [-95.38225, 29.814143], [-95.382893, 29.813924], [-95.386033, 29.814139], [-95.391353, 29.814056]], [[-95.452039, 29.785383], [-95.45232, 29.789647], [-95.452024, 29.792073], [-95.450955, 29.795101], [-95.449162, 29.801703], [-95.44741, 29.803963], [-95.448261, 29.803817], [-95.449039, 29.803032], [-95.450231, 29.800957], [-95.450672, 29.799553], [-95.451268, 29.795216], [-95.452024, 29.792073], [-95.451841, 29.791635], [-95.452061, 29.789573], [-95.451827, 29.785743]], [[-95.455791, 29.751502], [-95.455738, 29.755113], [-95.455442, 29.753689], [-95.455704, 29.753684], [-95.455434, 29.753181], [-95.455681, 29.750498], [-95.457808, 29.743094], [-95.457397, 29.743723], [-95.456317, 29.74791], [-95.455791, 29.751502]], [[-95.457808, 29.743094], [-95.458143, 29.741756], [-95.457523, 29.743147]], [[-95.455997, 29.772908], [-95.456085, 29.775374], [-95.45588, 29.777179], [-95.455727, 29.776692], [-95.455871, 29.774498], [-95.456239, 29.772904], [-95.455958, 29.771551], [-95.45586, 29.766688], [-95.456066, 29.765757], [-95.455519, 29.759517], [-95.455738, 29.755113], [-95.455461, 29.757384], [-95.455782, 29.760832], [-95.455558, 29.763247], [-95.455762, 29.76551], [-95.456066, 29.765757], [-95.455823, 29.766099], [-95.456153, 29.767107], [-95.456239, 29.772904]], [[-95.447178, 29.804826], [-95.447715, 29.804322], [-95.447207, 29.80419], [-95.446798, 29.80467]], [[-95.399632, 29.6795], [-95.393901, 29.680313], [-95.39487, 29.680603], [-95.395745, 29.680549], [-95.399699, 29.679805]], [[-95.445875, 29.679467], [-95.449424, 29.679409], [-95.445777, 29.6792], [-95.44432, 29.679493], [-95.440421, 29.67927], [-95.44432, 29.679493], [-95.445777, 29.6792]], [[-95.449424, 29.679409], [-95.452843, 29.679359], [-95.449438, 29.679149]], [[-95.45942, 29.70537], [-95.459215, 29.698754], [-95.459078, 29.704244], [-95.459162, 29.70537], [-95.459555, 29.706207], [-95.459299, 29.706136], [-95.459162, 29.70537]], [[-95.460432, 29.724646], [-95.46031, 29.716952], [-95.460038, 29.716235], [-95.46031, 29.716952], [-95.460055, 29.717296], [-95.46021, 29.724905]], [[-95.458976, 29.698315], [-95.458986, 29.698754], [-95.459216, 29.698317], [-95.459121, 29.689518], [-95.45888, 29.689928], [-95.458976, 29.698315]], [[-95.460245, 29.710937], [-95.460117, 29.708523], [-95.459555, 29.706207], [-95.459472, 29.706762], [-95.459941, 29.708729], [-95.45998, 29.712123], [-95.460245, 29.710937], [-95.460246, 29.711442]], [[-95.399751, 29.812886], [-95.397, 29.813016], [-95.394259, 29.813694], [-95.391937, 29.813844], [-95.39323, 29.814027], [-95.397973, 29.81311], [-95.410069, 29.812953], [-95.409075, 29.81277], [-95.399751, 29.812886]], [[-95.427301, 29.677453], [-95.424371, 29.67734], [-95.425117, 29.677623], [-95.427076, 29.677716]], [[-95.327806, 29.808783], [-95.328877, 29.808424], [-95.328171, 29.808734], [-95.321819, 29.809225], [-95.32158, 29.809452], [-95.321819, 29.809225], [-95.323218, 29.809393], [-95.327806, 29.808783]], [[-95.320999, 29.809222], [-95.317491, 29.809249], [-95.320888, 29.809452], [-95.321537, 29.809231], [-95.320888, 29.809452]], [[-95.370271, 29.813655], [-95.369324, 29.813674], [-95.370495, 29.81393]], [[-95.332443, 29.808043], [-95.328877, 29.808424], [-95.332343, 29.808229]], [[-95.460302, 29.716233], [-95.460248, 29.712492], [-95.460001, 29.713583], [-95.460038, 29.716235]], [[-95.293018, 29.804379], [-95.292386, 29.804385], [-95.292811, 29.804207], [-95.295781, 29.804681], [-95.299302, 29.806193], [-95.297693, 29.805166], [-95.295934, 29.804521], [-95.292811, 29.804207]], [[-95.323686, 29.809341], [-95.324037, 29.809303]], [[-95.460248, 29.712492], [-95.460236, 29.711993]], [[-95.265382, 29.769737], [-95.265455, 29.769385]], [[-95.294611, 29.695482], [-95.294252, 29.695563]]]}}, {"type": "Feature", "properties": {"name": "Beltway 8 / Sam Houston Tollway", "designation": "Beltway 8", "construction_year": 1983, "completion_year": 1994, "decade": "1980s", "neighborhoods_displaced": [], "description": "The Sam Houston Tollway was built in a later era when the outer belt corridor passed largely through undeveloped or sparsely populated suburban land. Unlike the earlier inner-city freeways, Beltway 8 displaced relatively few established neighborhoods, though it accelerated suburban sprawl and reinforced patterns of car-dependent development on Houston's periphery."}, "geometry": {"type": "MultiLineString", "coordinates": [[[-95.538659, 29.643917], [-95.540532, 29.645487], [-95.538825, 29.643772], [-95.515947, 29.624522], [-95.517077, 29.625737], [-95.538659, 29.643917]], [[-95.562692, 29.77302], [-95.563219, 29.786602], [-95.563082, 29.790005], [-95.563219, 29.786602], [-95.563015, 29.786482], [-95.562798, 29.769796], [-95.561805, 29.767078], [-95.562556, 29.769742], [-95.562692, 29.77302]], [[-95.483735, 29.608742], [-95.484622, 29.609154], [-95.483619, 29.608911], [-95.478476, 29.6063], [-95.475361, 29.605065], [-95.477493, 29.605844], [-95.478349, 29.606464], [-95.483416, 29.608817]], [[-95.558094, 29.753053], [-95.558126, 29.753882], [-95.557692, 29.754375], [-95.557848, 29.755397], [-95.558171, 29.755366], [-95.55779, 29.753271], [-95.557975, 29.751791], [-95.557975, 29.755156], [-95.55817, 29.75531], [-95.557692, 29.755315], [-95.557856, 29.757432], [-95.557978, 29.755272], [-95.558186, 29.755884], [-95.55773, 29.756321], [-95.557769, 29.757475], [-95.558123, 29.75771], [-95.558083, 29.758061], [-95.557841, 29.755178], [-95.557956, 29.750221], [-95.557411, 29.728009], [-95.557682, 29.730623], [-95.557701, 29.753669]], [[-95.151564, 29.716833], [-95.152501, 29.715572], [-95.153277, 29.713704], [-95.153537, 29.711908], [-95.153559, 29.708875], [-95.153246, 29.712663], [-95.152713, 29.714672], [-95.151475, 29.716921], [-95.148538, 29.720351], [-95.147905, 29.721787], [-95.146148, 29.736102], [-95.147824, 29.72176], [-95.148449, 29.720332], [-95.151529, 29.716644]], [[-95.153559, 29.708875], [-95.153537, 29.702182], [-95.153365, 29.708896]], [[-95.549482, 29.897656], [-95.549703, 29.899243], [-95.550208, 29.900609], [-95.551127, 29.902059], [-95.552219, 29.903197], [-95.550577, 29.900865], [-95.550058, 29.899676], [-95.549733, 29.898168], [-95.549677, 29.895778], [-95.549466, 29.896299], [-95.549482, 29.897656]], [[-95.552219, 29.903197], [-95.554397, 29.905404], [-95.555515, 29.907477], [-95.555882, 29.909305], [-95.555934, 29.914146], [-95.556089, 29.909564], [-95.555821, 29.907756], [-95.55531, 29.906449], [-95.554393, 29.90504], [-95.552649, 29.903304]], [[-95.229266, 29.600906], [-95.233444, 29.600709], [-95.228109, 29.60092], [-95.229245, 29.600802]], [[-95.247101, 29.600606], [-95.233444, 29.600709], [-95.248276, 29.600607], [-95.247085, 29.600732]], [[-95.295349, 29.600418], [-95.300927, 29.600552], [-95.278608, 29.600002], [-95.248276, 29.600607], [-95.278419, 29.600122], [-95.295342, 29.6003]], [[-95.563306, 29.791253], [-95.563635, 29.799303], [-95.563134, 29.792262], [-95.563293, 29.790344], [-95.563105, 29.791186]], [[-95.153406, 29.701217], [-95.15343, 29.70218], [-95.153504, 29.689679], [-95.153406, 29.701217]], [[-95.158485, 29.642227], [-95.156508, 29.647589], [-95.156225, 29.650277], [-95.156204, 29.64933], [-95.156642, 29.647568], [-95.157938, 29.643718], [-95.159572, 29.640861], [-95.161521, 29.638989], [-95.159965, 29.640208], [-95.158485, 29.642227]], [[-95.155887, 29.665233], [-95.155921, 29.665917], [-95.155646, 29.665238], [-95.156305, 29.660027], [-95.156225, 29.650277], [-95.156043, 29.652335], [-95.156195, 29.660042], [-95.155654, 29.663304], [-95.155646, 29.665238]], [[-95.156187, 29.674508], [-95.156203, 29.675718], [-95.155967, 29.674626], [-95.15599, 29.669168], [-95.155828, 29.669084], [-95.155974, 29.668836], [-95.155654, 29.66592], [-95.155974, 29.668836], [-95.155967, 29.674626]], [[-95.153641, 29.689681], [-95.153998, 29.686322], [-95.156103, 29.679429], [-95.156203, 29.675718], [-95.155935, 29.679081], [-95.153827, 29.686348], [-95.153504, 29.689679]], [[-95.188618, 29.618195], [-95.180894, 29.622292], [-95.173636, 29.627445], [-95.169689, 29.63111], [-95.173786, 29.627585], [-95.181108, 29.622357], [-95.189746, 29.617789]], [[-95.169689, 29.63111], [-95.16134, 29.638884], [-95.161838, 29.638713], [-95.16987, 29.631197]], [[-95.540532, 29.645487], [-95.549808, 29.653284], [-95.548229, 29.651682], [-95.540699, 29.64534]], [[-95.557935, 29.687414], [-95.557613, 29.688805], [-95.557618, 29.687796], [-95.55802, 29.686994], [-95.560089, 29.677071], [-95.55975, 29.677642], [-95.557618, 29.687796]], [[-95.228107, 29.600818], [-95.223179, 29.60086], [-95.228109, 29.60092]], [[-95.515947, 29.624522], [-95.51395, 29.623028], [-95.515794, 29.624661]], [[-95.492762, 29.613113], [-95.484515, 29.60932], [-95.486191, 29.609852], [-95.491778, 29.612421], [-95.494963, 29.614147], [-95.492858, 29.612961]], [[-95.51395, 29.623028], [-95.51147, 29.621684], [-95.502541, 29.61805], [-95.495057, 29.613992], [-95.50216, 29.618087], [-95.511164, 29.621767], [-95.513953, 29.623271]], [[-95.167361, 29.82262], [-95.170706, 29.827272], [-95.178682, 29.835721], [-95.178368, 29.835107], [-95.17074, 29.827065], [-95.168147, 29.823601], [-95.166103, 29.819879]], [[-95.549234, 29.878508], [-95.549976, 29.877034], [-95.551813, 29.875336], [-95.550861, 29.87584], [-95.549712, 29.877136], [-95.549034, 29.878471], [-95.548981, 29.879575], [-95.548804, 29.879307], [-95.549034, 29.878471]], [[-95.563884, 29.855481], [-95.563914, 29.857294], [-95.563768, 29.8533], [-95.563844, 29.85895], [-95.563952, 29.857294], [-95.563957, 29.857831], [-95.56378, 29.866534], [-95.563359, 29.868482], [-95.562412, 29.870025], [-95.561104, 29.871213], [-95.556318, 29.873272], [-95.559796, 29.87211], [-95.561166, 29.871389], [-95.562656, 29.870082], [-95.563722, 29.868222], [-95.564006, 29.866813], [-95.564154, 29.857296], [-95.56392, 29.850696], [-95.563737, 29.850646], [-95.563768, 29.8533]], [[-95.563728, 29.849641], [-95.563731, 29.849908], [-95.563909, 29.849778], [-95.563737, 29.850646], [-95.563909, 29.849778], [-95.563703, 29.84733], [-95.563895, 29.846437], [-95.563902, 29.833582], [-95.563682, 29.831589], [-95.563906, 29.826353], [-95.563853, 29.823033], [-95.563633, 29.822309], [-95.563853, 29.823033], [-95.563646, 29.824727], [-95.563682, 29.831589], [-95.563896, 29.832312], [-95.56369, 29.833064], [-95.563644, 29.844095], [-95.56391, 29.849587]], [[-95.560002, 29.764899], [-95.561432, 29.766494], [-95.56178, 29.767446], [-95.558823, 29.7638], [-95.557951, 29.761428], [-95.558858, 29.763495], [-95.560002, 29.764899]], [[-95.555934, 29.914146], [-95.555993, 29.920483], [-95.555769, 29.921809], [-95.555128, 29.923377], [-95.555566, 29.923006], [-95.556134, 29.921194], [-95.556188, 29.914396]], [[-95.549004, 29.884397], [-95.549463, 29.887136], [-95.549089, 29.886476], [-95.548767, 29.884338], [-95.548984, 29.883766], [-95.548981, 29.879575], [-95.54876, 29.87962], [-95.548718, 29.880057], [-95.54875, 29.883845]], [[-95.549415, 29.891784], [-95.549462, 29.895859], [-95.549673, 29.895233], [-95.549463, 29.887136], [-95.549235, 29.887291], [-95.549415, 29.891784]], [[-95.563614, 29.818821], [-95.563633, 29.822309], [-95.563833, 29.819693], [-95.563583, 29.813081], [-95.56378, 29.812348], [-95.563583, 29.813081], [-95.56382, 29.818497]], [[-95.563414, 29.799046], [-95.56358, 29.812355], [-95.563765, 29.809917], [-95.563635, 29.799303]], [[-95.557286, 29.721781], [-95.557402, 29.727269], [-95.557617, 29.727272], [-95.557411, 29.728009], [-95.55762, 29.727532], [-95.557564, 29.719434], [-95.557493, 29.714046], [-95.557257, 29.713629], [-95.557198, 29.70488], [-95.557493, 29.714046], [-95.557238, 29.715125], [-95.557286, 29.721781]], [[-95.55786, 29.757985], [-95.557769, 29.757475], [-95.55793, 29.761245], [-95.55809, 29.758272]], [[-95.187192, 29.855481], [-95.187023, 29.84809], [-95.186797, 29.846569], [-95.185466, 29.843401], [-95.183633, 29.840882], [-95.184651, 29.841808], [-95.185645, 29.843327], [-95.186797, 29.846569], [-95.187266, 29.869074], [-95.187468, 29.870203], [-95.187192, 29.855481]], [[-95.178682, 29.835721], [-95.183633, 29.840882], [-95.178841, 29.835605]], [[-95.197354, 29.882697], [-95.1891, 29.873223], [-95.187793, 29.871194], [-95.20213, 29.888281], [-95.202692, 29.889377], [-95.203113, 29.891095], [-95.203033, 29.897311], [-95.20319, 29.892547], [-95.202513, 29.889436], [-95.201655, 29.887879], [-95.198051, 29.883541], [-95.197591, 29.882699]], [[-95.200362, 29.920568], [-95.20318, 29.901871], [-95.203253, 29.897302], [-95.203021, 29.898426], [-95.203052, 29.901125], [-95.199881, 29.922111]], [[-95.187993, 29.871123], [-95.18764, 29.870173], [-95.187793, 29.871194]], [[-95.475361, 29.605065], [-95.465172, 29.600499], [-95.464356, 29.599909], [-95.465172, 29.600499], [-95.467628, 29.601345], [-95.475578, 29.604951]], [[-95.318315, 29.60034], [-95.301019, 29.600553], [-95.317161, 29.600234], [-95.341484, 29.600238], [-95.339007, 29.600084], [-95.318309, 29.600233]], [[-95.556982, 29.696544], [-95.557175, 29.695072], [-95.556972, 29.694945], [-95.556965, 29.694101], [-95.557613, 29.688805], [-95.557216, 29.689746], [-95.556954, 29.692255], [-95.557419, 29.704024], [-95.557029, 29.700821], [-95.556982, 29.696544]], [[-95.557193, 29.704166], [-95.557198, 29.70488], [-95.557419, 29.704024]], [[-95.456721, 29.597043], [-95.459878, 29.598022], [-95.464286, 29.600101]], [[-95.352798, 29.598892], [-95.347301, 29.599939], [-95.341483, 29.600045], [-95.342778, 29.600244], [-95.346927, 29.600171], [-95.352857, 29.599079]], [[-95.558168, 29.75487], [-95.558141, 29.754212]], [[-95.558132, 29.75734], [-95.558186, 29.755884], [-95.55817, 29.756664]], [[-95.337777, 29.600093], [-95.329294, 29.600005], [-95.325822, 29.600189]], [[-95.563886, 29.859074], [-95.563901, 29.858835], [-95.563855, 29.859599]], [[-95.55753, 29.737472], [-95.557538, 29.737985]], [[-95.557417, 29.728543], [-95.557423, 29.728986]], [[-95.555326, 29.873828], [-95.554961, 29.873791], [-95.551745, 29.875183], [-95.55638, 29.873423], [-95.555111, 29.873733], [-95.555509, 29.873758]]]}}]}