{
  "type": "FeatureCollection",
  "features": [
    {
      "type": "Feature",
      "properties": {
        "name": "I-45 (Gulf Freeway)",
        "designation": "I-45 South",
        "construction_year": 1948,
        "completion_year": 1952,
        "decade": "1950s",
        "neighborhoods_displaced": [
          "South Houston",
          "South Park",
          "Gulfgate"
        ],
        "description": "The Gulf Freeway was the first freeway built in Texas and one of the earliest in the American South. Originally conceived as a high-speed corridor linking downtown Houston to the petrochemical refineries along Galveston Bay, its construction displaced families in several working-class neighborhoods south of downtown."
      },
      "geometry": {
        "type": "LineString",
        "coordinates": [
          [
            -95.37,
            29.76
          ],
          [
            -95.3685,
            29.753
          ],
          [
            -95.366,
            29.744
          ],
          [
            -95.362,
            29.734
          ],
          [
            -95.356,
            29.723
          ],
          [
            -95.348,
            29.71
          ],
          [
            -95.338,
            29.695
          ],
          [
            -95.326,
            29.678
          ],
          [
            -95.31,
            29.658
          ],
          [
            -95.29,
            29.635
          ],
          [
            -95.28,
            29.62
          ]
        ]
      }
    },
    {
      "type": "Feature",
      "properties": {
        "name": "I-45 (North Freeway)",
        "designation": "I-45 North",
        "construction_year": 1957,
        "completion_year": 1963,
        "decade": "1960s",
        "neighborhoods_displaced": [
          "Fifth Ward",
          "Kashmere Gardens",
          "Near Northside"
        ],
        "description": "The North Freeway carved a wide path through the historically Black Fifth Ward and Kashmere Gardens neighborhoods, demolishing hundreds of homes and severing the tight-knit community fabric. Near Northside, a predominantly Hispanic neighborhood, was similarly bisected, cutting residents off from schools, churches, and commercial districts."
      },
      "geometry": {
        "type": "LineString",
        "coordinates": [
          [
            -95.37,
            29.76
          ],
          [
            -95.3705,
            29.768
          ],
          [
            -95.3715,
            29.776
          ],
          [
            -95.373,
            29.785
          ],
          [
            -95.375,
            29.794
          ],
          [
            -95.3775,
            29.803
          ],
          [
            -95.381,
            29.813
          ],
          [
            -95.385,
            29.825
          ],
          [
            -95.388,
            29.838
          ],
          [
            -95.392,
            29.853
          ],
          [
            -95.395,
            29.88
          ]
        ]
      }
    },
    {
      "type": "Feature",
      "properties": {
        "name": "I-10 (Katy Freeway)",
        "designation": "I-10 West",
        "construction_year": 1960,
        "completion_year": 1968,
        "decade": "1960s",
        "neighborhoods_displaced": [
          "Fourth Ward"
        ],
        "description": "The Katy Freeway's construction devastated the historic Fourth Ward (Freedmenstown), one of Houston's oldest African American neighborhoods established by formerly enslaved people after the Civil War. The freeway's wide right-of-way demolished blocks of Victorian-era shotgun houses and displaced a community with deep cultural roots stretching back to Reconstruction."
      },
      "geometry": {
        "type": "LineString",
        "coordinates": [
          [
            -95.37,
            29.76
          ],
          [
            -95.381,
            29.761
          ],
          [
            -95.394,
            29.7625
          ],
          [
            -95.41,
            29.764
          ],
          [
            -95.428,
            29.766
          ],
          [
            -95.448,
            29.768
          ],
          [
            -95.47,
            29.77
          ],
          [
            -95.493,
            29.772
          ],
          [
            -95.518,
            29.7745
          ],
          [
            -95.545,
            29.777
          ],
          [
            -95.57,
            29.779
          ],
          [
            -95.6,
            29.78
          ]
        ]
      }
    },
    {
      "type": "Feature",
      "properties": {
        "name": "I-10 (East Freeway)",
        "designation": "I-10 East",
        "construction_year": 1953,
        "completion_year": 1958,
        "decade": "1950s",
        "neighborhoods_displaced": [
          "Second Ward",
          "Magnolia Park"
        ],
        "description": "The East Freeway sliced through the Second Ward, the cultural heart of Houston's Mexican American community, and impacted Magnolia Park near the Ship Channel. The route destroyed homes and commercial corridors along Navigation Boulevard, permanently altering the character and connectivity of these predominantly Latino neighborhoods."
      },
      "geometry": {
        "type": "LineString",
        "coordinates": [
          [
            -95.37,
            29.76
          ],
          [
            -95.358,
            29.7605
          ],
          [
            -95.344,
            29.761
          ],
          [
            -95.328,
            29.7612
          ],
          [
            -95.311,
            29.761
          ],
          [
            -95.293,
            29.7608
          ],
          [
            -95.274,
            29.7605
          ],
          [
            -95.255,
            29.7603
          ],
          [
            -95.235,
            29.7602
          ],
          [
            -95.215,
            29.7601
          ],
          [
            -95.2,
            29.76
          ]
        ]
      }
    },
    {
      "type": "Feature",
      "properties": {
        "name": "I-69/US-59 (Southwest Freeway)",
        "designation": "I-69/US-59 South",
        "construction_year": 1959,
        "completion_year": 1962,
        "decade": "1960s",
        "neighborhoods_displaced": [
          "Third Ward",
          "Midtown"
        ],
        "description": "The Southwest Freeway tore through Midtown and the northern edge of the Third Ward, one of Houston's most historically significant African American neighborhoods and home to Texas Southern University. The freeway created a physical barrier that accelerated the decline of Black-owned businesses and severed the connection between the Third Ward and downtown Houston."
      },
      "geometry": {
        "type": "LineString",
        "coordinates": [
          [
            -95.37,
            29.76
          ],
          [
            -95.376,
            29.754
          ],
          [
            -95.383,
            29.747
          ],
          [
            -95.392,
            29.739
          ],
          [
            -95.403,
            29.73
          ],
          [
            -95.415,
            29.72
          ],
          [
            -95.429,
            29.709
          ],
          [
            -95.444,
            29.698
          ],
          [
            -95.461,
            29.686
          ],
          [
            -95.48,
            29.673
          ],
          [
            -95.5,
            29.66
          ],
          [
            -95.53,
            29.65
          ]
        ]
      }
    },
    {
      "type": "Feature",
      "properties": {
        "name": "I-69/US-59 (Eastex Freeway)",
        "designation": "I-69/US-59 North",
        "construction_year": 1955,
        "completion_year": 1960,
        "decade": "1960s",
        "neighborhoods_displaced": [
          "Fifth Ward",
          "Denver Harbor"
        ],
        "description": "The Eastex Freeway further fragmented the Fifth Ward, already damaged by I-45 North, and cut through Denver Harbor, a neighborhood with significant Latino and working-class white populations. Combined with the North Freeway, the two expressways left the Fifth Ward hemmed in by concrete on multiple sides, contributing to decades of disinvestment."
      },
      "geometry": {
        "type": "LineString",
        "coordinates": [
          [
            -95.37,
            29.76
          ],
          [
            -95.364,
            29.768
          ],
          [
            -95.357,
            29.777
          ],
          [
            -95.349,
            29.786
          ],
          [
            -95.34,
            29.795
          ],
          [
            -95.331,
            29.804
          ],
          [
            -95.32,
            29.814
          ],
          [
            -95.308,
            29.825
          ],
          [
            -95.295,
            29.837
          ],
          [
            -95.28,
            29.85
          ],
          [
            -95.26,
            29.86
          ]
        ]
      }
    },
    {
      "type": "Feature",
      "properties": {
        "name": "I-610 (Inner Loop)",
        "designation": "I-610",
        "construction_year": 1955,
        "completion_year": 1970,
        "decade": "1960s",
        "neighborhoods_displaced": [
          "Independence Heights",
          "Eastwood"
        ],
        "description": "The I-610 Loop took fifteen years to complete and formed a roughly 38-mile ring around central Houston. Its northern segment demolished portions of Independence Heights, one of the first self-governing African American municipalities in Texas, incorporated in 1915. On the east side, the freeway bisected the Eastwood neighborhood, a diverse working-class community."
      },
      "geometry": {
        "type": "LineString",
        "coordinates": [
          [
            -95.37,
            29.81
          ],
          [
            -95.387,
            29.808
          ],
          [
            -95.403,
            29.803
          ],
          [
            -95.415,
            29.795
          ],
          [
            -95.422,
            29.784
          ],
          [
            -95.425,
            29.772
          ],
          [
            -95.422,
            29.76
          ],
          [
            -95.418,
            29.748
          ],
          [
            -95.41,
            29.737
          ],
          [
            -95.397,
            29.728
          ],
          [
            -95.38,
            29.722
          ],
          [
            -95.362,
            29.72
          ],
          [
            -95.344,
            29.722
          ],
          [
            -95.328,
            29.728
          ],
          [
            -95.316,
            29.737
          ],
          [
            -95.308,
            29.748
          ],
          [
            -95.305,
            29.76
          ],
          [
            -95.307,
            29.772
          ],
          [
            -95.313,
            29.784
          ],
          [
            -95.323,
            29.795
          ],
          [
            -95.338,
            29.803
          ],
          [
            -95.354,
            29.808
          ],
          [
            -95.37,
            29.81
          ]
        ]
      }
    },
    {
      "type": "Feature",
      "properties": {
        "name": "Beltway 8 / Sam Houston Tollway",
        "designation": "Beltway 8",
        "construction_year": 1983,
        "completion_year": 1994,
        "decade": "1980s",
        "neighborhoods_displaced": [],
        "description": "The Sam Houston Tollway was built in a later era when the outer belt corridor passed largely through undeveloped or sparsely populated suburban land. Unlike the earlier inner-city freeways, Beltway 8 displaced relatively few established neighborhoods, though it accelerated suburban sprawl and reinforced patterns of car-dependent development on Houston's periphery."
      },
      "geometry": {
        "type": "LineString",
        "coordinates": [
          [
            -95.37,
            29.88
          ],
          [
            -95.395,
            29.878
          ],
          [
            -95.42,
            29.872
          ],
          [
            -95.444,
            29.862
          ],
          [
            -95.465,
            29.848
          ],
          [
            -95.482,
            29.83
          ],
          [
            -95.493,
            29.808
          ],
          [
            -95.499,
            29.784
          ],
          [
            -95.499,
            29.76
          ],
          [
            -95.495,
            29.736
          ],
          [
            -95.485,
            29.714
          ],
          [
            -95.47,
            29.696
          ],
          [
            -95.45,
            29.682
          ],
          [
            -95.427,
            29.672
          ],
          [
            -95.401,
            29.666
          ],
          [
            -95.374,
            29.664
          ],
          [
            -95.347,
            29.666
          ],
          [
            -95.321,
            29.672
          ],
          [
            -95.298,
            29.682
          ],
          [
            -95.279,
            29.696
          ],
          [
            -95.264,
            29.714
          ],
          [
            -95.254,
            29.736
          ],
          [
            -95.25,
            29.76
          ],
          [
            -95.251,
            29.784
          ],
          [
            -95.257,
            29.808
          ],
          [
            -95.268,
            29.83
          ],
          [
            -95.284,
            29.848
          ],
          [
            -95.304,
            29.862
          ],
          [
            -95.327,
            29.872
          ],
          [
            -95.35,
            29.878
          ],
          [
            -95.37,
            29.88
          ]
        ]
      }
    }
  ]
}