{"type": "FeatureCollection", "name": "Houston_Harris_County_FEMA_Flood_Zones", "metadata": {"description": "Sample FEMA flood zone polygons for Houston/Harris County, TX. Polygons are elongated along bayou corridors to reflect actual flood risk geography.", "source": "Sample data inspired by FEMA NFHL and Hurricane Harvey inundation maps", "coordinate_system": "EPSG:4326 (WGS 84)", "is_sample_data": true, "created": "2026-02-24"}, "features": [{"type": "Feature", "properties": {"id": 1, "zone": "AE", "flood_risk": "high", "zone_description": "Base Flood Elevations (BFEs) determined. Areas subject to inundation by the 1-percent-annual-chance (100-year) flood event with detailed hydraulic analysis.", "name": "Buffalo Bayou - Downtown / Allen Parkway", "bayou": "Buffalo Bayou", "major_flood_events": [1935, 1994, 2001, 2015, 2016, 2017], "harvey_inundated": true, "notes": "Historic bayou corridor running east-west through downtown Houston. Severe repetitive flood loss area. Allen Parkway and Memorial Drive flood regularly.", "is_sample_data": true}, "geometry": {"type": "Polygon", "coordinates": [[[-95.425, 29.755], [-95.41, 29.752], [-95.395, 29.754], [-95.38, 29.757], [-95.365, 29.76], [-95.35, 29.762], [-95.345, 29.768], [-95.35, 29.772], [-95.365, 29.77], [-95.38, 29.767], [-95.395, 29.764], [-95.41, 29.762], [-95.425, 29.765], [-95.43, 29.76], [-95.425, 29.755]]]}}, {"type": "Feature", "properties": {"id": 2, "zone": "AE", "flood_risk": "high", "zone_description": "Base Flood Elevations (BFEs) determined. Areas subject to inundation by the 1-percent-annual-chance (100-year) flood event with detailed hydraulic analysis.", "name": "Buffalo Bayou - Memorial / Addicks Reservoir Overflow", "bayou": "Buffalo Bayou", "major_flood_events": [2016, 2017], "harvey_inundated": true, "notes": "Addicks and Barker Reservoir overflow zone. During Hurricane Harvey, controlled releases from both reservoirs caused unprecedented flooding of homes that had never flooded before. Thousands of homes inundated for weeks.", "is_sample_data": true}, "geometry": {"type": "Polygon", "coordinates": [[[-95.56, 29.755], [-95.54, 29.752], [-95.52, 29.755], [-95.5, 29.758], [-95.48, 29.762], [-95.475, 29.77], [-95.48, 29.78], [-95.49, 29.785], [-95.51, 29.788], [-95.53, 29.785], [-95.545, 29.78], [-95.555, 29.775], [-95.565, 29.768], [-95.565, 29.76], [-95.56, 29.755]]]}}, {"type": "Feature", "properties": {"id": 3, "zone": "A", "flood_risk": "high", "zone_description": "No Base Flood Elevations determined. Areas subject to inundation by the 1-percent-annual-chance (100-year) flood event; no detailed hydraulic analysis performed.", "name": "Buffalo Bayou - Energy Corridor", "bayou": "Buffalo Bayou", "major_flood_events": [2016, 2017], "harvey_inundated": true, "notes": "Energy Corridor business district along Buffalo Bayou west of Beltway 8. Major corporate campus flooding during Harvey. Area downstream of Barker Reservoir outflows.", "is_sample_data": true}, "geometry": {"type": "Polygon", "coordinates": [[[-95.59, 29.768], [-95.575, 29.765], [-95.56, 29.768], [-95.545, 29.77], [-95.53, 29.772], [-95.528, 29.778], [-95.535, 29.783], [-95.55, 29.785], [-95.565, 29.783], [-95.58, 29.78], [-95.592, 29.775], [-95.59, 29.768]]]}}, {"type": "Feature", "properties": {"id": 4, "zone": "AE", "flood_risk": "high", "zone_description": "Base Flood Elevations (BFEs) determined. Areas subject to inundation by the 1-percent-annual-chance (100-year) flood event with detailed hydraulic analysis.", "name": "Brays Bayou - Meyerland / Braeswood", "bayou": "Brays Bayou", "major_flood_events": [1976, 1998, 2001, 2015, 2016, 2017], "harvey_inundated": true, "notes": "One of Houston's most repeatedly flooded neighborhoods. Meyerland has flooded in three major events in just three years (2015-2017). Many homes have been bought out by Harris County Flood Control District. Severe repetitive loss area.", "is_sample_data": true}, "geometry": {"type": "Polygon", "coordinates": [[[-95.49, 29.688], [-95.475, 29.685], [-95.46, 29.687], [-95.445, 29.69], [-95.43, 29.692], [-95.42, 29.695], [-95.415, 29.7], [-95.42, 29.705], [-95.435, 29.707], [-95.45, 29.705], [-95.465, 29.702], [-95.48, 29.698], [-95.49, 29.695], [-95.493, 29.69], [-95.49, 29.688]]]}}, {"type": "Feature", "properties": {"id": 5, "zone": "AE", "flood_risk": "high", "zone_description": "Base Flood Elevations (BFEs) determined. Areas subject to inundation by the 1-percent-annual-chance (100-year) flood event with detailed hydraulic analysis.", "name": "Brays Bayou - Texas Medical Center", "bayou": "Brays Bayou", "major_flood_events": [2001, 2017], "harvey_inundated": true, "notes": "The Texas Medical Center, the largest medical complex in the world, suffered catastrophic flooding in Tropical Storm Allison (2001). Billions in damage led to major flood protection infrastructure. Harvey (2017) caused additional flooding despite improvements.", "is_sample_data": true}, "geometry": {"type": "Polygon", "coordinates": [[[-95.42, 29.698], [-95.41, 29.696], [-95.4, 29.698], [-95.39, 29.7], [-95.38, 29.703], [-95.378, 29.708], [-95.382, 29.713], [-95.392, 29.715], [-95.402, 29.713], [-95.412, 29.71], [-95.42, 29.707], [-95.423, 29.703], [-95.42, 29.698]]]}}, {"type": "Feature", "properties": {"id": 6, "zone": "AE", "flood_risk": "high", "zone_description": "Base Flood Elevations (BFEs) determined. Areas subject to inundation by the 1-percent-annual-chance (100-year) flood event with detailed hydraulic analysis.", "name": "White Oak Bayou - The Heights", "bayou": "White Oak Bayou", "major_flood_events": [1994, 2009, 2016, 2017], "harvey_inundated": true, "notes": "White Oak Bayou runs through the Houston Heights neighborhood and into downtown. The area has experienced chronic flooding due to urbanization and inadequate channel capacity. Project Brays-style improvements ongoing.", "is_sample_data": true}, "geometry": {"type": "Polygon", "coordinates": [[[-95.415, 29.788], [-95.408, 29.79], [-95.4, 29.792], [-95.392, 29.794], [-95.385, 29.797], [-95.378, 29.8], [-95.375, 29.805], [-95.38, 29.808], [-95.388, 29.806], [-95.395, 29.803], [-95.403, 29.8], [-95.41, 29.798], [-95.418, 29.795], [-95.42, 29.792], [-95.415, 29.788]]]}}, {"type": "Feature", "properties": {"id": 7, "zone": "AE", "flood_risk": "high", "zone_description": "Base Flood Elevations (BFEs) determined. Areas subject to inundation by the 1-percent-annual-chance (100-year) flood event with detailed hydraulic analysis.", "name": "White Oak Bayou - Garden Oaks", "bayou": "White Oak Bayou", "major_flood_events": [1994, 2016, 2017], "harvey_inundated": true, "notes": "Garden Oaks neighborhood along the upper White Oak Bayou corridor. Flooding occurs when the bayou overtops its banks during heavy rainfall events. Area includes both the main channel and tributary overflow zones.", "is_sample_data": true}, "geometry": {"type": "Polygon", "coordinates": [[[-95.44, 29.822], [-95.432, 29.824], [-95.425, 29.827], [-95.418, 29.83], [-95.41, 29.833], [-95.405, 29.837], [-95.408, 29.841], [-95.415, 29.839], [-95.423, 29.836], [-95.43, 29.833], [-95.438, 29.83], [-95.443, 29.826], [-95.44, 29.822]]]}}, {"type": "Feature", "properties": {"id": 8, "zone": "AE", "flood_risk": "high", "zone_description": "Base Flood Elevations (BFEs) determined. Areas subject to inundation by the 1-percent-annual-chance (100-year) flood event with detailed hydraulic analysis.", "name": "Greens Bayou - Kashmere Gardens / North Houston", "bayou": "Greens Bayou", "major_flood_events": [1994, 2001, 2017], "harvey_inundated": true, "notes": "Kashmere Gardens is a historically Black neighborhood in northeast Houston with severe flood vulnerability. Greens Bayou has limited channel capacity and the area has seen chronic underinvestment in flood infrastructure. Environmental justice concerns are significant.", "is_sample_data": true}, "geometry": {"type": "Polygon", "coordinates": [[[-95.34, 29.792], [-95.328, 29.794], [-95.318, 29.797], [-95.308, 29.8], [-95.298, 29.803], [-95.29, 29.807], [-95.288, 29.812], [-95.292, 29.815], [-95.302, 29.813], [-95.312, 29.81], [-95.322, 29.807], [-95.332, 29.804], [-95.342, 29.8], [-95.345, 29.796], [-95.34, 29.792]]]}}, {"type": "Feature", "properties": {"id": 9, "zone": "AE", "flood_risk": "high", "zone_description": "Base Flood Elevations (BFEs) determined. Areas subject to inundation by the 1-percent-annual-chance (100-year) flood event with detailed hydraulic analysis.", "name": "Greens Bayou - Settegast / Trinity Gardens", "bayou": "Greens Bayou", "major_flood_events": [1994, 2001, 2016, 2017], "harvey_inundated": true, "notes": "Settegast and Trinity Gardens are predominantly minority communities along Greens Bayou with repeated flooding. These neighborhoods exemplify the intersection of flood risk and socioeconomic vulnerability in Houston. Home buyout programs have been active here.", "is_sample_data": true}, "geometry": {"type": "Polygon", "coordinates": [[[-95.325, 29.822], [-95.315, 29.824], [-95.305, 29.827], [-95.295, 29.83], [-95.285, 29.833], [-95.28, 29.838], [-95.283, 29.842], [-95.293, 29.84], [-95.303, 29.837], [-95.313, 29.834], [-95.323, 29.83], [-95.328, 29.826], [-95.325, 29.822]]]}}, {"type": "Feature", "properties": {"id": 10, "zone": "AE", "flood_risk": "high", "zone_description": "Base Flood Elevations (BFEs) determined. Areas subject to inundation by the 1-percent-annual-chance (100-year) flood event with detailed hydraulic analysis.", "name": "Sims Bayou - Sunnyside / South Park", "bayou": "Sims Bayou", "major_flood_events": [1979, 2001, 2017], "harvey_inundated": true, "notes": "Sunnyside and South Park are historically underserved neighborhoods along Sims Bayou in south Houston. Flooding here disproportionately impacts low-income communities of color. Harris County Flood Control has ongoing channel improvement projects.", "is_sample_data": true}, "geometry": {"type": "Polygon", "coordinates": [[[-95.38, 29.662], [-95.37, 29.66], [-95.358, 29.662], [-95.345, 29.665], [-95.335, 29.668], [-95.32, 29.67], [-95.31, 29.673], [-95.308, 29.678], [-95.312, 29.682], [-95.325, 29.68], [-95.338, 29.678], [-95.35, 29.675], [-95.362, 29.672], [-95.375, 29.67], [-95.382, 29.667], [-95.38, 29.662]]]}}, {"type": "Feature", "properties": {"id": 11, "zone": "AE", "flood_risk": "high", "zone_description": "Base Flood Elevations (BFEs) determined. Areas subject to inundation by the 1-percent-annual-chance (100-year) flood event with detailed hydraulic analysis.", "name": "San Jacinto River - Channelview / Houston Ship Channel East", "bayou": "San Jacinto River", "major_flood_events": [1994, 2017, 2019], "harvey_inundated": true, "notes": "The San Jacinto River and Houston Ship Channel industrial corridor experienced catastrophic flooding during Harvey. Floodwaters mixed with industrial chemicals and Superfund site contaminants, creating severe environmental hazards. EPA emergency response was required.", "is_sample_data": true}, "geometry": {"type": "Polygon", "coordinates": [[[-95.155, 29.735], [-95.14, 29.738], [-95.125, 29.74], [-95.11, 29.743], [-95.098, 29.748], [-95.09, 29.755], [-95.088, 29.762], [-95.092, 29.768], [-95.105, 29.765], [-95.118, 29.762], [-95.13, 29.758], [-95.142, 29.755], [-95.152, 29.75], [-95.158, 29.743], [-95.155, 29.735]]]}}, {"type": "Feature", "properties": {"id": 12, "zone": "VE", "flood_risk": "coastal", "zone_description": "Coastal high hazard area subject to inundation by the 1-percent-annual-chance (100-year) flood event with additional hazards due to storm-induced velocity wave action. Base Flood Elevations derived from detailed hydraulic coastal analyses.", "name": "Galveston Bay Coastal Zone", "bayou": "Galveston Bay / Trinity Bay", "major_flood_events": [1900, 1915, 1961, 1983, 2008, 2017], "harvey_inundated": true, "notes": "Coastal flood zone along Galveston Bay subject to storm surge, wave action, and tidal flooding. Hurricane Ike (2008) produced a devastating storm surge here. The proposed Ike Dike / coastal spine barrier would protect this area. VE zones require elevated construction on pilings.", "is_sample_data": true}, "geometry": {"type": "Polygon", "coordinates": [[[-95.1, 29.555], [-95.08, 29.55], [-95.055, 29.548], [-95.03, 29.55], [-95.01, 29.555], [-94.995, 29.562], [-94.99, 29.572], [-94.995, 29.582], [-95.01, 29.588], [-95.03, 29.59], [-95.05, 29.588], [-95.07, 29.585], [-95.088, 29.578], [-95.098, 29.57], [-95.102, 29.562], [-95.1, 29.555]]]}}, {"type": "Feature", "properties": {"id": 13, "zone": "AE", "flood_risk": "high", "zone_description": "Base Flood Elevations (BFEs) determined. Areas subject to inundation by the 1-percent-annual-chance (100-year) flood event with detailed hydraulic analysis.", "name": "Cypress Creek - Spring / Cypress", "bayou": "Cypress Creek", "major_flood_events": [1994, 2016, 2017], "harvey_inundated": true, "notes": "Cypress Creek flows through the rapidly urbanizing Spring and Cypress communities in northwest Harris County. Rapid development has increased impervious cover and runoff, worsening flooding. The Tax Day Flood (2016) and Harvey (2017) caused widespread damage here.", "is_sample_data": true}, "geometry": {"type": "Polygon", "coordinates": [[[-95.44, 29.892], [-95.428, 29.894], [-95.415, 29.896], [-95.402, 29.898], [-95.39, 29.9], [-95.378, 29.903], [-95.368, 29.907], [-95.365, 29.912], [-95.37, 29.915], [-95.382, 29.913], [-95.395, 29.91], [-95.408, 29.908], [-95.42, 29.905], [-95.432, 29.902], [-95.442, 29.898], [-95.44, 29.892]]]}}, {"type": "Feature", "properties": {"id": 14, "zone": "AE", "flood_risk": "high", "zone_description": "Base Flood Elevations (BFEs) determined. Areas subject to inundation by the 1-percent-annual-chance (100-year) flood event with detailed hydraulic analysis.", "name": "Clear Creek - Clear Lake Area", "bayou": "Clear Creek", "major_flood_events": [2017], "harvey_inundated": true, "notes": "Clear Creek drains southern Harris County near the NASA Johnson Space Center and Clear Lake community. Harvey caused unprecedented flooding along Clear Creek. The area is also subject to tidal influence from Galveston Bay, compounding flood risk during storm surge events.", "is_sample_data": true}, "geometry": {"type": "Polygon", "coordinates": [[[-95.18, 29.568], [-95.168, 29.565], [-95.155, 29.567], [-95.142, 29.57], [-95.13, 29.573], [-95.118, 29.576], [-95.108, 29.58], [-95.105, 29.585], [-95.11, 29.589], [-95.122, 29.587], [-95.135, 29.584], [-95.148, 29.581], [-95.16, 29.578], [-95.172, 29.575], [-95.182, 29.572], [-95.18, 29.568]]]}}, {"type": "Feature", "properties": {"id": 15, "zone": "X500", "flood_risk": "moderate", "zone_description": "Area of moderate flood hazard, usually depicted on FIRMs as between the limits of the 100-year and 500-year floods. Also known as Zone B or Zone X (shaded). Hurricane Harvey (2017) exceeded 500-year flood levels across much of Houston, inundating areas well outside traditional floodplains.", "name": "Hurricane Harvey Super-Flood Extent (2017)", "bayou": "Multiple - Buffalo, Brays, White Oak, Greens, Sims, Cypress, San Jacinto", "major_flood_events": [2017], "harvey_inundated": true, "notes": "Hurricane Harvey (August 25-30, 2017) dropped over 60 inches of rain on parts of Harris County over four days, making it the most significant rainfall event in US history. Over 150,000 homes were flooded, many outside any mapped floodplain. This polygon represents the approximate broader inundation extent across inner Houston, encompassing areas that had never flooded before. Total damage exceeded $125 billion. The event fundamentally changed Houston's approach to flood risk management and led to the $2.5 billion Harris County Flood Control bond (2018).", "is_sample_data": true}, "geometry": {"type": "Polygon", "coordinates": [[[-95.55, 29.65], [-95.5, 29.635], [-95.45, 29.63], [-95.4, 29.635], [-95.35, 29.64], [-95.3, 29.65], [-95.26, 29.67], [-95.24, 29.7], [-95.23, 29.73], [-95.23, 29.76], [-95.235, 29.79], [-95.245, 29.82], [-95.265, 29.845], [-95.295, 29.86], [-95.33, 29.87], [-95.37, 29.875], [-95.41, 29.875], [-95.45, 29.87], [-95.49, 29.86], [-95.525, 29.845], [-95.55, 29.825], [-95.57, 29.8], [-95.585, 29.775], [-95.59, 29.745], [-95.585, 29.715], [-95.575, 29.69], [-95.56, 29.668], [-95.55, 29.65]]]}}]}