{"type": "FeatureCollection", "metadata": {"title": "Houston Capital Flow Indicators by Zip Code", "description": "Capital flow and displacement risk indicators for Houston zip codes", "generated": "2026-02", "indicators": [{"id": "listing_velocity", "label": "Listing Velocity", "unit": "ratio", "description": "New listings / inventory ratio (higher = hotter market)"}, {"id": "price_trajectory", "label": "Price Trajectory", "unit": "%", "description": "3-year median price growth rate"}, {"id": "rental_yield", "label": "Rental Yield", "unit": "%", "description": "Gross rental yield (annual rent / home value)"}, {"id": "investor_activity", "label": "Investor Activity", "unit": "0-100", "description": "Composite investor activity index"}, {"id": "dom_shift", "label": "DOM Shift", "unit": "days", "description": "Days-on-market change (negative = faster sales)"}, {"id": "displacement_risk", "label": "Displacement Risk", "unit": "0-100", "description": "Weighted displacement risk score"}, {"id": "flip_rate", "label": "Flip Rate", "unit": "%", "description": "Estimated short-hold resale percentage"}, {"id": "affordability_cliff", "label": "Affordability Cliff", "unit": "ratio", "description": "Home price / (4x median income) \u2014 above 1.0 = unaffordable"}]}, "features": [{"type": "Feature", "geometry": {"type": "Polygon", "coordinates": [[[-95.341294, 29.7635], [-95.36, 29.7725], [-95.378706, 29.7635], [-95.378706, 29.7455], [-95.36, 29.7365], [-95.341294, 29.7455], [-95.341294, 29.7635]]]}, "properties": {"zip": "77002", "name": "Downtown", "median_household_income": 69137.0, "median_gross_rent": 1536.0, "median_home_value": 381723.0, "total_population": 15081.0, "renter_pct": 75.0, "rent_burden_pct": 25.0, "listing_velocity": 1.28, "price_trajectory": 26.3, "rental_yield": 4.83, "investor_activity": 57.8, "dom_shift": -8.6, "displacement_risk": 50.0, "flip_rate": 8.6, "affordability_cliff": 1.26, "is_sample_data": true}}, {"type": "Feature", "geometry": {"type": "Polygon", "coordinates": [[[-95.319137, 29.7621], [-95.342, 29.7731], [-95.364863, 29.7621], [-95.364863, 29.7401], [-95.342, 29.7291], [-95.319137, 29.7401], [-95.319137, 29.7621]]]}, "properties": {"zip": "77003", "name": "East Downtown / EaDo", "median_household_income": 55490.0, "median_gross_rent": 1237.0, "median_home_value": 304207.0, "total_population": 18330.0, "renter_pct": 60.0, "rent_burden_pct": 26.2, "listing_velocity": 1.26, "price_trajectory": 31.2, "rental_yield": 4.88, "investor_activity": 51.6, "dom_shift": -7.3, "displacement_risk": 64.5, "flip_rate": 8.9, "affordability_cliff": 1.45, "is_sample_data": true}}, {"type": "Feature", "geometry": {"type": "Polygon", "coordinates": [[[-95.328902, 29.737], [-95.358, 29.751], [-95.387098, 29.737], [-95.387098, 29.709], [-95.358, 29.695], [-95.328902, 29.709], [-95.328902, 29.737]]]}, "properties": {"zip": "77004", "name": "Third Ward / Midtown S", "median_household_income": 48497.0, "median_gross_rent": 1133.0, "median_home_value": 291547.0, "total_population": 32069.0, "renter_pct": 58.0, "rent_burden_pct": 27.5, "listing_velocity": 1.24, "price_trajectory": 44.2, "rental_yield": 4.66, "investor_activity": 43.8, "dom_shift": -9.9, "displacement_risk": 69.1, "flip_rate": 15.2, "affordability_cliff": 1.52, "is_sample_data": true}}, {"type": "Feature", "geometry": {"type": "Polygon", "coordinates": [[[-95.396215, 29.727], [-95.417, 29.737], [-95.437785, 29.727], [-95.437785, 29.707], [-95.417, 29.697], [-95.396215, 29.707], [-95.396215, 29.727]]]}, "properties": {"zip": "77005", "name": "West University", "median_household_income": 128413.0, "median_gross_rent": 1887.0, "median_home_value": 673095.0, "total_population": 22483.0, "renter_pct": 45.0, "rent_burden_pct": 17.3, "listing_velocity": 1.36, "price_trajectory": 24.6, "rental_yield": 3.36, "investor_activity": 32.8, "dom_shift": -1.3, "displacement_risk": 47.6, "flip_rate": 2.5, "affordability_cliff": 1.23, "is_sample_data": true}}, {"type": "Feature", "geometry": {"type": "Polygon", "coordinates": [[[-95.364137, 29.749], [-95.387, 29.76], [-95.409863, 29.749], [-95.409863, 29.727], [-95.387, 29.716], [-95.364137, 29.727], [-95.364137, 29.749]]]}, "properties": {"zip": "77006", "name": "Montrose", "median_household_income": 82204.0, "median_gross_rent": 1636.0, "median_home_value": 463843.0, "total_population": 27797.0, "renter_pct": 65.0, "rent_burden_pct": 22.6, "listing_velocity": 0.89, "price_trajectory": 21.1, "rental_yield": 4.23, "investor_activity": 42.0, "dom_shift": -3.4, "displacement_risk": 46.2, "flip_rate": 8.0, "affordability_cliff": 1.47, "is_sample_data": true}}, {"type": "Feature", "geometry": {"type": "Polygon", "coordinates": [[[-95.382019, 29.7835], [-95.408, 29.796], [-95.433981, 29.7835], [-95.433981, 29.7585], [-95.408, 29.746], [-95.382019, 29.7585], [-95.382019, 29.7835]]]}, "properties": {"zip": "77007", "name": "Heights East", "median_household_income": 86095.0, "median_gross_rent": 1718.0, "median_home_value": 493291.0, "total_population": 35457.0, "renter_pct": 55.0, "rent_burden_pct": 22.0, "listing_velocity": 1.24, "price_trajectory": 30.9, "rental_yield": 4.18, "investor_activity": 46.5, "dom_shift": -5.2, "displacement_risk": 56.1, "flip_rate": 11.5, "affordability_cliff": 1.55, "is_sample_data": true}}, {"type": "Feature", "geometry": {"type": "Polygon", "coordinates": [[[-95.388902, 29.804], [-95.418, 29.818], [-95.447098, 29.804], [-95.447098, 29.776], [-95.418, 29.762], [-95.388902, 29.776], [-95.388902, 29.804]]]}, "properties": {"zip": "77008", "name": "Heights West", "median_household_income": 81413.0, "median_gross_rent": 1562.0, "median_home_value": 414203.0, "total_population": 41193.0, "renter_pct": 50.0, "rent_burden_pct": 22.7, "listing_velocity": 0.94, "price_trajectory": 25.1, "rental_yield": 4.53, "investor_activity": 40.8, "dom_shift": -7.5, "displacement_risk": 49.3, "flip_rate": 9.6, "affordability_cliff": 1.43, "is_sample_data": true}}, {"type": "Feature", "geometry": {"type": "Polygon", "coordinates": [[[-95.325902, 29.803], [-95.355, 29.817], [-95.384098, 29.803], [-95.384098, 29.775], [-95.355, 29.761], [-95.325902, 29.775], [-95.325902, 29.803]]]}, "properties": {"zip": "77009", "name": "Northside / Near Northside", "median_household_income": 65623.0, "median_gross_rent": 1295.0, "median_home_value": 341299.0, "total_population": 38121.0, "renter_pct": 55.0, "rent_burden_pct": 24.0, "listing_velocity": 1.28, "price_trajectory": 29.3, "rental_yield": 4.55, "investor_activity": 48.0, "dom_shift": -8.9, "displacement_risk": 54.5, "flip_rate": 10.2, "affordability_cliff": 1.3, "is_sample_data": true}}, {"type": "Feature", "geometry": {"type": "Polygon", "coordinates": [[[-95.352529, 29.754], [-95.365, 29.76], [-95.377471, 29.754], [-95.377471, 29.742], [-95.365, 29.736], [-95.352529, 29.742], [-95.352529, 29.754]]]}, "properties": {"zip": "77010", "name": "Downtown Core", "median_household_income": 54867.0, "median_gross_rent": 1191.0, "median_home_value": 145710.0, "total_population": 25365.0, "renter_pct": 56.2, "rent_burden_pct": 26.2, "listing_velocity": 0.99, "price_trajectory": 29.3, "rental_yield": 9.81, "investor_activity": 57.4, "dom_shift": -3.1, "displacement_risk": 57.8, "flip_rate": 14.7, "affordability_cliff": 0.76, "is_sample_data": true}}, {"type": "Feature", "geometry": {"type": "Polygon", "coordinates": [[[-95.289019, 29.7505], [-95.315, 29.763], [-95.340981, 29.7505], [-95.340981, 29.7255], [-95.315, 29.713], [-95.289019, 29.7255], [-95.289019, 29.7505]]]}, "properties": {"zip": "77011", "name": "Magnolia Park / Harrisburg", "median_household_income": 39058.0, "median_gross_rent": 902.0, "median_home_value": 152009.0, "total_population": 24736.0, "renter_pct": 55.0, "rent_burden_pct": 28.4, "listing_velocity": 1.58, "price_trajectory": 46.0, "rental_yield": 7.12, "investor_activity": 61.3, "dom_shift": -9.0, "displacement_risk": 61.3, "flip_rate": 12.9, "affordability_cliff": 1.11, "is_sample_data": true}}, {"type": "Feature", "geometry": {"type": "Polygon", "coordinates": [[[-95.267902, 29.728], [-95.297, 29.742], [-95.326098, 29.728], [-95.326098, 29.7], [-95.297, 29.686], [-95.267902, 29.7], [-95.267902, 29.728]]]}, "properties": {"zip": "77012", "name": "Gulfgate / Park Place", "median_household_income": 41941.0, "median_gross_rent": 909.0, "median_home_value": 179560.0, "total_population": 30478.0, "renter_pct": 50.0, "rent_burden_pct": 27.1, "listing_velocity": 1.72, "price_trajectory": 34.9, "rental_yield": 6.07, "investor_activity": 81.9, "dom_shift": -6.0, "displacement_risk": 69.5, "flip_rate": 12.9, "affordability_cliff": 1.15, "is_sample_data": true}}, {"type": "Feature", "geometry": {"type": "Polygon", "coordinates": [[[-95.263431, 29.855], [-95.305, 29.875], [-95.346569, 29.855], [-95.346569, 29.815], [-95.305, 29.795], [-95.263431, 29.815], [-95.263431, 29.855]]]}, "properties": {"zip": "77016", "name": "Kashmere Gardens / Trinity", "median_household_income": 31676.0, "median_gross_rent": 864.0, "median_home_value": 118481.0, "total_population": 28671.0, "renter_pct": 50.0, "rent_burden_pct": 31.9, "listing_velocity": 1.78, "price_trajectory": 35.1, "rental_yield": 8.75, "investor_activity": 57.0, "dom_shift": -11.9, "displacement_risk": 75.4, "flip_rate": 15.9, "affordability_cliff": 0.81, "is_sample_data": true}}, {"type": "Feature", "geometry": {"type": "Polygon", "coordinates": [[[-95.235823, 29.7], [-95.267, 29.715], [-95.298177, 29.7], [-95.298177, 29.67], [-95.267, 29.655], [-95.235823, 29.67], [-95.235823, 29.7]]]}, "properties": {"zip": "77017", "name": "Park Place / Edgebrook", "median_household_income": 68155.0, "median_gross_rent": 990.0, "median_home_value": 261404.0, "total_population": 19452.0, "renter_pct": 58.4, "rent_burden_pct": 17.4, "listing_velocity": 1.92, "price_trajectory": 25.0, "rental_yield": 4.54, "investor_activity": 52.1, "dom_shift": -7.7, "displacement_risk": 47.6, "flip_rate": 11.9, "affordability_cliff": 0.89, "is_sample_data": true}}, {"type": "Feature", "geometry": {"type": "Polygon", "coordinates": [[[-95.418902, 29.825], [-95.448, 29.839], [-95.477098, 29.825], [-95.477098, 29.797], [-95.448, 29.783], [-95.418902, 29.797], [-95.418902, 29.825]]]}, "properties": {"zip": "77018", "name": "Oak Forest / Garden Oaks", "median_household_income": 67832.0, "median_gross_rent": 1199.0, "median_home_value": 337655.0, "total_population": 34839.0, "renter_pct": 45.0, "rent_burden_pct": 21.4, "listing_velocity": 1.65, "price_trajectory": 28.0, "rental_yield": 4.26, "investor_activity": 53.7, "dom_shift": -4.1, "displacement_risk": 65.0, "flip_rate": 12.2, "affordability_cliff": 1.25, "is_sample_data": true}}, {"type": "Feature", "geometry": {"type": "Polygon", "coordinates": [[[-95.382137, 29.767], [-95.405, 29.778], [-95.427863, 29.767], [-95.427863, 29.745], [-95.405, 29.734], [-95.382137, 29.745], [-95.382137, 29.767]]]}, "properties": {"zip": "77019", "name": "River Oaks / Montrose N", "median_household_income": 155043.0, "median_gross_rent": 2188.0, "median_home_value": 843359.0, "total_population": 17760.0, "renter_pct": 50.0, "rent_burden_pct": 16.5, "listing_velocity": 0.6, "price_trajectory": 16.2, "rental_yield": 3.11, "investor_activity": 8.8, "dom_shift": 3.6, "displacement_risk": 32.6, "flip_rate": 1.8, "affordability_cliff": 1.51, "is_sample_data": true}}, {"type": "Feature", "geometry": {"type": "Polygon", "coordinates": [[[-95.283902, 29.778], [-95.313, 29.792], [-95.342098, 29.778], [-95.342098, 29.75], [-95.313, 29.736], [-95.283902, 29.75], [-95.283902, 29.778]]]}, "properties": {"zip": "77020", "name": "Denver Harbor / Fifth Ward", "median_household_income": 36492.0, "median_gross_rent": 910.0, "median_home_value": 135328.0, "total_population": 21981.0, "renter_pct": 52.0, "rent_burden_pct": 30.2, "listing_velocity": 1.14, "price_trajectory": 39.4, "rental_yield": 8.07, "investor_activity": 61.6, "dom_shift": -8.6, "displacement_risk": 71.3, "flip_rate": 16.2, "affordability_cliff": 0.84, "is_sample_data": true}}, {"type": "Feature", "geometry": {"type": "Polygon", "coordinates": [[[-95.318823, 29.715], [-95.35, 29.73], [-95.381177, 29.715], [-95.381177, 29.685], [-95.35, 29.67], [-95.318823, 29.685], [-95.318823, 29.715]]]}, "properties": {"zip": "77021", "name": "Riverside Terrace / Sunnyside N", "median_household_income": 39737.0, "median_gross_rent": 965.0, "median_home_value": 165920.0, "total_population": 27353.0, "renter_pct": 55.0, "rent_burden_pct": 29.1, "listing_velocity": 1.21, "price_trajectory": 37.2, "rental_yield": 6.98, "investor_activity": 69.2, "dom_shift": -11.7, "displacement_risk": 60.6, "flip_rate": 11.5, "affordability_cliff": 1.16, "is_sample_data": true}}, {"type": "Feature", "geometry": {"type": "Polygon", "coordinates": [[[-95.344019, 29.8255], [-95.37, 29.838], [-95.395981, 29.8255], [-95.395981, 29.8005], [-95.37, 29.788], [-95.344019, 29.8005], [-95.344019, 29.8255]]]}, "properties": {"zip": "77022", "name": "Lindale Park / Moody Park", "median_household_income": 36010.0, "median_gross_rent": 900.0, "median_home_value": 140032.0, "total_population": 20552.0, "renter_pct": 58.0, "rent_burden_pct": 29.0, "listing_velocity": 1.25, "price_trajectory": 37.9, "rental_yield": 7.71, "investor_activity": 54.3, "dom_shift": -11.5, "displacement_risk": 66.5, "flip_rate": 15.9, "affordability_cliff": 0.84, "is_sample_data": true}}, {"type": "Feature", "geometry": {"type": "Polygon", "coordinates": [[[-95.290902, 29.735], [-95.32, 29.749], [-95.349098, 29.735], [-95.349098, 29.707], [-95.32, 29.693], [-95.290902, 29.707], [-95.290902, 29.735]]]}, "properties": {"zip": "77023", "name": "Second Ward / Eastwood", "median_household_income": 38158.0, "median_gross_rent": 910.0, "median_home_value": 182832.0, "total_population": 35136.0, "renter_pct": 52.0, "rent_burden_pct": 28.5, "listing_velocity": 2.17, "price_trajectory": 55.0, "rental_yield": 5.97, "investor_activity": 70.6, "dom_shift": -7.8, "displacement_risk": 65.2, "flip_rate": 12.2, "affordability_cliff": 1.15, "is_sample_data": true}}, {"type": "Feature", "geometry": {"type": "Polygon", "coordinates": [[[-95.446431, 29.794], [-95.488, 29.814], [-95.529569, 29.794], [-95.529569, 29.754], [-95.488, 29.734], [-95.446431, 29.754], [-95.446431, 29.794]]]}, "properties": {"zip": "77024", "name": "Memorial / Piney Point", "median_household_income": 192936.0, "median_gross_rent": 2504.0, "median_home_value": 874857.0, "total_population": 35254.0, "renter_pct": 30.0, "rent_burden_pct": 15.6, "listing_velocity": 1.25, "price_trajectory": 24.3, "rental_yield": 3.43, "investor_activity": 22.7, "dom_shift": -3.8, "displacement_risk": 36.7, "flip_rate": 5.7, "affordability_cliff": 1.06, "is_sample_data": true}}, {"type": "Feature", "geometry": {"type": "Polygon", "coordinates": [[[-95.396019, 29.7055], [-95.422, 29.718], [-95.447981, 29.7055], [-95.447981, 29.6805], [-95.422, 29.668], [-95.396019, 29.6805], [-95.396019, 29.7055]]]}, "properties": {"zip": "77025", "name": "Braeswood / Meyerland N", "median_household_income": 71554.0, "median_gross_rent": 1355.0, "median_home_value": 313680.0, "total_population": 30870.0, "renter_pct": 45.0, "rent_burden_pct": 22.5, "listing_velocity": 1.79, "price_trajectory": 36.0, "rental_yield": 5.18, "investor_activity": 46.6, "dom_shift": -5.3, "displacement_risk": 63.7, "flip_rate": 10.2, "affordability_cliff": 0.96, "is_sample_data": true}}, {"type": "Feature", "geometry": {"type": "Polygon", "coordinates": [[[-95.303019, 29.7945], [-95.329, 29.807], [-95.354981, 29.7945], [-95.354981, 29.7695], [-95.329, 29.757], [-95.303019, 29.7695], [-95.303019, 29.7945]]]}, "properties": {"zip": "77026", "name": "Fifth Ward / Lyons Ave", "median_household_income": 27035.0, "median_gross_rent": 782.0, "median_home_value": 92250.0, "total_population": 17830.0, "renter_pct": 55.0, "rent_burden_pct": 34.3, "listing_velocity": 1.43, "price_trajectory": 41.5, "rental_yield": 10.17, "investor_activity": 68.0, "dom_shift": -6.8, "displacement_risk": 76.9, "flip_rate": 14.7, "affordability_cliff": 0.87, "is_sample_data": true}}, {"type": "Feature", "geometry": {"type": "Polygon", "coordinates": [[[-95.414294, 29.75], [-95.433, 29.759], [-95.451706, 29.75], [-95.451706, 29.732], [-95.433, 29.723], [-95.414294, 29.732], [-95.414294, 29.75]]]}, "properties": {"zip": "77027", "name": "Galleria / River Oaks S", "median_household_income": 127836.0, "median_gross_rent": 1926.0, "median_home_value": 733585.0, "total_population": 14695.0, "renter_pct": 55.0, "rent_burden_pct": 18.5, "listing_velocity": 1.19, "price_trajectory": 16.5, "rental_yield": 3.15, "investor_activity": 19.9, "dom_shift": -2.1, "displacement_risk": 33.2, "flip_rate": 4.7, "affordability_cliff": 1.25, "is_sample_data": true}}, {"type": "Feature", "geometry": {"type": "Polygon", "coordinates": [[[-95.268902, 29.822], [-95.298, 29.836], [-95.327098, 29.822], [-95.327098, 29.794], [-95.298, 29.78], [-95.268902, 29.794], [-95.268902, 29.822]]]}, "properties": {"zip": "77028", "name": "Settegast / Pleasantville", "median_household_income": 28625.0, "median_gross_rent": 808.0, "median_home_value": 109547.0, "total_population": 15424.0, "renter_pct": 52.0, "rent_burden_pct": 32.8, "listing_velocity": 1.83, "price_trajectory": 44.6, "rental_yield": 8.85, "investor_activity": 61.5, "dom_shift": -12.2, "displacement_risk": 79.0, "flip_rate": 16.8, "affordability_cliff": 0.86, "is_sample_data": true}}, {"type": "Feature", "geometry": {"type": "Polygon", "coordinates": [[[-95.223627, 29.7775], [-95.26, 29.795], [-95.296373, 29.7775], [-95.296373, 29.7425], [-95.26, 29.725], [-95.223627, 29.7425], [-95.223627, 29.7775]]]}, "properties": {"zip": "77029", "name": "Channelview / Cloverleaf W", "median_household_income": 34078.0, "median_gross_rent": 830.0, "median_home_value": 133898.0, "total_population": 21573.0, "renter_pct": 48.0, "rent_burden_pct": 29.5, "listing_velocity": 1.98, "price_trajectory": 48.6, "rental_yield": 7.44, "investor_activity": 63.3, "dom_shift": -10.8, "displacement_risk": 67.5, "flip_rate": 18.0, "affordability_cliff": 0.87, "is_sample_data": true}}, {"type": "Feature", "geometry": {"type": "Polygon", "coordinates": [[[-95.374137, 29.717], [-95.397, 29.728], [-95.419863, 29.717], [-95.419863, 29.695], [-95.397, 29.684], [-95.374137, 29.695], [-95.374137, 29.717]]]}, "properties": {"zip": "77030", "name": "Texas Medical Center", "median_household_income": 64863.0, "median_gross_rent": 1395.0, "median_home_value": 339485.0, "total_population": 20502.0, "renter_pct": 65.0, "rent_burden_pct": 24.7, "listing_velocity": 0.97, "price_trajectory": 32.7, "rental_yield": 4.93, "investor_activity": 54.2, "dom_shift": -3.4, "displacement_risk": 63.3, "flip_rate": 8.6, "affordability_cliff": 1.47, "is_sample_data": true}}, {"type": "Feature", "geometry": {"type": "Polygon", "coordinates": [[[-95.485823, 29.687], [-95.517, 29.702], [-95.548177, 29.687], [-95.548177, 29.657], [-95.517, 29.642], [-95.485823, 29.657], [-95.485823, 29.687]]]}, "properties": {"zip": "77031", "name": "Alief East / Sharpstown S", "median_household_income": 48895.0, "median_gross_rent": 1064.0, "median_home_value": 197993.0, "total_population": 36010.0, "renter_pct": 50.0, "rent_burden_pct": 25.2, "listing_velocity": 1.57, "price_trajectory": 33.3, "rental_yield": 6.45, "investor_activity": 55.4, "dom_shift": -8.2, "displacement_risk": 59.4, "flip_rate": 14.6, "affordability_cliff": 0.99, "is_sample_data": true}}, {"type": "Feature", "geometry": {"type": "Polygon", "coordinates": [[[-95.298823, 29.685], [-95.33, 29.7], [-95.361177, 29.685], [-95.361177, 29.655], [-95.33, 29.64], [-95.298823, 29.655], [-95.298823, 29.685]]]}, "properties": {"zip": "77033", "name": "South Acres / Crestmont", "median_household_income": 33945.0, "median_gross_rent": 834.0, "median_home_value": 120568.0, "total_population": 19538.0, "renter_pct": 50.0, "rent_burden_pct": 30.5, "listing_velocity": 1.05, "price_trajectory": 53.7, "rental_yield": 8.3, "investor_activity": 69.1, "dom_shift": -8.9, "displacement_risk": 63.1, "flip_rate": 9.7, "affordability_cliff": 0.99, "is_sample_data": true}}, {"type": "Feature", "geometry": {"type": "Polygon", "coordinates": [[[-95.188627, 29.6485], [-95.225, 29.666], [-95.261373, 29.6485], [-95.261373, 29.6135], [-95.225, 29.596], [-95.188627, 29.6135], [-95.188627, 29.6485]]]}, "properties": {"zip": "77034", "name": "Ellington / South Belt W", "median_household_income": 66102.0, "median_gross_rent": 1373.0, "median_home_value": 294960.0, "total_population": 27600.0, "renter_pct": 43.4, "rent_burden_pct": 23.5, "listing_velocity": 1.82, "price_trajectory": 38.1, "rental_yield": 5.59, "investor_activity": 45.6, "dom_shift": -8.0, "displacement_risk": 66.6, "flip_rate": 11.6, "affordability_cliff": 1.0, "is_sample_data": true}}, {"type": "Feature", "geometry": {"type": "Polygon", "coordinates": [[[-95.437902, 29.684], [-95.467, 29.698], [-95.496098, 29.684], [-95.496098, 29.656], [-95.467, 29.642], [-95.437902, 29.656], [-95.437902, 29.684]]]}, "properties": {"zip": "77035", "name": "Meyerland / Willowbend", "median_household_income": 76236.0, "median_gross_rent": 1284.0, "median_home_value": 317692.0, "total_population": 31374.0, "renter_pct": 35.0, "rent_burden_pct": 20.8, "listing_velocity": 1.87, "price_trajectory": 45.1, "rental_yield": 4.85, "investor_activity": 52.2, "dom_shift": -6.8, "displacement_risk": 55.8, "flip_rate": 15.4, "affordability_cliff": 1.16, "is_sample_data": true}}, {"type": "Feature", "geometry": {"type": "Polygon", "coordinates": [[[-95.494823, 29.71], [-95.526, 29.725], [-95.557177, 29.71], [-95.557177, 29.68], [-95.526, 29.665], [-95.494823, 29.68], [-95.494823, 29.71]]]}, "properties": {"zip": "77036", "name": "Sharpstown / Chinatown", "median_household_income": 44739.0, "median_gross_rent": 971.0, "median_home_value": 189490.0, "total_population": 56323.0, "renter_pct": 60.0, "rent_burden_pct": 26.7, "listing_velocity": 1.66, "price_trajectory": 38.7, "rental_yield": 6.15, "investor_activity": 78.8, "dom_shift": -5.2, "displacement_risk": 78.0, "flip_rate": 12.2, "affordability_cliff": 1.15, "is_sample_data": true}}, {"type": "Feature", "geometry": {"type": "Polygon", "coordinates": [[[-95.346823, 29.886], [-95.378, 29.901], [-95.409177, 29.886], [-95.409177, 29.856], [-95.378, 29.841], [-95.346823, 29.856], [-95.346823, 29.886]]]}, "properties": {"zip": "77037", "name": "Acres Homes N", "median_household_income": 55397.0, "median_gross_rent": 868.0, "median_home_value": 318633.0, "total_population": 29926.0, "renter_pct": 36.4, "rent_burden_pct": 18.9, "listing_velocity": 1.07, "price_trajectory": 28.2, "rental_yield": 3.27, "investor_activity": 69.3, "dom_shift": -4.8, "displacement_risk": 60.3, "flip_rate": 12.0, "affordability_cliff": 1.45, "is_sample_data": true}}, {"type": "Feature", "geometry": {"type": "Polygon", "coordinates": [[[-95.370627, 29.9225], [-95.407, 29.94], [-95.443373, 29.9225], [-95.443373, 29.8875], [-95.407, 29.87], [-95.370627, 29.8875], [-95.370627, 29.9225]]]}, "properties": {"zip": "77038", "name": "Greenspoint W", "median_household_income": 70163.0, "median_gross_rent": 1017.0, "median_home_value": 320416.0, "total_population": 48424.0, "renter_pct": 44.1, "rent_burden_pct": 16.5, "listing_velocity": 1.53, "price_trajectory": 38.3, "rental_yield": 3.81, "investor_activity": 57.2, "dom_shift": -2.3, "displacement_risk": 58.2, "flip_rate": 11.8, "affordability_cliff": 1.18, "is_sample_data": true}}, {"type": "Feature", "geometry": {"type": "Polygon", "coordinates": [[[-95.303627, 29.9295], [-95.34, 29.947], [-95.376373, 29.9295], [-95.376373, 29.8945], [-95.34, 29.877], [-95.303627, 29.8945], [-95.303627, 29.9295]]]}, "properties": {"zip": "77039", "name": "Aldine / Eastex", "median_household_income": 71022.0, "median_gross_rent": 1296.0, "median_home_value": 139660.0, "total_population": 23084.0, "renter_pct": 48.3, "rent_burden_pct": 22.2, "listing_velocity": 1.34, "price_trajectory": 31.8, "rental_yield": 11.14, "investor_activity": 46.1, "dom_shift": -8.7, "displacement_risk": 56.7, "flip_rate": 12.9, "affordability_cliff": 0.52, "is_sample_data": true}}, {"type": "Feature", "geometry": {"type": "Polygon", "coordinates": [[[-95.483627, 29.8655], [-95.52, 29.883], [-95.556373, 29.8655], [-95.556373, 29.8305], [-95.52, 29.813], [-95.483627, 29.8305], [-95.483627, 29.8655]]]}, "properties": {"zip": "77040", "name": "Northwest Crossing", "median_household_income": 59413.0, "median_gross_rent": 1147.0, "median_home_value": 224461.0, "total_population": 39393.0, "renter_pct": 45.0, "rent_burden_pct": 23.8, "listing_velocity": 1.16, "price_trajectory": 36.4, "rental_yield": 6.13, "investor_activity": 54.2, "dom_shift": -8.0, "displacement_risk": 59.9, "flip_rate": 9.5, "affordability_cliff": 0.92, "is_sample_data": true}}, {"type": "Feature", "geometry": {"type": "Polygon", "coordinates": [[[-95.528627, 29.8745], [-95.565, 29.892], [-95.601373, 29.8745], [-95.601373, 29.8395], [-95.565, 29.822], [-95.528627, 29.8395], [-95.528627, 29.8745]]]}, "properties": {"zip": "77041", "name": "Jersey Village S", "median_household_income": 52040.0, "median_gross_rent": 1255.0, "median_home_value": 135236.0, "total_population": 29877.0, "renter_pct": 43.6, "rent_burden_pct": 28.3, "listing_velocity": 1.18, "price_trajectory": 39.6, "rental_yield": 11.14, "investor_activity": 66.7, "dom_shift": -7.8, "displacement_risk": 63.0, "flip_rate": 10.2, "affordability_cliff": 0.61, "is_sample_data": true}}, {"type": "Feature", "geometry": {"type": "Polygon", "coordinates": [[[-95.522823, 29.742], [-95.554, 29.757], [-95.585177, 29.742], [-95.585177, 29.712], [-95.554, 29.697], [-95.522823, 29.712], [-95.522823, 29.742]]]}, "properties": {"zip": "77042", "name": "Westchase / Briar Forest S", "median_household_income": 71888.0, "median_gross_rent": 1410.0, "median_home_value": 276066.0, "total_population": 30685.0, "renter_pct": 50.0, "rent_burden_pct": 23.1, "listing_velocity": 1.34, "price_trajectory": 35.3, "rental_yield": 6.13, "investor_activity": 44.3, "dom_shift": -5.0, "displacement_risk": 65.0, "flip_rate": 11.3, "affordability_cliff": 0.84, "is_sample_data": true}}, {"type": "Feature", "geometry": {"type": "Polygon", "coordinates": [[[-95.506823, 29.794], [-95.538, 29.809], [-95.569177, 29.794], [-95.569177, 29.764], [-95.538, 29.749], [-95.506823, 29.764], [-95.506823, 29.794]]]}, "properties": {"zip": "77043", "name": "Spring Branch N", "median_household_income": 59182.0, "median_gross_rent": 1227.0, "median_home_value": 258189.0, "total_population": 29751.0, "renter_pct": 42.6, "rent_burden_pct": 24.4, "listing_velocity": 1.52, "price_trajectory": 34.9, "rental_yield": 5.7, "investor_activity": 64.7, "dom_shift": -4.1, "displacement_risk": 57.1, "flip_rate": 7.8, "affordability_cliff": 1.08, "is_sample_data": true}}, {"type": "Feature", "geometry": {"type": "Polygon", "coordinates": [[[-95.143235, 29.8755], [-95.19, 29.898], [-95.236765, 29.8755], [-95.236765, 29.8305], [-95.19, 29.808], [-95.143235, 29.8305], [-95.143235, 29.8755]]]}, "properties": {"zip": "77044", "name": "Atascocita / Generation Park", "median_household_income": 69504.0, "median_gross_rent": 857.0, "median_home_value": 216183.0, "total_population": 16534.0, "renter_pct": 47.3, "rent_burden_pct": 14.2, "listing_velocity": 1.45, "price_trajectory": 32.6, "rental_yield": 4.76, "investor_activity": 48.3, "dom_shift": -5.4, "displacement_risk": 47.7, "flip_rate": 10.2, "affordability_cliff": 0.84, "is_sample_data": true}}, {"type": "Feature", "geometry": {"type": "Polygon", "coordinates": [[[-95.383745, 29.663], [-95.417, 29.679], [-95.450255, 29.663], [-95.450255, 29.631], [-95.417, 29.615], [-95.383745, 29.631], [-95.383745, 29.663]]]}, "properties": {"zip": "77045", "name": "South Main / Hiram Clarke", "median_household_income": 45177.0, "median_gross_rent": 1049.0, "median_home_value": 177299.0, "total_population": 25225.0, "renter_pct": 45.0, "rent_burden_pct": 26.7, "listing_velocity": 1.54, "price_trajectory": 32.9, "rental_yield": 7.1, "investor_activity": 71.9, "dom_shift": -3.8, "displacement_risk": 57.6, "flip_rate": 15.2, "affordability_cliff": 1.07, "is_sample_data": true}}, {"type": "Feature", "geometry": {"type": "Polygon", "coordinates": [[[-95.402412, 29.7455], [-95.418, 29.753], [-95.433588, 29.7455], [-95.433588, 29.7305], [-95.418, 29.723], [-95.402412, 29.7305], [-95.402412, 29.7455]]]}, "properties": {"zip": "77046", "name": "Upper Kirby / Greenway", "median_household_income": 105758.0, "median_gross_rent": 1985.0, "median_home_value": 548076.0, "total_population": 11824.0, "renter_pct": 60.0, "rent_burden_pct": 20.7, "listing_velocity": 1.49, "price_trajectory": 31.5, "rental_yield": 4.35, "investor_activity": 47.0, "dom_shift": -4.3, "displacement_risk": 55.1, "flip_rate": 10.5, "affordability_cliff": 1.45, "is_sample_data": true}}, {"type": "Feature", "geometry": {"type": "Polygon", "coordinates": [[[-95.338627, 29.6375], [-95.375, 29.655], [-95.411373, 29.6375], [-95.411373, 29.6025], [-95.375, 29.585], [-95.338627, 29.6025], [-95.338627, 29.6375]]]}, "properties": {"zip": "77047", "name": "Sunnyside / Reed Rd", "median_household_income": 43713.0, "median_gross_rent": 948.0, "median_home_value": 177505.0, "total_population": 27493.0, "renter_pct": 48.0, "rent_burden_pct": 27.4, "listing_velocity": 1.72, "price_trajectory": 30.9, "rental_yield": 6.41, "investor_activity": 72.8, "dom_shift": -7.7, "displacement_risk": 67.4, "flip_rate": 10.4, "affordability_cliff": 0.95, "is_sample_data": true}}, {"type": "Feature", "geometry": {"type": "Polygon", "coordinates": [[[-95.283627, 29.6225], [-95.32, 29.64], [-95.356373, 29.6225], [-95.356373, 29.5875], [-95.32, 29.57], [-95.283627, 29.5875], [-95.283627, 29.6225]]]}, "properties": {"zip": "77048", "name": "Hobby Area / South Houston W", "median_household_income": 39713.0, "median_gross_rent": 927.0, "median_home_value": 160095.0, "total_population": 19809.0, "renter_pct": 50.0, "rent_burden_pct": 28.2, "listing_velocity": 1.3, "price_trajectory": 35.5, "rental_yield": 6.95, "investor_activity": 60.0, "dom_shift": -9.5, "displacement_risk": 56.2, "flip_rate": 12.4, "affordability_cliff": 0.98, "is_sample_data": true}}, {"type": "Feature", "geometry": {"type": "Polygon", "coordinates": [[[-95.113235, 29.8235], [-95.16, 29.846], [-95.206765, 29.8235], [-95.206765, 29.7785], [-95.16, 29.756], [-95.113235, 29.7785], [-95.113235, 29.8235]]]}, "properties": {"zip": "77049", "name": "Sheldon / Channelview E", "median_household_income": 63631.0, "median_gross_rent": 985.0, "median_home_value": 235053.0, "total_population": 49144.0, "renter_pct": 59.7, "rent_burden_pct": 17.6, "listing_velocity": 1.16, "price_trajectory": 43.4, "rental_yield": 5.03, "investor_activity": 61.0, "dom_shift": -8.0, "displacement_risk": 64.1, "flip_rate": 6.9, "affordability_cliff": 0.99, "is_sample_data": true}}, {"type": "Feature", "geometry": {"type": "Polygon", "coordinates": [[[-95.248627, 29.8975], [-95.285, 29.915], [-95.321373, 29.8975], [-95.321373, 29.8625], [-95.285, 29.845], [-95.248627, 29.8625], [-95.248627, 29.8975]]]}, "properties": {"zip": "77050", "name": "IAH South / Aldine E", "median_household_income": 41363.0, "median_gross_rent": 1067.0, "median_home_value": 238039.0, "total_population": 44977.0, "renter_pct": 57.7, "rent_burden_pct": 32.0, "listing_velocity": 2.08, "price_trajectory": 39.9, "rental_yield": 5.38, "investor_activity": 72.4, "dom_shift": -5.5, "displacement_risk": 67.2, "flip_rate": 11.9, "affordability_cliff": 1.37, "is_sample_data": true}}, {"type": "Feature", "geometry": {"type": "Polygon", "coordinates": [[[-95.340902, 29.672], [-95.37, 29.686], [-95.399098, 29.672], [-95.399098, 29.644], [-95.37, 29.63], [-95.340902, 29.644], [-95.340902, 29.672]]]}, "properties": {"zip": "77051", "name": "Sunnyside / South Park", "median_household_income": 30660.0, "median_gross_rent": 809.0, "median_home_value": 102581.0, "total_population": 16182.0, "renter_pct": 52.0, "rent_burden_pct": 32.4, "listing_velocity": 1.71, "price_trajectory": 33.8, "rental_yield": 9.46, "investor_activity": 64.7, "dom_shift": -4.8, "displacement_risk": 63.4, "flip_rate": 12.8, "affordability_cliff": 0.87, "is_sample_data": true}}, {"type": "Feature", "geometry": {"type": "Polygon", "coordinates": [[[-95.448431, 29.615], [-95.49, 29.635], [-95.531569, 29.615], [-95.531569, 29.575], [-95.49, 29.555], [-95.448431, 29.575], [-95.448431, 29.615]]]}, "properties": {"zip": "77053", "name": "Fort Bend / Missouri City N", "median_household_income": 49675.0, "median_gross_rent": 1204.0, "median_home_value": 308758.0, "total_population": 38786.0, "renter_pct": 57.7, "rent_burden_pct": 29.4, "listing_velocity": 1.2, "price_trajectory": 27.1, "rental_yield": 4.68, "investor_activity": 48.7, "dom_shift": -9.1, "displacement_risk": 56.5, "flip_rate": 15.1, "affordability_cliff": 1.44, "is_sample_data": true}}, {"type": "Feature", "geometry": {"type": "Polygon", "coordinates": [[[-95.377215, 29.702], [-95.398, 29.712], [-95.418785, 29.702], [-95.418785, 29.682], [-95.398, 29.672], [-95.377215, 29.682], [-95.377215, 29.702]]]}, "properties": {"zip": "77054", "name": "South Main / Astrodome", "median_household_income": 53240.0, "median_gross_rent": 1075.0, "median_home_value": 242150.0, "total_population": 18281.0, "renter_pct": 65.0, "rent_burden_pct": 25.4, "listing_velocity": 0.98, "price_trajectory": 42.7, "rental_yield": 5.33, "investor_activity": 52.8, "dom_shift": -9.0, "displacement_risk": 67.9, "flip_rate": 14.7, "affordability_cliff": 1.03, "is_sample_data": true}}, {"type": "Feature", "geometry": {"type": "Polygon", "coordinates": [[[-95.442902, 29.804], [-95.472, 29.818], [-95.501098, 29.804], [-95.501098, 29.776], [-95.472, 29.762], [-95.442902, 29.776], [-95.442902, 29.804]]]}, "properties": {"zip": "77055", "name": "Spring Branch S", "median_household_income": 61431.0, "median_gross_rent": 988.0, "median_home_value": 203170.0, "total_population": 22772.0, "renter_pct": 64.6, "rent_burden_pct": 20.1, "listing_velocity": 0.94, "price_trajectory": 28.6, "rental_yield": 5.84, "investor_activity": 46.8, "dom_shift": -7.7, "displacement_risk": 58.8, "flip_rate": 8.4, "affordability_cliff": 0.89, "is_sample_data": true}}, {"type": "Feature", "geometry": {"type": "Polygon", "coordinates": [[[-95.444215, 29.758], [-95.465, 29.768], [-95.485785, 29.758], [-95.485785, 29.738], [-95.465, 29.728], [-95.444215, 29.738], [-95.444215, 29.758]]]}, "properties": {"zip": "77056", "name": "Tanglewood / Galleria W", "median_household_income": 119159.0, "median_gross_rent": 1874.0, "median_home_value": 573920.0, "total_population": 21989.0, "renter_pct": 60.0, "rent_burden_pct": 20.3, "listing_velocity": 0.85, "price_trajectory": 28.6, "rental_yield": 3.92, "investor_activity": 15.4, "dom_shift": -2.9, "displacement_risk": 51.0, "flip_rate": 5.3, "affordability_cliff": 1.05, "is_sample_data": true}}, {"type": "Feature", "geometry": {"type": "Polygon", "coordinates": [[[-95.467137, 29.757], [-95.49, 29.768], [-95.512863, 29.757], [-95.512863, 29.735], [-95.49, 29.724], [-95.467137, 29.735], [-95.467137, 29.757]]]}, "properties": {"zip": "77057", "name": "Westheimer / Uptown E", "median_household_income": 66889.0, "median_gross_rent": 1264.0, "median_home_value": 280632.0, "total_population": 24925.0, "renter_pct": 65.0, "rent_burden_pct": 24.0, "listing_velocity": 1.61, "price_trajectory": 27.8, "rental_yield": 5.4, "investor_activity": 63.2, "dom_shift": -2.6, "displacement_risk": 69.1, "flip_rate": 12.7, "affordability_cliff": 1.03, "is_sample_data": true}}, {"type": "Feature", "geometry": {"type": "Polygon", "coordinates": [[[-95.063627, 29.5825], [-95.1, 29.6], [-95.136373, 29.5825], [-95.136373, 29.5475], [-95.1, 29.53], [-95.063627, 29.5475], [-95.063627, 29.5825]]]}, "properties": {"zip": "77058", "name": "Clear Lake / NASA", "median_household_income": 37315.0, "median_gross_rent": 877.0, "median_home_value": 321609.0, "total_population": 28234.0, "renter_pct": 58.8, "rent_burden_pct": 27.8, "listing_velocity": 1.48, "price_trajectory": 40.2, "rental_yield": 3.27, "investor_activity": 62.9, "dom_shift": -11.7, "displacement_risk": 71.3, "flip_rate": 16.8, "affordability_cliff": 2.11, "is_sample_data": true}}, {"type": "Feature", "geometry": {"type": "Polygon", "coordinates": [[[-95.083627, 29.6045], [-95.12, 29.622], [-95.156373, 29.6045], [-95.156373, 29.5695], [-95.12, 29.552], [-95.083627, 29.5695], [-95.083627, 29.6045]]]}, "properties": {"zip": "77059", "name": "Clear Lake S / Bay Area", "median_household_income": 56165.0, "median_gross_rent": 1120.0, "median_home_value": 308088.0, "total_population": 19854.0, "renter_pct": 39.2, "rent_burden_pct": 24.3, "listing_velocity": 1.88, "price_trajectory": 34.1, "rental_yield": 4.36, "investor_activity": 61.8, "dom_shift": -6.0, "displacement_risk": 66.9, "flip_rate": 12.3, "affordability_cliff": 1.51, "is_sample_data": true}}, {"type": "Feature", "geometry": {"type": "Polygon", "coordinates": [[[-95.343823, 29.908], [-95.375, 29.923], [-95.406177, 29.908], [-95.406177, 29.878], [-95.375, 29.863], [-95.343823, 29.878], [-95.343823, 29.908]]]}, "properties": {"zip": "77060", "name": "Greenspoint", "median_household_income": 54107.0, "median_gross_rent": 984.0, "median_home_value": 137874.0, "total_population": 35092.0, "renter_pct": 63.2, "rent_burden_pct": 21.6, "listing_velocity": 1.28, "price_trajectory": 30.7, "rental_yield": 8.56, "investor_activity": 56.2, "dom_shift": -2.9, "displacement_risk": 66.6, "flip_rate": 8.7, "affordability_cliff": 0.69, "is_sample_data": true}}, {"type": "Feature", "geometry": {"type": "Polygon", "coordinates": [[[-95.262019, 29.6775], [-95.288, 29.69], [-95.313981, 29.6775], [-95.313981, 29.6525], [-95.288, 29.64], [-95.262019, 29.6525], [-95.262019, 29.6775]]]}, "properties": {"zip": "77061", "name": "Gulfgate S / Telephone Rd", "median_household_income": 64348.0, "median_gross_rent": 840.0, "median_home_value": 269268.0, "total_population": 43765.0, "renter_pct": 63.8, "rent_burden_pct": 16.6, "listing_velocity": 1.43, "price_trajectory": 35.6, "rental_yield": 3.74, "investor_activity": 49.6, "dom_shift": -2.5, "displacement_risk": 64.2, "flip_rate": 12.0, "affordability_cliff": 1.11, "is_sample_data": true}}, {"type": "Feature", "geometry": {"type": "Polygon", "coordinates": [[[-95.103823, 29.585], [-95.135, 29.6], [-95.166177, 29.585], [-95.166177, 29.555], [-95.135, 29.54], [-95.103823, 29.555], [-95.103823, 29.585]]]}, "properties": {"zip": "77062", "name": "Clear Lake N / El Lago", "median_household_income": 53459.0, "median_gross_rent": 1447.0, "median_home_value": 126387.0, "total_population": 26616.0, "renter_pct": 42.1, "rent_burden_pct": 31.7, "listing_velocity": 1.59, "price_trajectory": 37.0, "rental_yield": 13.74, "investor_activity": 57.1, "dom_shift": -5.2, "displacement_risk": 67.3, "flip_rate": 12.3, "affordability_cliff": 0.58, "is_sample_data": true}}, {"type": "Feature", "geometry": {"type": "Polygon", "coordinates": [[[-95.478019, 29.7395], [-95.504, 29.752], [-95.529981, 29.7395], [-95.529981, 29.7145], [-95.504, 29.702], [-95.478019, 29.7145], [-95.478019, 29.7395]]]}, "properties": {"zip": "77063", "name": "Sharpstown N / Tanglewilde", "median_household_income": 57943.0, "median_gross_rent": 1104.0, "median_home_value": 308834.0, "total_population": 26019.0, "renter_pct": 61.9, "rent_burden_pct": 23.8, "listing_velocity": 1.57, "price_trajectory": 36.8, "rental_yield": 4.29, "investor_activity": 46.6, "dom_shift": -3.9, "displacement_risk": 54.3, "flip_rate": 13.2, "affordability_cliff": 1.21, "is_sample_data": true}}, {"type": "Feature", "geometry": {"type": "Polygon", "coordinates": [[[-95.498627, 29.9165], [-95.535, 29.934], [-95.571373, 29.9165], [-95.571373, 29.8815], [-95.535, 29.864], [-95.498627, 29.8815], [-95.498627, 29.9165]]]}, "properties": {"zip": "77064", "name": "Willowbrook S", "median_household_income": 59567.0, "median_gross_rent": 1307.0, "median_home_value": 344871.0, "total_population": 45616.0, "renter_pct": 35.4, "rent_burden_pct": 25.9, "listing_velocity": 1.21, "price_trajectory": 45.2, "rental_yield": 4.55, "investor_activity": 50.3, "dom_shift": -3.0, "displacement_risk": 56.8, "flip_rate": 8.4, "affordability_cliff": 1.24, "is_sample_data": true}}, {"type": "Feature", "geometry": {"type": "Polygon", "coordinates": [[[-95.533627, 29.9375], [-95.57, 29.955], [-95.606373, 29.9375], [-95.606373, 29.9025], [-95.57, 29.885], [-95.533627, 29.9025], [-95.533627, 29.9375]]]}, "properties": {"zip": "77065", "name": "Cypress Creek S", "median_household_income": 62506.0, "median_gross_rent": 1232.0, "median_home_value": 150434.0, "total_population": 30175.0, "renter_pct": 64.1, "rent_burden_pct": 24.4, "listing_velocity": 1.35, "price_trajectory": 44.7, "rental_yield": 9.83, "investor_activity": 51.0, "dom_shift": -8.9, "displacement_risk": 66.2, "flip_rate": 14.1, "affordability_cliff": 0.6, "is_sample_data": true}}, {"type": "Feature", "geometry": {"type": "Polygon", "coordinates": [[[-95.441745, 29.936], [-95.475, 29.952], [-95.508255, 29.936], [-95.508255, 29.904], [-95.475, 29.888], [-95.441745, 29.904], [-95.441745, 29.936]]]}, "properties": {"zip": "77066", "name": "Champions W", "median_household_income": 45011.0, "median_gross_rent": 1306.0, "median_home_value": 306522.0, "total_population": 32217.0, "renter_pct": 56.2, "rent_burden_pct": 34.9, "listing_velocity": 1.34, "price_trajectory": 32.9, "rental_yield": 5.11, "investor_activity": 65.7, "dom_shift": -6.6, "displacement_risk": 59.0, "flip_rate": 11.7, "affordability_cliff": 1.52, "is_sample_data": true}}, {"type": "Feature", "geometry": {"type": "Polygon", "coordinates": [[[-95.403823, 29.923], [-95.435, 29.938], [-95.466177, 29.923], [-95.466177, 29.893], [-95.435, 29.878], [-95.403823, 29.893], [-95.403823, 29.923]]]}, "properties": {"zip": "77067", "name": "FM 1960 / Champions S", "median_household_income": 40713.0, "median_gross_rent": 1056.0, "median_home_value": 306507.0, "total_population": 42765.0, "renter_pct": 41.3, "rent_burden_pct": 32.8, "listing_velocity": 1.51, "price_trajectory": 43.2, "rental_yield": 4.13, "investor_activity": 71.3, "dom_shift": -10.1, "displacement_risk": 64.8, "flip_rate": 13.2, "affordability_cliff": 1.85, "is_sample_data": true}}, {"type": "Feature", "geometry": {"type": "Polygon", "coordinates": [[[-95.435823, 29.95], [-95.467, 29.965], [-95.498177, 29.95], [-95.498177, 29.92], [-95.467, 29.905], [-95.435823, 29.92], [-95.435823, 29.95]]]}, "properties": {"zip": "77068", "name": "Champions Forest", "median_household_income": 63118.0, "median_gross_rent": 1308.0, "median_home_value": 251844.0, "total_population": 39891.0, "renter_pct": 54.7, "rent_burden_pct": 25.2, "listing_velocity": 1.96, "price_trajectory": 31.6, "rental_yield": 6.23, "investor_activity": 66.0, "dom_shift": -9.5, "displacement_risk": 56.7, "flip_rate": 10.8, "affordability_cliff": 0.89, "is_sample_data": true}}, {"type": "Feature", "geometry": {"type": "Polygon", "coordinates": [[[-95.448823, 29.965], [-95.48, 29.98], [-95.511177, 29.965], [-95.511177, 29.935], [-95.48, 29.92], [-95.448823, 29.935], [-95.448823, 29.965]]]}, "properties": {"zip": "77069", "name": "Champions N / Louetta", "median_household_income": 57206.0, "median_gross_rent": 1195.0, "median_home_value": 296633.0, "total_population": 25521.0, "renter_pct": 41.2, "rent_burden_pct": 23.9, "listing_velocity": 1.04, "price_trajectory": 25.2, "rental_yield": 4.83, "investor_activity": 51.0, "dom_shift": -4.3, "displacement_risk": 57.1, "flip_rate": 12.3, "affordability_cliff": 1.37, "is_sample_data": true}}, {"type": "Feature", "geometry": {"type": "Polygon", "coordinates": [[[-95.493627, 29.9575], [-95.53, 29.975], [-95.566373, 29.9575], [-95.566373, 29.9225], [-95.53, 29.905], [-95.493627, 29.9225], [-95.493627, 29.9575]]]}, "properties": {"zip": "77070", "name": "Willowbrook / Lakewood Forest", "median_household_income": 45698.0, "median_gross_rent": 1190.0, "median_home_value": 352602.0, "total_population": 24961.0, "renter_pct": 45.4, "rent_burden_pct": 32.9, "listing_velocity": 2.03, "price_trajectory": 42.3, "rental_yield": 4.05, "investor_activity": 74.0, "dom_shift": -7.7, "displacement_risk": 73.0, "flip_rate": 18.4, "affordability_cliff": 1.68, "is_sample_data": true}}, {"type": "Feature", "geometry": {"type": "Polygon", "coordinates": [[[-95.459902, 29.679], [-95.489, 29.693], [-95.518098, 29.679], [-95.518098, 29.651], [-95.489, 29.637], [-95.459902, 29.651], [-95.459902, 29.679]]]}, "properties": {"zip": "77071", "name": "Westwood / Fondren SW", "median_household_income": 56780.0, "median_gross_rent": 1271.0, "median_home_value": 339186.0, "total_population": 19005.0, "renter_pct": 48.8, "rent_burden_pct": 28.0, "listing_velocity": 1.12, "price_trajectory": 41.5, "rental_yield": 4.5, "investor_activity": 43.7, "dom_shift": -8.0, "displacement_risk": 66.3, "flip_rate": 14.3, "affordability_cliff": 1.49, "is_sample_data": true}}, {"type": "Feature", "geometry": {"type": "Polygon", "coordinates": [[[-95.523823, 29.704], [-95.555, 29.719], [-95.586177, 29.704], [-95.586177, 29.674], [-95.555, 29.659], [-95.523823, 29.674], [-95.523823, 29.704]]]}, "properties": {"zip": "77072", "name": "Alief / Bissonnet W", "median_household_income": 45327.0, "median_gross_rent": 1066.0, "median_home_value": 127985.0, "total_population": 18750.0, "renter_pct": 63.6, "rent_burden_pct": 28.9, "listing_velocity": 1.03, "price_trajectory": 34.6, "rental_yield": 9.99, "investor_activity": 45.8, "dom_shift": -11.1, "displacement_risk": 68.6, "flip_rate": 14.1, "affordability_cliff": 0.81, "is_sample_data": true}}, {"type": "Feature", "geometry": {"type": "Polygon", "coordinates": [[[-95.323627, 29.9575], [-95.36, 29.975], [-95.396373, 29.9575], [-95.396373, 29.9225], [-95.36, 29.905], [-95.323627, 29.9225], [-95.323627, 29.9575]]]}, "properties": {"zip": "77073", "name": "IAH / North Houston", "median_household_income": 50577.0, "median_gross_rent": 1330.0, "median_home_value": 283756.0, "total_population": 45126.0, "renter_pct": 60.7, "rent_burden_pct": 30.9, "listing_velocity": 1.52, "price_trajectory": 29.8, "rental_yield": 5.62, "investor_activity": 62.1, "dom_shift": -10.3, "displacement_risk": 58.5, "flip_rate": 13.6, "affordability_cliff": 1.4, "is_sample_data": true}}, {"type": "Feature", "geometry": {"type": "Polygon", "coordinates": [[[-95.462019, 29.7055], [-95.488, 29.718], [-95.513981, 29.7055], [-95.513981, 29.6805], [-95.488, 29.668], [-95.462019, 29.6805], [-95.462019, 29.7055]]]}, "properties": {"zip": "77074", "name": "Gulfton / Bellaire SW", "median_household_income": 41168.0, "median_gross_rent": 1049.0, "median_home_value": 181183.0, "total_population": 37103.0, "renter_pct": 60.0, "rent_burden_pct": 28.6, "listing_velocity": 1.17, "price_trajectory": 37.2, "rental_yield": 6.95, "investor_activity": 63.9, "dom_shift": -9.3, "displacement_risk": 63.9, "flip_rate": 17.1, "affordability_cliff": 1.12, "is_sample_data": true}}, {"type": "Feature", "geometry": {"type": "Polygon", "coordinates": [[[-95.220823, 29.659], [-95.252, 29.674], [-95.283177, 29.659], [-95.283177, 29.629], [-95.252, 29.614], [-95.220823, 29.629], [-95.220823, 29.659]]]}, "properties": {"zip": "77075", "name": "Sagemont / Beverly Hills", "median_household_income": 37330.0, "median_gross_rent": 1245.0, "median_home_value": 199687.0, "total_population": 18515.0, "renter_pct": 64.8, "rent_burden_pct": 39.7, "listing_velocity": 1.45, "price_trajectory": 41.1, "rental_yield": 7.48, "investor_activity": 62.9, "dom_shift": -11.9, "displacement_risk": 80.9, "flip_rate": 13.4, "affordability_cliff": 1.21, "is_sample_data": true}}, {"type": "Feature", "geometry": {"type": "Polygon", "coordinates": [[[-95.325902, 29.852], [-95.355, 29.866], [-95.384098, 29.852], [-95.384098, 29.824], [-95.355, 29.81], [-95.325902, 29.824], [-95.325902, 29.852]]]}, "properties": {"zip": "77076", "name": "Acres Homes E / Bordersville", "median_household_income": 35786.0, "median_gross_rent": 887.0, "median_home_value": 153485.0, "total_population": 24385.0, "renter_pct": 55.0, "rent_burden_pct": 29.3, "listing_velocity": 1.59, "price_trajectory": 45.7, "rental_yield": 6.93, "investor_activity": 61.6, "dom_shift": -11.6, "displacement_risk": 67.5, "flip_rate": 13.5, "affordability_cliff": 1.22, "is_sample_data": true}}, {"type": "Feature", "geometry": {"type": "Polygon", "coordinates": [[[-95.543627, 29.7625], [-95.58, 29.78], [-95.616373, 29.7625], [-95.616373, 29.7275], [-95.58, 29.71], [-95.543627, 29.7275], [-95.543627, 29.7625]]]}, "properties": {"zip": "77077", "name": "Energy Corridor / Memorial W", "median_household_income": 68640.0, "median_gross_rent": 1212.0, "median_home_value": 258688.0, "total_population": 33464.0, "renter_pct": 49.9, "rent_burden_pct": 20.0, "listing_velocity": 1.36, "price_trajectory": 26.8, "rental_yield": 5.62, "investor_activity": 45.8, "dom_shift": -9.4, "displacement_risk": 61.0, "flip_rate": 9.3, "affordability_cliff": 1.04, "is_sample_data": true}}, {"type": "Feature", "geometry": {"type": "Polygon", "coordinates": [[[-95.208627, 29.8425], [-95.245, 29.86], [-95.281373, 29.8425], [-95.281373, 29.8075], [-95.245, 29.79], [-95.208627, 29.8075], [-95.208627, 29.8425]]]}, "properties": {"zip": "77078", "name": "Cloverleaf / Jacinto City N", "median_household_income": 32974.0, "median_gross_rent": 818.0, "median_home_value": 113197.0, "total_population": 11650.0, "renter_pct": 50.0, "rent_burden_pct": 31.1, "listing_velocity": 1.7, "price_trajectory": 37.8, "rental_yield": 8.67, "investor_activity": 86.4, "dom_shift": -6.3, "displacement_risk": 77.3, "flip_rate": 15.1, "affordability_cliff": 0.86, "is_sample_data": true}}, {"type": "Feature", "geometry": {"type": "Polygon", "coordinates": [[[-95.538823, 29.78], [-95.57, 29.795], [-95.601177, 29.78], [-95.601177, 29.75], [-95.57, 29.735], [-95.538823, 29.75], [-95.538823, 29.78]]]}, "properties": {"zip": "77079", "name": "Memorial / Bunker Hill", "median_household_income": 71357.0, "median_gross_rent": 1133.0, "median_home_value": 348485.0, "total_population": 39488.0, "renter_pct": 45.8, "rent_burden_pct": 19.5, "listing_velocity": 1.86, "price_trajectory": 30.7, "rental_yield": 3.9, "investor_activity": 60.3, "dom_shift": -5.4, "displacement_risk": 60.2, "flip_rate": 9.4, "affordability_cliff": 1.25, "is_sample_data": true}}, {"type": "Feature", "geometry": {"type": "Polygon", "coordinates": [[[-95.470902, 29.824], [-95.5, 29.838], [-95.529098, 29.824], [-95.529098, 29.796], [-95.5, 29.782], [-95.470902, 29.796], [-95.470902, 29.824]]]}, "properties": {"zip": "77080", "name": "Spring Branch", "median_household_income": 54763.0, "median_gross_rent": 1168.0, "median_home_value": 156416.0, "total_population": 17056.0, "renter_pct": 60.8, "rent_burden_pct": 26.7, "listing_velocity": 1.86, "price_trajectory": 29.4, "rental_yield": 8.96, "investor_activity": 59.5, "dom_shift": -7.0, "displacement_risk": 59.5, "flip_rate": 10.5, "affordability_cliff": 0.76, "is_sample_data": true}}, {"type": "Feature", "geometry": {"type": "Polygon", "coordinates": [[[-95.464215, 29.722], [-95.485, 29.732], [-95.505785, 29.722], [-95.505785, 29.702], [-95.485, 29.692], [-95.464215, 29.702], [-95.464215, 29.722]]]}, "properties": {"zip": "77081", "name": "Bellaire / Maplewood S", "median_household_income": 65209.0, "median_gross_rent": 936.0, "median_home_value": 233111.0, "total_population": 46270.0, "renter_pct": 45.4, "rent_burden_pct": 18.4, "listing_velocity": 1.35, "price_trajectory": 34.1, "rental_yield": 4.82, "investor_activity": 60.8, "dom_shift": -8.3, "displacement_risk": 57.7, "flip_rate": 13.3, "affordability_cliff": 1.02, "is_sample_data": true}}, {"type": "Feature", "geometry": {"type": "Polygon", "coordinates": [[[-95.548627, 29.7405], [-95.585, 29.758], [-95.621373, 29.7405], [-95.621373, 29.7055], [-95.585, 29.688], [-95.548627, 29.7055], [-95.548627, 29.7405]]]}, "properties": {"zip": "77082", "name": "Westchase S / Mission Bend N", "median_household_income": 61838.0, "median_gross_rent": 1417.0, "median_home_value": 298407.0, "total_population": 40085.0, "renter_pct": 54.2, "rent_burden_pct": 27.6, "listing_velocity": 1.23, "price_trajectory": 35.6, "rental_yield": 5.7, "investor_activity": 66.7, "dom_shift": -5.6, "displacement_risk": 65.3, "flip_rate": 11.4, "affordability_cliff": 1.17, "is_sample_data": true}}, {"type": "Feature", "geometry": {"type": "Polygon", "coordinates": [[[-95.580509, 29.709], [-95.62, 29.728], [-95.659491, 29.709], [-95.659491, 29.671], [-95.62, 29.652], [-95.580509, 29.671], [-95.580509, 29.709]]]}, "properties": {"zip": "77083", "name": "Mission Bend / Alief W", "median_household_income": 58363.0, "median_gross_rent": 1018.0, "median_home_value": 148663.0, "total_population": 29079.0, "renter_pct": 41.4, "rent_burden_pct": 22.1, "listing_velocity": 1.41, "price_trajectory": 39.6, "rental_yield": 8.22, "investor_activity": 55.6, "dom_shift": -7.5, "displacement_risk": 67.0, "flip_rate": 15.6, "affordability_cliff": 0.61, "is_sample_data": true}}, {"type": "Feature", "geometry": {"type": "Polygon", "coordinates": [[[-95.593235, 29.8325], [-95.64, 29.855], [-95.686765, 29.8325], [-95.686765, 29.7875], [-95.64, 29.765], [-95.593235, 29.7875], [-95.593235, 29.8325]]]}, "properties": {"zip": "77084", "name": "Addicks / Bear Creek", "median_household_income": 46112.0, "median_gross_rent": 898.0, "median_home_value": 257905.0, "total_population": 26892.0, "renter_pct": 57.5, "rent_burden_pct": 25.2, "listing_velocity": 1.47, "price_trajectory": 47.8, "rental_yield": 4.18, "investor_activity": 45.2, "dom_shift": -8.4, "displacement_risk": 70.4, "flip_rate": 17.4, "affordability_cliff": 1.37, "is_sample_data": true}}, {"type": "Feature", "geometry": {"type": "Polygon", "coordinates": [[[-95.408823, 29.645], [-95.44, 29.66], [-95.471177, 29.645], [-95.471177, 29.615], [-95.44, 29.6], [-95.408823, 29.615], [-95.408823, 29.645]]]}, "properties": {"zip": "77085", "name": "Fondren / South Post Oak", "median_household_income": 61724.0, "median_gross_rent": 1350.0, "median_home_value": 149073.0, "total_population": 45438.0, "renter_pct": 42.6, "rent_burden_pct": 25.7, "listing_velocity": 1.15, "price_trajectory": 41.4, "rental_yield": 10.87, "investor_activity": 62.4, "dom_shift": -2.4, "displacement_risk": 71.5, "flip_rate": 9.1, "affordability_cliff": 0.54, "is_sample_data": true}}, {"type": "Feature", "geometry": {"type": "Polygon", "coordinates": [[[-95.413823, 29.895], [-95.445, 29.91], [-95.476177, 29.895], [-95.476177, 29.865], [-95.445, 29.85], [-95.413823, 29.865], [-95.413823, 29.895]]]}, "properties": {"zip": "77086", "name": "North Houston / Veterans Memorial", "median_household_income": 56669.0, "median_gross_rent": 1259.0, "median_home_value": 277330.0, "total_population": 19227.0, "renter_pct": 36.1, "rent_burden_pct": 27.8, "listing_velocity": 1.51, "price_trajectory": 37.4, "rental_yield": 5.45, "investor_activity": 54.5, "dom_shift": -7.4, "displacement_risk": 60.7, "flip_rate": 13.3, "affordability_cliff": 1.21, "is_sample_data": true}}, {"type": "Feature", "geometry": {"type": "Polygon", "coordinates": [[[-95.283902, 29.699], [-95.313, 29.713], [-95.342098, 29.699], [-95.342098, 29.671], [-95.313, 29.657], [-95.283902, 29.671], [-95.283902, 29.699]]]}, "properties": {"zip": "77087", "name": "OST / South Union / Pecan Park", "median_household_income": 38370.0, "median_gross_rent": 881.0, "median_home_value": 155086.0, "total_population": 34853.0, "renter_pct": 52.0, "rent_burden_pct": 28.4, "listing_velocity": 1.27, "price_trajectory": 32.2, "rental_yield": 6.82, "investor_activity": 74.1, "dom_shift": -5.2, "displacement_risk": 64.8, "flip_rate": 12.2, "affordability_cliff": 1.05, "is_sample_data": true}}, {"type": "Feature", "geometry": {"type": "Polygon", "coordinates": [[[-95.363823, 29.867], [-95.395, 29.882], [-95.426177, 29.867], [-95.426177, 29.837], [-95.395, 29.822], [-95.363823, 29.837], [-95.363823, 29.867]]]}, "properties": {"zip": "77088", "name": "Acres Homes / Inwood", "median_household_income": 73460.0, "median_gross_rent": 1009.0, "median_home_value": 238084.0, "total_population": 29636.0, "renter_pct": 51.5, "rent_burden_pct": 17.2, "listing_velocity": 1.2, "price_trajectory": 35.7, "rental_yield": 5.09, "investor_activity": 45.1, "dom_shift": -3.0, "displacement_risk": 57.5, "flip_rate": 12.1, "affordability_cliff": 0.76, "is_sample_data": true}}, {"type": "Feature", "geometry": {"type": "Polygon", "coordinates": [[[-95.188627, 29.6075], [-95.225, 29.625], [-95.261373, 29.6075], [-95.261373, 29.5725], [-95.225, 29.555], [-95.188627, 29.5725], [-95.188627, 29.6075]]]}, "properties": {"zip": "77089", "name": "South Belt / Ellington S", "median_household_income": 67697.0, "median_gross_rent": 856.0, "median_home_value": 138590.0, "total_population": 20551.0, "renter_pct": 40.1, "rent_burden_pct": 15.8, "listing_velocity": 1.86, "price_trajectory": 29.5, "rental_yield": 7.41, "investor_activity": 64.7, "dom_shift": -2.0, "displacement_risk": 56.8, "flip_rate": 13.2, "affordability_cliff": 0.48, "is_sample_data": true}}, {"type": "Feature", "geometry": {"type": "Polygon", "coordinates": [[[-95.383823, 29.95], [-95.415, 29.965], [-95.446177, 29.95], [-95.446177, 29.92], [-95.415, 29.905], [-95.383823, 29.92], [-95.383823, 29.95]]]}, "properties": {"zip": "77090", "name": "FM 1960 E / North Champions", "median_household_income": 62763.0, "median_gross_rent": 822.0, "median_home_value": 195051.0, "total_population": 38837.0, "renter_pct": 47.0, "rent_burden_pct": 16.3, "listing_velocity": 1.72, "price_trajectory": 32.8, "rental_yield": 5.06, "investor_activity": 62.7, "dom_shift": -7.7, "displacement_risk": 58.7, "flip_rate": 14.8, "affordability_cliff": 0.87, "is_sample_data": true}}, {"type": "Feature", "geometry": {"type": "Polygon", "coordinates": [[[-95.394019, 29.8475], [-95.42, 29.86], [-95.445981, 29.8475], [-95.445981, 29.8225], [-95.42, 29.81], [-95.394019, 29.8225], [-95.394019, 29.8475]]]}, "properties": {"zip": "77091", "name": "Acres Homes W / Candlelight", "median_household_income": 42662.0, "median_gross_rent": 968.0, "median_home_value": 176285.0, "total_population": 27619.0, "renter_pct": 48.0, "rent_burden_pct": 27.1, "listing_velocity": 1.57, "price_trajectory": 38.2, "rental_yield": 6.59, "investor_activity": 59.9, "dom_shift": -5.9, "displacement_risk": 72.0, "flip_rate": 9.7, "affordability_cliff": 1.05, "is_sample_data": true}}, {"type": "Feature", "geometry": {"type": "Polygon", "coordinates": [[[-95.439019, 29.8325], [-95.465, 29.845], [-95.490981, 29.8325], [-95.490981, 29.8075], [-95.465, 29.795], [-95.439019, 29.8075], [-95.439019, 29.8325]]]}, "properties": {"zip": "77092", "name": "Garden Oaks W / Mangum", "median_household_income": 46482.0, "median_gross_rent": 1322.0, "median_home_value": 293209.0, "total_population": 24116.0, "renter_pct": 53.0, "rent_burden_pct": 37.3, "listing_velocity": 1.92, "price_trajectory": 50.5, "rental_yield": 5.41, "investor_activity": 66.7, "dom_shift": -7.1, "displacement_risk": 81.4, "flip_rate": 14.6, "affordability_cliff": 1.39, "is_sample_data": true}}, {"type": "Feature", "geometry": {"type": "Polygon", "coordinates": [[[-95.283627, 29.8725], [-95.32, 29.89], [-95.356373, 29.8725], [-95.356373, 29.8375], [-95.32, 29.82], [-95.283627, 29.8375], [-95.283627, 29.8725]]]}, "properties": {"zip": "77093", "name": "Aldine S / Homestead", "median_household_income": 33225.0, "median_gross_rent": 863.0, "median_home_value": 124820.0, "total_population": 29895.0, "renter_pct": 52.0, "rent_burden_pct": 30.0, "listing_velocity": 1.76, "price_trajectory": 55.1, "rental_yield": 8.3, "investor_activity": 84.4, "dom_shift": -12.1, "displacement_risk": 82.3, "flip_rate": 14.6, "affordability_cliff": 0.8, "is_sample_data": true}}, {"type": "Feature", "geometry": {"type": "Polygon", "coordinates": [[[-95.608431, 29.79], [-95.65, 29.81], [-95.691569, 29.79], [-95.691569, 29.75], [-95.65, 29.73], [-95.608431, 29.75], [-95.608431, 29.79]]]}, "properties": {"zip": "77094", "name": "Cinco Ranch / Katy E", "median_household_income": 56156.0, "median_gross_rent": 1240.0, "median_home_value": 250502.0, "total_population": 18456.0, "renter_pct": 45.0, "rent_burden_pct": 29.1, "listing_velocity": 1.47, "price_trajectory": 41.3, "rental_yield": 5.94, "investor_activity": 64.6, "dom_shift": -10.0, "displacement_risk": 58.9, "flip_rate": 8.6, "affordability_cliff": 1.24, "is_sample_data": true}}, {"type": "Feature", "geometry": {"type": "Polygon", "coordinates": [[[-95.578431, 29.9], [-95.62, 29.92], [-95.661569, 29.9], [-95.661569, 29.86], [-95.62, 29.84], [-95.578431, 29.86], [-95.578431, 29.9]]]}, "properties": {"zip": "77095", "name": "Copperfield / Bear Creek N", "median_household_income": 67597.0, "median_gross_rent": 1281.0, "median_home_value": 171141.0, "total_population": 48621.0, "renter_pct": 61.1, "rent_burden_pct": 22.0, "listing_velocity": 1.62, "price_trajectory": 24.3, "rental_yield": 8.98, "investor_activity": 68.1, "dom_shift": -4.0, "displacement_risk": 56.9, "flip_rate": 10.0, "affordability_cliff": 0.6, "is_sample_data": true}}, {"type": "Feature", "geometry": {"type": "Polygon", "coordinates": [[[-95.439019, 29.6845], [-95.465, 29.697], [-95.490981, 29.6845], [-95.490981, 29.6595], [-95.465, 29.647], [-95.439019, 29.6595], [-95.439019, 29.6845]]]}, "properties": {"zip": "77096", "name": "Fondren / Braeburn Glen", "median_household_income": 54988.0, "median_gross_rent": 1453.0, "median_home_value": 224903.0, "total_population": 43511.0, "renter_pct": 47.8, "rent_burden_pct": 30.0, "listing_velocity": 1.29, "price_trajectory": 39.0, "rental_yield": 7.75, "investor_activity": 57.8, "dom_shift": -8.5, "displacement_risk": 74.7, "flip_rate": 11.9, "affordability_cliff": 0.92, "is_sample_data": true}}, {"type": "Feature", "geometry": {"type": "Polygon", "coordinates": [[[-95.392294, 29.744], [-95.411, 29.753], [-95.429706, 29.744], [-95.429706, 29.726], [-95.411, 29.717], [-95.392294, 29.726], [-95.392294, 29.744]]]}, "properties": {"zip": "77098", "name": "Upper Kirby / Montrose S", "median_household_income": 98519.0, "median_gross_rent": 1741.0, "median_home_value": 505521.0, "total_population": 20334.0, "renter_pct": 62.0, "rent_burden_pct": 21.5, "listing_velocity": 1.0, "price_trajectory": 26.3, "rental_yield": 4.13, "investor_activity": 38.4, "dom_shift": -2.1, "displacement_risk": 47.9, "flip_rate": 11.9, "affordability_cliff": 1.13, "is_sample_data": true}}, {"type": "Feature", "geometry": {"type": "Polygon", "coordinates": [[[-95.508823, 29.683], [-95.54, 29.698], [-95.571177, 29.683], [-95.571177, 29.653], [-95.54, 29.638], [-95.508823, 29.653], [-95.508823, 29.683]]]}, "properties": {"zip": "77099", "name": "Westwood / Alief S", "median_household_income": 55849.0, "median_gross_rent": 1123.0, "median_home_value": 313859.0, "total_population": 25064.0, "renter_pct": 36.3, "rent_burden_pct": 24.0, "listing_velocity": 1.63, "price_trajectory": 43.5, "rental_yield": 4.29, "investor_activity": 51.6, "dom_shift": -3.5, "displacement_risk": 67.8, "flip_rate": 12.6, "affordability_cliff": 1.46, "is_sample_data": true}}]}